number_of_fastfood,zip_code1,zip_code,county,state
1,01923-3619,1923,Essex County,MA
1,02111-1318,2111,Suffolk County,MA
1,02916-2020,2916,Providence County,RI
1,04938-6124,4938,Franklin County,ME
1,05301-9049,5301,Windham County,VT
1,06492-2410,6492,New Haven County,CT
1,07111-4718,7111,Essex County,NJ
2,10001,10001,New York County,NY
3,10002,10002,New York County,NY
2,10003,10003,New York County,NY
1,10005,10005,New York County,NY
1,10006,10006,New York County,NY
1,10007,10007,New York County,NY
1,10009,10009,New York County,NY
2,10010,10010,New York County,NY
2,10011,10011,New York County,NY
1,10014,10014,New York County,NY
1,10016,10016,New York County,NY
1,10018,10018,New York County,NY
1,10019,10019,New York County,NY
1,10022,10022,New York County,NY
2,10025,10025,New York County,NY
2,10027,10027,New York County,NY
2,10029,10029,New York County,NY
1,10030,10030,New York County,NY
1,10033,10033,New York County,NY
1,10034,10034,New York County,NY
3,10036,10036,New York County,NY
2,10038,10038,New York County,NY
1,10039,10039,New York County,NY
1,10128,10128,New York County,NY
2,1020,1020,Hampden County,MA
1,1027,1027,Hampshire County,MA
1,10306,10306,Richmond County,NY
1,10310,10310,Richmond County,NY
1,10314,10314,Richmond County,NY
1,1040,1040,Hampden County,MA
2,10451,10451,Bronx County,NY
1,10452,10452,Bronx County,NY
2,10455,10455,Bronx County,NY
1,10456,10456,Bronx County,NY
3,10457,10457,Bronx County,NY
1,10458,10458,Bronx County,NY
1,10460,10460,Bronx County,NY
3,10461,10461,Bronx County,NY
2,10462,10462,Bronx County,NY
1,10463,10463,Bronx County,NY
1,10465,10465,Bronx County,NY
1,10466,10466,Bronx County,NY
1,10467,10467,Bronx County,NY
1,10469,10469,Bronx County,NY
3,10475,10475,Bronx County,NY
1,10541,10541,Putnam County,NY
1,10550,10550,Westchester County,NY
1,10567,10567,Westchester County,NY
1,10573,10573,Westchester County,NY
1,1060,1060,Hampshire County,MA
1,1073,1073,Hampshire County,MA
1,10801,10801,Westchester County,NY
1,10901,10901,Rockland County,NY
1,10940,10940,Orange County,NY
1,10990,10990,Orange County,NY
1,1104,1104,Hampden County,MA
1,11050,11050,Nassau County,NY
1,1106,1106,Hampden County,MA
1,1109,1109,Hampden County,MA
1,11103,11103,Queens County,NY
3,11201,11201,Kings County,NY
2,11203,11203,Kings County,NY
1,11205,11205,Kings County,NY
1,11207,11207,Kings County,NY
3,11208,11208,Kings County,NY
1,11214,11214,Kings County,NY
1,11216,11216,Kings County,NY
1,11220,11220,Kings County,NY
1,11222,11222,Kings County,NY
1,11223,11223,Kings County,NY
1,11233,11233,Kings County,NY
1,11235,11235,Kings County,NY
3,11236,11236,Kings County,NY
1,11237,11237,Kings County,NY
1,11360,11360,Queens County,NY
1,11361,11361,Queens County,NY
1,11364,11364,Queens County,NY
1,11365,11365,Queens County,NY
1,11367,11367,Queens County,NY
2,11373,11373,Queens County,NY
1,11374,11374,Queens County,NY
1,11379,11379,Queens County,NY
1,11415,11415,Queens County,NY
1,11418,11418,Queens County,NY
1,11420,11420,Queens County,NY
1,11427,11427,Queens County,NY
2,11433,11433,Queens County,NY
1,11530,11530,Nassau County,NY
1,11550,11550,Nassau County,NY
1,11554,11554,Nassau County,NY
1,11572,11572,Nassau County,NY
1,11580,11580,Nassau County,NY
1,11694,11694,Queens County,NY
1,11701,11701,Suffolk County,NY
1,11722,11722,Suffolk County,NY
1,11726,11726,Suffolk County,NY
1,11743,11743,Suffolk County,NY
1,11756,11756,Nassau County,NY
1,11772,11772,Suffolk County,NY
1,11776,11776,Suffolk County,NY
1,11780,11780,Suffolk County,NY
1,11784,11784,Suffolk County,NY
1,11787,11787,Suffolk County,NY
1,11792,11792,Suffolk County,NY
1,11798,11798,Suffolk County,NY
1,11801,11801,Nassau County,NY
1,11967,11967,Suffolk County,NY
2,1201,1201,Berkshire County,MA
2,12043,12043,Schoharie County,NY
1,12110,12110,Albany County,NY
1,12118,12118,Saratoga County,NY
1,12130,12130,Columbia County,NY
1,12180,12180,Rensselaer County,NY
1,12182,12182,Rensselaer County,NY
3,12203,12203,Albany County,NY
1,12205,12205,Albany County,NY
1,1230,1230,Berkshire County,MA
2,1238,1238,Berkshire County,MA
1,1240,1240,Berkshire County,MA
2,12401,12401,Ulster County,NY
1,12413,12413,Greene County,NY
1,12453,12453,Ulster County,NY
1,1247,1247,Berkshire County,MA
1,12524,12524,Dutchess County,NY
1,12538,12538,Dutchess County,NY
1,12546,12546,Dutchess County,NY
2,12553,12553,Orange County,NY
1,12701,12701,Sullivan County,NY
1,12754,12754,Sullivan County,NY
1,12801,12801,Warren County,NY
1,12834,12834,Washington County,NY
1,12866,12866,Saratoga County,NY
7,12901,12901,Clinton County,NY
1,12953,12953,Franklin County,NY
1,12983,12983,Franklin County,NY
2,13021,13021,Cayuga County,NY
1,13027,13027,Onondaga County,NY
1,13031,13031,Onondaga County,NY
1,13032,13032,Madison County,NY
1,13039,13039,Onondaga County,NY
1,13045,13045,Cortland County,NY
1,13069,13069,Oswego County,NY
1,13090,13090,Onondaga County,NY
2,13126,13126,Oswego County,NY
1,13148,13148,Seneca County,NY
1,13208,13208,Onondaga County,NY
1,13210,13210,Onondaga County,NY
2,13212,13212,Onondaga County,NY
1,13219,13219,Onondaga County,NY
1,13346,13346,Madison County,NY
1,13365,13365,Herkimer County,NY
5,13421,13421,Madison County,NY
6,13440,13440,Oneida County,NY
1,13490,13490,Oneida County,NY
1,13492,13492,Oneida County,NY
1,13501,13501,Oneida County,NY
3,13502,13502,Oneida County,NY
2,13601,13601,Jefferson County,NY
1,13617,13617,St. Lawrence County,NY
1,13637,13637,Jefferson County,NY
3,13662,13662,St. Lawrence County,NY
1,13669,13669,St. Lawrence County,NY
2,13676,13676,St. Lawrence County,NY
1,13753,13753,Delaware County,NY
2,13760,13760,Broome County,NY
1,13790,13790,Broome County,NY
1,13815,13815,Chenango County,NY
6,13820,13820,Otsego County,NY
3,13827,13827,Tioga County,NY
2,13850,13850,Broome County,NY
3,13904,13904,Broome County,NY
1,13905,13905,Broome County,NY
2,14043,14043,Erie County,NY
2,14075,14075,Erie County,NY
1,14094,14094,Niagara County,NY
1,14141,14141,Erie County,NY
1,14150,14150,Erie County,NY
2,1420,1420,Worcester County,MA
1,14207,14207,Erie County,NY
1,14221,14221,Erie County,NY
1,14304,14304,Niagara County,NY
3,1432,1432,Middlesex County,MA
1,14414,14414,Livingston County,NY
2,14420,14420,Monroe County,NY
1,14445,14445,Monroe County,NY
1,14450,14450,Monroe County,NY
1,14456,14456,Ontario County,NY
2,1453,1453,Worcester County,MA
2,14564,14564,Ontario County,NY
1,14580,14580,Monroe County,NY
1,14606,14606,Monroe County,NY
1,14607,14607,Monroe County,NY
1,14616,14616,Monroe County,NY
1,14620,14620,Monroe County,NY
1,14621,14621,Monroe County,NY
1,14626,14626,Monroe County,NY
1,14701,14701,Chautauqua County,NY
1,14760,14760,Cattaraugus County,NY
2,14779,14779,Cattaraugus County,NY
1,14843,14843,Steuben County,NY
3,14850,14850,Tompkins County,NY
2,14870,14870,Steuben County,NY
1,14891,14891,Schuyler County,NY
1,14903,14903,Chemung County,NY
1,15005,15005,Beaver County,PA
1,1501,1501,Worcester County,MA
1,15012,15012,Westmoreland County,PA
1,15017,15017,Allegheny County,PA
1,15034,15034,Allegheny County,PA
1,15068,15068,Westmoreland County,PA
1,15120,15120,Allegheny County,PA
1,15122,15122,Allegheny County,PA
1,15132,15132,Allegheny County,PA
2,15137,15137,Allegheny County,PA
1,15222-1811,15222,Allegheny County,PA
1,15224,15224,Allegheny County,PA
1,15227,15227,Allegheny County,PA
4,15235,15235,Allegheny County,PA
1,15236,15236,Allegheny County,PA
1,15237,15237,Allegheny County,PA
1,15238,15238,Allegheny County,PA
1,15301,15301,Washington County,PA
1,15370,15370,Greene County,PA
1,1540,1540,Worcester County,MA
1,15425,15425,Fayette County,PA
2,1550,1550,Worcester County,MA
4,15501,15501,Somerset County,PA
1,15533,15533,Bedford County,PA
3,15601,15601,Westmoreland County,PA
2,15642,15642,Westmoreland County,PA
1,15650,15650,Westmoreland County,PA
1,15656,15656,Westmoreland County,PA
1,15656-9420,15656,Westmoreland County,PA
1,15668,15668,Westmoreland County,PA
1,15672,15672,Westmoreland County,PA
1,15701,15701,Indiana County,PA
1,1581,1581,Worcester County,MA
2,15825,15825,Jefferson County,PA
1,15905,15905,Cambria County,PA
1,1601,1601,#N/A,#N/A
1,1604,1604,Worcester County,MA
1,16066,16066,Butler County,PA
2,16127,16127,Mercer County,PA
1,16148,16148,Mercer County,PA
8,16335,16335,Crawford County,PA
1,16401-8211,16401,Erie County,PA
1,16415,16415,Erie County,PA
1,16509,16509,Erie County,PA
2,16652,16652,Huntingdon County,PA
2,16823,16823,Centre County,PA
1,16830,16830,Clearfield County,PA
1,16866,16866,Centre County,PA
3,16933,16933,Tioga County,PA
1,1701,1701,Middlesex County,MA
3,17013,17013,Cumberland County,PA
1,17022,17022,Lancaster County,PA
2,17025,17025,Cumberland County,PA
1,17038,17038,Lebanon County,PA
2,17042,17042,Lebanon County,PA
3,17043,17043,Cumberland County,PA
3,17044,17044,Mifflin County,PA
5,17050,17050,Cumberland County,PA
1,17055,17055,Cumberland County,PA
1,17067,17067,Lebanon County,PA
1,17101,17101,Dauphin County,PA
1,17109,17109,Dauphin County,PA
1,17110,17110,Dauphin County,PA
1,1720,1720,Middlesex County,MA
9,17201,17201,Franklin County,PA
2,17202,17202,Franklin County,PA
2,17225,17225,Franklin County,PA
1,17236,17236,Franklin County,PA
3,17257,17257,Cumberland County,PA
2,17268,17268,Franklin County,PA
1,17319,17319,York County,PA
2,17325,17325,Adams County,PA
2,17331,17331,York County,PA
1,17340,17340,Adams County,PA
1,17401,17401,York County,PA
4,17402,17402,York County,PA
2,17404,17404,York County,PA
1,17512,17512,Lancaster County,PA
1,1752,1752,Middlesex County,MA
1,17522,17522,Lancaster County,PA
1,17545,17545,Lancaster County,PA
1,17552,17552,Lancaster County,PA
1,17566,17566,Lancaster County,PA
1,17566-9116,17566,Lancaster County,PA
1,1757,1757,Worcester County,MA
2,17602,17602,Lancaster County,PA
8,17701,17701,Lycoming County,PA
1,17702,17702,Lycoming County,PA
1,17740,17740,Lycoming County,PA
1,17754,17754,Lycoming County,PA
2,17756,17756,Lycoming County,PA
1,17801,17801,Northumberland County,PA
8,17815,17815,Columbia County,PA
2,17821,17821,Montour County,PA
1,17824,17824,Northumberland County,PA
1,17831,17831,#N/A,#N/A
5,17837,17837,Union County,PA
1,17844,17844,Union County,PA
1,17847,17847,Northumberland County,PA
1,17866,17866,Northumberland County,PA
1,17870,17870,Snyder County,PA
1,17872,17872,Northumberland County,PA
1,17876,17876,Snyder County,PA
1,17901,17901,Schuylkill County,PA
1,17931,17931,Schuylkill County,PA
1,17963,17963,Schuylkill County,PA
1,17976,17976,Schuylkill County,PA
1,1801,1801,Middlesex County,MA
2,18015,18015,Northampton County,PA
1,18017,18017,Northampton County,PA
2,1803,1803,Middlesex County,MA
1,18032,18032,Lehigh County,PA
1,18036,18036,Lehigh County,PA
1,18049,18049,Lehigh County,PA
1,18052,18052,Lehigh County,PA
1,18069,18069,Lehigh County,PA
1,18073,18073,Montgomery County,PA
1,18078,18078,Lehigh County,PA
1,18087,18087,Lehigh County,PA
1,18103,18103,Lehigh County,PA
1,18109,18109,Lehigh County,PA
4,18202,18202,Luzerne County,PA
1,1821,1821,Middlesex County,MA
1,18229,18229,Carbon County,PA
1,1824,1824,Middlesex County,MA
1,18301,18301,Monroe County,PA
1,18321,18321,Monroe County,PA
1,18326,18326,Monroe County,PA
1,18336,18336,Pike County,PA
1,18337,18337,Pike County,PA
2,18360,18360,Monroe County,PA
1,18407,18407,Lackawanna County,PA
2,18411,18411,Lackawanna County,PA
1,18428,18428,Pike County,PA
5,1843,1843,Essex County,MA
1,18436,18436,Wayne County,PA
1,1844,1844,Essex County,MA
1,18503,18503,Lackawanna County,PA
1,18508,18508,Lackawanna County,PA
1,1851,1851,Middlesex County,MA
1,1854,1854,Middlesex County,MA
1,18612,18612,Luzerne County,PA
1,1862,1862,Middlesex County,MA
4,18640,18640,Luzerne County,PA
1,18640-3907,18640,Luzerne County,PA
1,18644,18644,Luzerne County,PA
2,18657,18657,Wyoming County,PA
1,18661,18661,Luzerne County,PA
1,18701,18701,Luzerne County,PA
5,18702,18702,Luzerne County,PA
5,18704,18704,Luzerne County,PA
1,18705,18705,Luzerne County,PA
2,18706,18706,Luzerne County,PA
2,18707,18707,Luzerne County,PA
1,18708,18708,Luzerne County,PA
2,1876,1876,Middlesex County,MA
2,1886,1886,Middlesex County,MA
1,1890,1890,Middlesex County,MA
1,18914,18914,Bucks County,PA
1,18929,18929,Bucks County,PA
1,18951,18951,Bucks County,PA
2,19020,19020,Bucks County,PA
1,19025,19025,Montgomery County,PA
1,19047,19047,Bucks County,PA
1,19063-3411,19063,Delaware County,PA
1,19082,19082,Delaware County,PA
1,19102,19102,Philadelphia County,PA
2,19103,19103,Philadelphia County,PA
2,19106,19106,Philadelphia County,PA
1,19107,19107,Philadelphia County,PA
1,19111,19111,Philadelphia County,PA
1,19115,19115,Philadelphia County,PA
1,19121,19121,Philadelphia County,PA
1,19122,19122,Philadelphia County,PA
2,19124,19124,Philadelphia County,PA
1,19128,19128,Philadelphia County,PA
1,1913,1913,Essex County,MA
1,19131,19131,Philadelphia County,PA
1,19134,19134,Philadelphia County,PA
1,19135,19135,Philadelphia County,PA
1,19139,19139,Philadelphia County,PA
1,19147,19147,Philadelphia County,PA
2,19148,19148,Philadelphia County,PA
2,1915,1915,Essex County,MA
1,19150,19150,Philadelphia County,PA
1,19152,19152,Philadelphia County,PA
2,19153,19153,Philadelphia County,PA
2,19154,19154,Philadelphia County,PA
1,1923,1923,Essex County,MA
1,19320,19320,Chester County,PA
1,19341,19341,Chester County,PA
1,19355,19355,Chester County,PA
1,19382,19382,Chester County,PA
1,19401,19401,Montgomery County,PA
1,19403,19403,Montgomery County,PA
2,19428,19428,Montgomery County,PA
1,19446,19446,Montgomery County,PA
1,19468,19468,Montgomery County,PA
1,19526,19526,Berks County,PA
1,19530,19530,Berks County,PA
1,1960,1960,Essex County,MA
1,19605,19605,Berks County,PA
2,19606,19606,Berks County,PA
1,19607,19607,Berks County,PA
1,19611,19611,Berks County,PA
1,19702,19702,New Castle County,DE
4,19711,19711,New Castle County,DE
1,19806,19806,New Castle County,DE
1,19808,19808,New Castle County,DE
3,19901,19901,Kent County,DE
1,19930,19930,Sussex County,DE
2,19934,19934,Kent County,DE
1,19952,19952,Kent County,DE
2,19963,19963,Sussex County,DE
3,19966,19966,Sussex County,DE
1,19966-4737,19966,Sussex County,DE
6,19971,19971,Sussex County,DE
2,19973,19973,Sussex County,DE
2,19975,19975,Sussex County,DE
1,19977,19977,Kent County,DE
1,19980,19980,#N/A,#N/A
1,20001,20001,District of Columbia,DC
5,20002,20002,District of Columbia,DC
1,20004,20004,District of Columbia,DC
1,20005,20005,District of Columbia,DC
2,20006,20006,District of Columbia,DC
1,20007,20007,District of Columbia,DC
1,20008,20008,District of Columbia,DC
1,20009,20009,District of Columbia,DC
2,20011,20011,District of Columbia,DC
1,20015,20015,District of Columbia,DC
3,20016,20016,District of Columbia,DC
1,20017,20017,District of Columbia,DC
1,20020,20020,District of Columbia,DC
5,20109,20109,Prince William County,VA
1,20110,20110,Manassas city,VA
1,20115,20115,Fauquier County,VA
1,20121,20121,Fairfax County,VA
1,20135,20135,Clarke County,VA
2,20151,20151,Fairfax County,VA
2,20155,20155,Prince William County,VA
1,20165,20165,Loudoun County,VA
1,20166,20166,Loudoun County,VA
1,20169,20169,Prince William County,VA
2,20170,20170,Fairfax County,VA
2,20171,20171,Fairfax County,VA
3,20186,20186,Fauquier County,VA
1,20187,20187,Fauquier County,VA
1,20194,20194,Fairfax County,VA
2,2032,2032,Norfolk County,MA
1,2035,2035,Norfolk County,MA
3,2038,2038,Norfolk County,MA
2,2053,2053,Norfolk County,MA
2,20646,20646,Charles County,MD
3,20650,20650,St. Mary's County,MD
1,20653,20653,St. Mary's County,MD
1,20659,20659,St. Mary's County,MD
2,20678,20678,Calvert County,MD
1,20688,20688,Calvert County,MD
1,20705,20705,Prince George's County,MD
1,20714,20714,Calvert County,MD
1,2072,2072,Norfolk County,MA
1,20723,20723,Howard County,MD
1,20733,20733,Anne Arundel County,MD
1,20740,20740,Prince George's County,MD
5,20743,20743,Prince George's County,MD
1,20745,20745,Prince George's County,MD
1,20746,20746,Prince George's County,MD
1,20770,20770,Prince George's County,MD
2,20772,20772,Prince George's County,MD
3,20782,20782,Prince George's County,MD
1,20784,20784,Prince George's County,MD
2,20785,20785,Prince George's County,MD
1,20794,20794,Howard County,MD
1,20814,20814,Montgomery County,MD
1,20817,20817,Montgomery County,MD
1,20850,20850,Montgomery County,MD
3,20852,20852,Montgomery County,MD
1,20855,20855,Montgomery County,MD
2,20874,20874,Montgomery County,MD
1,20876,20876,Montgomery County,MD
3,20877,20877,Montgomery County,MD
1,20879,20879,Montgomery County,MD
1,20886,20886,Montgomery County,MD
1,20901,20901,Montgomery County,MD
2,20902,20902,Montgomery County,MD
1,20904,20904,Montgomery County,MD
2,20906,20906,Montgomery County,MD
1,20910,20910,Montgomery County,MD
1,21001,21001,Harford County,MD
2,21015,21015,Harford County,MD
2,21029,21029,Howard County,MD
2,21030,21030,Baltimore County,MD
1,21042,21042,Howard County,MD
3,21044,21044,Howard County,MD
1,21046,21046,Howard County,MD
1,21060,21060,Anne Arundel County,MD
2,21061,21061,Anne Arundel County,MD
2,21074,21074,Carroll County,MD
2,21075,21075,Howard County,MD
3,2108,2108,Suffolk County,MA
1,21085,21085,Harford County,MD
2,2109,2109,Suffolk County,MA
1,21090,21090,Anne Arundel County,MD
1,21093,21093,Baltimore County,MD
1,2110,2110,Suffolk County,MA
1,2111,2111,Suffolk County,MA
1,21117,21117,Baltimore County,MD
2,21122,21122,Anne Arundel County,MD
1,21146,21146,Anne Arundel County,MD
3,21157,21157,Carroll County,MD
4,21204,21204,Baltimore County,MD
2,21207,21207,Baltimore County,MD
2,21208,21208,Baltimore County,MD
1,21210,21210,Baltimore city,MD
1,21214,21214,Baltimore city,MD
1,21215,21215,Baltimore city,MD
1,21221,21221,Baltimore County,MD
1,21222,21222,Baltimore County,MD
1,21223,21223,Baltimore city,MD
1,21227,21227,Baltimore County,MD
1,21230,21230,Baltimore city,MD
1,21231,21231,Baltimore city,MD
1,21234,21234,Baltimore County,MD
2,21236,21236,Baltimore County,MD
2,21237,21237,Baltimore County,MD
1,21244,21244,Baltimore County,MD
3,21286,21286,Baltimore County,MD
1,2131,2131,Suffolk County,MA
2,2132,2132,Suffolk County,MA
1,2134,2134,Suffolk County,MA
2,21401,21401,Anne Arundel County,MD
1,21409,21409,Anne Arundel County,MD
2,2143,2143,Middlesex County,MA
1,2150,2150,Suffolk County,MA
4,21502,21502,Allegany County,MD
1,2151,2151,Suffolk County,MA
1,21532,21532,Allegany County,MD
3,2155,2155,Middlesex County,MA
2,21601,21601,Talbot County,MD
4,2169,2169,Norfolk County,MA
1,2170,2170,Norfolk County,MA
3,21701,21701,Frederick County,MD
2,21702,21702,Frederick County,MD
2,21703,21703,Frederick County,MD
3,21704,21704,Frederick County,MD
2,2171,2171,Norfolk County,MA
5,21740,21740,Washington County,MD
1,21742,21742,Washington County,MD
1,21750,21750,Washington County,MD
1,21771,21771,Frederick County,MD
1,21774,21774,Frederick County,MD
1,21784,21784,Carroll County,MD
5,21801,21801,Wicomico County,MD
1,21804,21804,Wicomico County,MD
1,2184,2184,Norfolk County,MA
8,21842,21842,Worcester County,MD
2,21853,21853,Somerset County,MD
1,21875,21875,Wicomico County,MD
1,2189,2189,Norfolk County,MA
1,2190,2190,Norfolk County,MA
3,21921,21921,Cecil County,MD
1,22015,22015,Fairfax County,VA
1,22025,22025,Prince William County,VA
1,22026,22026,Prince William County,VA
3,22031,22031,Fairfax County,VA
2,22033,22033,Fairfax County,VA
1,22042,22042,Fairfax County,VA
1,22046,22046,Falls Church city,VA
1,22134,22134,Prince William County,VA
1,2215,2215,Suffolk County,MA
1,22150,22150,Fairfax County,VA
1,22151,22151,Fairfax County,VA
1,22182,22182,Fairfax County,VA
2,22191,22191,Prince William County,VA
1,22192,22192,Prince William County,VA
1,22193,22193,Prince William County,VA
1,22202,22202,Arlington County,VA
2,22203,22203,Arlington County,VA
1,22306,22306,Fairfax County,VA
1,22315,22315,Fairfax County,VA
2,22401,22401,Fredericksburg city,VA
2,22405,22405,Stafford County,VA
1,22406,22406,Stafford County,VA
3,22407,22407,Spotsylvania County,VA
2,22408,22408,Spotsylvania County,VA
1,22427,22427,Caroline County,VA
1,22485,22485,King George County,VA
2,22554,22554,Stafford County,VA
1,22556,22556,Stafford County,VA
1,22560,22560,Essex County,VA
1,22565,22565,#N/A,#N/A
3,22601,22601,Winchester city,VA
3,22603,22603,Frederick County,VA
2,22630,22630,Warren County,VA
1,22645,22645,Frederick County,VA
1,22655,22655,Frederick County,VA
1,22664,22664,Shenandoah County,VA
4,22701,22701,Culpeper County,VA
3,22801,22801,Harrisonburg city,VA
1,22812,22812,Rockingham County,VA
3,22835,22835,Page County,VA
1,22841,22841,Rockingham County,VA
1,22844,22844,Shenandoah County,VA
3,22901,22901,Albemarle County,VA
2,22902,22902,Charlottesville city,VA
1,22903,22903,Charlottesville city,VA
2,22911,22911,Albemarle County,VA
1,22939,22939,Augusta County,VA
3,22942,22942,Louisa County,VA
1,22960,22960,Orange County,VA
2,22980,22980,Waynesboro city,VA
1,23005,23005,Hanover County,VA
1,2301,2301,Plymouth County,MA
2,2302,2302,Plymouth County,MA
2,23059,23059,Henrico County,VA
2,23060,23060,Henrico County,VA
5,23061,23061,Gloucester County,VA
2,23111,23111,Hanover County,VA
6,23112,23112,Chesterfield County,VA
2,23113,23113,Chesterfield County,VA
15,23185,23185,James City County,VA
1,23188,23188,James City County,VA
1,23219,23219,Richmond city,VA
1,23221,23221,Richmond city,VA
1,23225,23225,Richmond city,VA
1,23228,23228,Henrico County,VA
2,23229,23229,Henrico County,VA
3,23230,23230,Henrico County,VA
1,23231,23231,Henrico County,VA
3,23234,23234,Chesterfield County,VA
3,23235,23235,Chesterfield County,VA
1,23236,23236,Chesterfield County,VA
2,23294,23294,Henrico County,VA
3,23320,23320,Chesapeake city,VA
2,23321,23321,Chesapeake city,VA
1,23322,23322,Chesapeake city,VA
1,23325,23325,Chesapeake city,VA
1,23336,23336,Accomack County,VA
1,2339,2339,Plymouth County,MA
1,23435,23435,Suffolk city,VA
1,23451,23451,Virginia Beach city,VA
3,23452,23452,Virginia Beach city,VA
3,23455,23455,Virginia Beach city,VA
1,23462,23462,Virginia Beach city,VA
3,23464,23464,Virginia Beach city,VA
2,23502,23502,Norfolk city,VA
1,23503,23503,Norfolk city,VA
1,23517,23517,Norfolk city,VA
1,23518,23518,Norfolk city,VA
1,2356,2356,Bristol County,MA
1,2360,2360,Plymouth County,MA
1,23602,23602,Newport News city,VA
1,23604,23604,Newport News city,VA
1,23606,23606,Newport News city,VA
2,2364,2364,Plymouth County,MA
1,23661,23661,Hampton city,VA
3,23666,23666,Hampton city,VA
1,23669,23669,Hampton city,VA
1,2368,2368,Norfolk County,MA
1,23707,23707,Portsmouth city,VA
2,2379,2379,Plymouth County,MA
4,23803,23803,Petersburg city,VA
1,23824,23824,Nottoway County,VA
2,23831,23831,Chesterfield County,VA
2,23832,23832,Chesterfield County,VA
1,23834,23834,Colonial Heights city,VA
1,23836,23836,Chesterfield County,VA
2,23851,23851,Franklin city,VA
1,23860,23860,Hopewell city,VA
1,23950,23950,Mecklenburg County,VA
8,23970,23970,Mecklenburg County,VA
4,24012,24012,Roanoke city,VA
6,24014,24014,Roanoke city,VA
3,24018,24018,Roanoke County,VA
2,24019,24019,Roanoke County,VA
1,24060,24060,Montgomery County,VA
4,24073,24073,Montgomery County,VA
1,24083,24083,Botetourt County,VA
2,24112,24112,Henry County,VA
1,24121,24121,Bedford County,VA
1,24141,24141,Radford city,VA
1,24151,24151,Franklin County,VA
10,24153,24153,Salem city,VA
1,24171,24171,Patrick County,VA
1,24179,24179,Roanoke County,VA
1,24201,24201,Bristol city,VA
1,24210,24210,Washington County,VA
1,24219,24219,Wise County,VA
1,24251-3408,24251,Scott County,VA
1,24266,24266,Russell County,VA
1,24273,24273,Norton city,VA
2,24293,24293,Wise County,VA
1,24319,24319,Smyth County,VA
5,24333,24333,Galax city,VA
4,24343,24343,Carroll County,VA
8,24354,24354,Smyth County,VA
1,24360-3477,24360,Wythe County,VA
10,24401,24401,Staunton city,VA
4,24426,24426,Alleghany County,VA
8,24450,24450,Rockbridge County,VA
1,24482,24482,Augusta County,VA
5,24502,24502,Lynchburg city,VA
2,2451,2451,Middlesex County,MA
2,24517,24517,Campbell County,VA
1,24522,24522,Appomattox County,VA
2,24523,24523,Bedford County,VA
1,24531,24531,Pittsylvania County,VA
1,24540,24540,Danville city,VA
1,24541,24541,Danville city,VA
1,24572,24572,Amherst County,VA
1,24572-0618,24572,Amherst County,VA
1,2459,2459,Middlesex County,MA
2,24592,24592,Halifax County,VA
2,24614,24614,Buchanan County,VA
1,2464,2464,Middlesex County,MA
3,24641,24641,Tazewell County,VA
1,24651,24651,Tazewell County,VA
2,24701,24701,Mercer County,WV
1,24739,24739,#N/A,#N/A
2,24801,24801,McDowell County,WV
2,25015,25015,Kanawha County,WV
1,25143,25143,Kanawha County,WV
1,25186,25186,Fayette County,WV
2,25271,25271,Jackson County,WV
1,25302,25302,Kanawha County,WV
1,25304,25304,Kanawha County,WV
2,25309,25309,Kanawha County,WV
3,25313,25313,Kanawha County,WV
1,2536,2536,Barnstable County,MA
1,25389,25389,#N/A,#N/A
1,25401,25401,Berkeley County,WV
2,25404,25404,Berkeley County,WV
1,25411,25411,Morgan County,WV
1,25438,25438,Jefferson County,WV
1,25530,25530,Wayne County,WV
1,2554,2554,Nantucket County,MA
1,25570,25570,Wayne County,WV
1,25601,25601,Logan County,WV
1,25701,25701,Cabell County,WV
1,25702,25702,Cabell County,WV
3,25703,25703,Cabell County,WV
1,25705,25705,Cabell County,WV
3,25801,25801,Raleigh County,WV
2,25813,25813,Raleigh County,WV
2,25840,25840,Fayette County,WV
2,25901,25901,Fayette County,WV
1,25962,25962,Greenbrier County,WV
1,25962-1107,25962,Greenbrier County,WV
9,26003,26003,Ohio County,WV
3,2601,2601,Barnstable County,MA
2,26062,26062,Hancock County,WV
1,26101,26101,Wood County,WV
2,26104,26104,Wood County,WV
1,26105,26105,Wood County,WV
1,26105-4110,26105,Wood County,WV
4,26155,26155,Wetzel County,WV
1,26159,26159,Wetzel County,WV
1,26201-2634,26201,Upshur County,WV
2,26301,26301,Harrison County,WV
1,26354,26354,Taylor County,WV
1,26426,26426,Harrison County,WV
1,26452,26452,Lewis County,WV
3,26505,26505,Monongalia County,WV
1,2653,2653,Barnstable County,MA
11,26554,26554,Marion County,WV
3,26601,26601,Braxton County,WV
4,26726,26726,Mineral County,WV
1,26847,26847,Grant County,WV
1,27006,27006,Davie County,NC
1,27028,27028,Davie County,NC
1,2703,2703,Bristol County,MA
12,27030,27030,Surry County,NC
1,27051,27051,Forsyth County,NC
1,27052,27052,Stokes County,NC
2,27055,27055,Yadkin County,NC
2,27103,27103,Forsyth County,NC
2,27105,27105,Forsyth County,NC
4,27106,27106,Forsyth County,NC
1,27127,27127,Forsyth County,NC
1,2719,2719,Bristol County,MA
1,27203,27203,Randolph County,NC
1,27209,27209,Montgomery County,NC
2,2721,2721,Bristol County,MA
3,27215,27215,Alamance County,NC
1,2726,2726,Bristol County,MA
1,27260,27260,Guilford County,NC
2,27262,27262,Guilford County,NC
2,27263,27263,Randolph County,NC
1,27265,27265,Guilford County,NC
2,27278,27278,Orange County,NC
4,27284,27284,Forsyth County,NC
5,27288,27288,Rockingham County,NC
5,27292,27292,Davidson County,NC
2,27295,27295,Davidson County,NC
1,27310,27310,Guilford County,NC
2,27312,27312,Chatham County,NC
1,27316,27316,Randolph County,NC
4,27317,27317,Randolph County,NC
7,27320,27320,Rockingham County,NC
1,27332,27332,Lee County,NC
2,27344,27344,Chatham County,NC
1,27377,27377,Guilford County,NC
1,2740,2740,Bristol County,MA
2,27406,27406,Guilford County,NC
3,27409,27409,Guilford County,NC
1,2744,2744,Bristol County,MA
1,27455,27455,Guilford County,NC
1,2746,2746,Bristol County,MA
1,27502,27502,Wake County,NC
2,27504,27504,Johnston County,NC
3,27511,27511,Wake County,NC
1,27513,27513,Wake County,NC
1,27514,27514,Orange County,NC
1,27518,27518,Wake County,NC
1,27520,27520,Johnston County,NC
1,27523,27523,Wake County,NC
1,27526,27526,Wake County,NC
4,27529,27529,Wake County,NC
2,27530,27530,Wayne County,NC
1,27534,27534,Wayne County,NC
2,27536,27536,Vance County,NC
1,27545,27545,Wake County,NC
1,27546,27546,Harnett County,NC
1,27549,27549,Franklin County,NC
1,27560,27560,Wake County,NC
4,27565,27565,Granville County,NC
3,27577,27577,Johnston County,NC
1,27587,27587,Wake County,NC
1,27597,27597,Wake County,NC
2,27604,27604,Wake County,NC
2,27609,27609,Wake County,NC
1,27610,27610,Wake County,NC
1,27612,27612,Wake County,NC
3,27613,27613,Wake County,NC
2,27615,27615,Wake County,NC
2,27616,27616,Wake County,NC
1,2762,2762,Norfolk County,MA
1,2767,2767,Bristol County,MA
1,27701,27701,Durham County,NC
2,27703,27703,Durham County,NC
2,27704,27704,Durham County,NC
2,27705,27705,Durham County,NC
2,27707,27707,Durham County,NC
1,27713,27713,Durham County,NC
2,2777,2777,Bristol County,MA
3,27801,27801,Edgecombe County,NC
4,27834,27834,Pitt County,NC
1,27856,27856,Nash County,NC
3,27858,27858,Pitt County,NC
8,27870,27870,Halifax County,NC
1,27889,27889,Beaufort County,NC
2,27892,27892,Martin County,NC
3,27893,27893,Wilson County,NC
4,27909,27909,Pasquotank County,NC
2,27910,27910,Hertford County,NC
1,27949,27949,Dare County,NC
1,27959,27959,Dare County,NC
3,27962,27962,Washington County,NC
4,28001,28001,Stanly County,NC
1,28006,28006,Gaston County,NC
1,28012,28012,Gaston County,NC
1,28023,28023,Rowan County,NC
2,28025,28025,Cabarrus County,NC
1,28027,28027,Cabarrus County,NC
1,28034,28034,Gaston County,NC
1,28037,28037,Lincoln County,NC
2,28043,28043,Rutherford County,NC
2,28052,28052,Gaston County,NC
3,28054,28054,Gaston County,NC
1,28075-7526,28075,Cabarrus County,NC
2,28078,28078,Mecklenburg County,NC
1,28079,28079,Union County,NC
3,28083,28083,Cabarrus County,NC
1,28097,28097,Stanly County,NC
2,28104,28104,Union County,NC
2,28105,28105,Mecklenburg County,NC
5,28110,28110,Union County,NC
3,28117,28117,Iredell County,NC
1,28134,28134,Mecklenburg County,NC
1,28137,28137,Stanly County,NC
1,28139,28139,Rutherford County,NC
2,28144,28144,Rowan County,NC
3,28147,28147,Rowan County,NC
2,28150,28150,Cleveland County,NC
3,28152,28152,Cleveland County,NC
1,28159,28159,Rowan County,NC
1,2816,2816,Kent County,RI
1,28170,28170,Anson County,NC
1,28174,28174,Union County,NC
1,28206,28206,Mecklenburg County,NC
1,28208,28208,Mecklenburg County,NC
1,28210,28210,Mecklenburg County,NC
1,28211,28211,Mecklenburg County,NC
2,28215,28215,Mecklenburg County,NC
1,28226,28226,Mecklenburg County,NC
1,28262,28262,Mecklenburg County,NC
1,28269,28269,Mecklenburg County,NC
1,28273,28273,Mecklenburg County,NC
1,28301,28301,Cumberland County,NC
2,28303,28303,Cumberland County,NC
3,28306,28306,Bladen County,NC
1,28307,28307,Cumberland County,NC
1,28314,28314,Cumberland County,NC
1,28315,28315,Moore County,NC
1,28327,28327,Moore County,NC
1,28334,28334,Sampson County,NC
1,28337,28337,Bladen County,NC
1,28345,28345,Richmond County,NC
6,28352,28352,Scotland County,NC
1,28365,28365,Wayne County,NC
1,28377,28377,Robeson County,NC
2,28379,28379,Richmond County,NC
1,28384,28384,Bladen County,NC
1,28390,28390,Harnett County,NC
1,28401,28401,New Hanover County,NC
2,28403,28403,New Hanover County,NC
2,28405,28405,New Hanover County,NC
1,2842,2842,Newport County,RI
2,28425,28425,Pender County,NC
1,28428,28428,New Hanover County,NC
1,28445,28445,Onslow County,NC
8,28451,28451,Brunswick County,NC
1,28461,28461,Brunswick County,NC
1,28501,28501,Lenoir County,NC
1,2852,2852,Washington County,RI
1,28532,28532,Craven County,NC
2,28540,28540,Onslow County,NC
1,28544,28544,Onslow County,NC
2,28546,28546,Onslow County,NC
2,28547,28547,Onslow County,NC
1,28557,28557,Carteret County,NC
1,28562,28562,Craven County,NC
4,28584,28584,Carteret County,NC
3,28601,28601,Catawba County,NC
3,28602,28602,Catawba County,NC
9,28607,28607,Watauga County,NC
1,2861,2861,Providence County,RI
1,28613,28613,Catawba County,NC
1,28625,28625,Iredell County,NC
1,2863,2863,Providence County,RI
1,28638,28638,Caldwell County,NC
3,28645,28645,Caldwell County,NC
1,2865,2865,Providence County,RI
3,28655,28655,Burke County,NC
2,28659,28659,Wilkes County,NC
2,28677,28677,Iredell County,NC
1,28681,28681,Alexander County,NC
1,28704,28704,Buncombe County,NC
2,28713,28713,Swain County,NC
1,28716,28716,Haywood County,NC
1,28719,28719,Jackson County,NC
1,28731,28731,Henderson County,NC
6,28734,28734,Macon County,NC
3,28752,28752,McDowell County,NC
1,28759,28759,Henderson County,NC
1,28768,28768,Transylvania County,NC
1,28777,28777,Mitchell County,NC
2,28779,28779,Jackson County,NC
4,28786,28786,Haywood County,NC
1,28787,28787,Buncombe County,NC
1,28792,28792,Henderson County,NC
4,28803,28803,Buncombe County,NC
1,2886,2886,Kent County,RI
1,28906,28906,Cherokee County,NC
1,2891,2891,Washington County,RI
1,2893,2893,Kent County,RI
2,2895,2895,Providence County,RI
3,29006,29006,Lexington County,SC
2,29010,29010,Lee County,SC
7,29020,29020,Kershaw County,SC
1,2903,2903,Providence County,RI
3,2904,2904,Providence County,RI
1,29042,29042,Bamberg County,SC
1,29045,29045,Kershaw County,SC
1,29063,29063,Richland County,SC
4,29072,29072,Lexington County,SC
2,29073,29073,Lexington County,SC
2,2909,2909,Providence County,RI
6,29102,29102,Clarendon County,SC
1,29108,29108,Newberry County,SC
8,29115,29115,Orangeburg County,SC
2,29138,29138,Saluda County,SC
1,2914,2914,Providence County,RI
1,29142,29142,Orangeburg County,SC
1,2916,2916,Providence County,RI
3,29169,29169,Lexington County,SC
1,2917,2917,Providence County,RI
2,29170,29170,Lexington County,SC
2,29180,29180,Fairfield County,SC
1,2919,2919,Providence County,RI
2,2920,2920,Providence County,RI
1,29201,29201,Richland County,SC
3,29203,29203,Richland County,SC
1,29204,29204,Richland County,SC
2,29206,29206,Richland County,SC
3,29209,29209,Richland County,SC
4,29210,29210,Richland County,SC
3,29212,29212,Lexington County,SC
4,29223,29223,Richland County,SC
1,29229,29229,Richland County,SC
5,29301,29301,Spartanburg County,SC
1,29302,29302,Spartanburg County,SC
3,29303,29303,Spartanburg County,SC
1,29316,29316,Spartanburg County,SC
2,29325,29325,Laurens County,SC
1,29340,29340,Cherokee County,SC
1,29341,29341,Cherokee County,SC
1,29356,29356,Spartanburg County,SC
2,29360,29360,Laurens County,SC
1,29379,29379,Union County,SC
1,29385,29385,Spartanburg County,SC
1,29388,29388,Spartanburg County,SC
4,29405,29405,Charleston County,SC
2,29406,29406,Charleston County,SC
1,29407,29407,Charleston County,SC
1,29414,29414,Charleston County,SC
5,29418,29418,Charleston County,SC
1,29420,29420,Dorchester County,SC
1,29424,29424,Charleston County,SC
1,29440,29440,Georgetown County,SC
1,29445,29445,Berkeley County,SC
2,29455,29455,Charleston County,SC
1,29456,29456,Dorchester County,SC
1,29461,29461,Berkeley County,SC
1,29464,29464,Charleston County,SC
2,29466,29466,Charleston County,SC
1,29477,29477,Dorchester County,SC
2,29483,29483,Dorchester County,SC
4,29485,29485,Dorchester County,SC
1,29486,29486,#N/A,#N/A
1,29488,29488,Colleton County,SC
1,29492,29492,Berkeley County,SC
1,29492-8382,29492,Berkeley County,SC
4,29501,29501,Florence County,SC
1,29505,29505,Florence County,SC
3,29512,29512,Marlboro County,SC
2,29526,29526,Horry County,SC
2,29532,29532,Darlington County,SC
2,29536,29536,Dillon County,SC
2,29550,29550,Darlington County,SC
1,29556,29556,Williamsburg County,SC
1,29565,29565,Dillon County,SC
1,29569,29569,Horry County,SC
1,29571,29571,Marion County,SC
1,29574,29574,Marion County,SC
2,29575,29575,Horry County,SC
1,29576,29576,Horry County,SC
4,29577,29577,Horry County,SC
1,29579,29579,Horry County,SC
3,29582,29582,Horry County,SC
2,29588,29588,Horry County,SC
1,29605,29605,Greenville County,SC
5,29607,29607,Greenville County,SC
1,29609,29609,Greenville County,SC
4,29611,29611,Greenville County,SC
1,29615,29615,Greenville County,SC
4,29621,29621,Anderson County,SC
2,29624,29624,Anderson County,SC
2,29631,29631,Pickens County,SC
1,29640,29640,Pickens County,SC
1,29642,29642,Pickens County,SC
1,29644,29644,Greenville County,SC
4,29649,29649,Greenwood County,SC
1,29662,29662,Greenville County,SC
1,29671,29671,Pickens County,SC
2,29673,29673,Greenville County,SC
2,29678,29678,Oconee County,SC
2,29680,29680,Greenville County,SC
2,29681,29681,Greenville County,SC
2,29690,29690,Greenville County,SC
1,29692,29692,Laurens County,SC
1,29697,29697,Anderson County,SC
2,29702,29702,Cherokee County,SC
1,29707,29707,Lancaster County,SC
2,29708,29708,York County,SC
2,29710,29710,York County,SC
2,29715,29715,York County,SC
3,29720,29720,Lancaster County,SC
2,29728,29728,Chesterfield County,SC
3,29730,29730,York County,SC
2,29732,29732,York County,SC
3,29745,29745,York County,SC
1,29801,29801,Aiken County,SC
2,29803,29803,Aiken County,SC
1,29851,29851,Aiken County,SC
1,29860,29860,Edgefield County,SC
1,29902,29902,Beaufort County,SC
1,29907,29907,Beaufort County,SC
1,29910,29910,Beaufort County,SC
1,29924,29924,Hampton County,SC
2,29926,29926,Beaufort County,SC
1,29928,29928,Beaufort County,SC
1,29935,29935,Beaufort County,SC
4,29936,29936,Jasper County,SC
2,30004,30004,Fulton County,GA
1,30005,30005,Fulton County,GA
1,30008,30008,Cobb County,GA
1,30013,30013,Rockdale County,GA
4,30014,30014,Newton County,GA
2,30019,30019,Gwinnett County,GA
2,30024,30024,Gwinnett County,GA
1,30030,30030,DeKalb County,GA
5,30032,30032,DeKalb County,GA
1,30032-4157,30032,DeKalb County,GA
1,30033,30033,DeKalb County,GA
2,30034,30034,DeKalb County,GA
1,30038,30038,DeKalb County,GA
3,30041,30041,Forsyth County,GA
2,30043,30043,Gwinnett County,GA
2,30044,30044,Gwinnett County,GA
1,30045,30045,Gwinnett County,GA
1,30046,30046,Gwinnett County,GA
2,30047,30047,Gwinnett County,GA
2,30052,30052,Walton County,GA
2,30058,30058,DeKalb County,GA
3,30060,30060,Cobb County,GA
1,30060-9208,30060,Cobb County,GA
1,30064,30064,Cobb County,GA
5,30066,30066,Cobb County,GA
1,30067,30067,Cobb County,GA
3,30071,30071,Gwinnett County,GA
3,30075,30075,Fulton County,GA
2,30076,30076,Fulton County,GA
2,30078,30078,Gwinnett County,GA
1,30080,30080,Cobb County,GA
2,30083,30083,DeKalb County,GA
1,30084,30084,DeKalb County,GA
3,30092,30092,Gwinnett County,GA
2,30094,30094,Rockdale County,GA
1,30097,30097,Fulton County,GA
1,30101,30101,Cobb County,GA
1,30102,30102,Cherokee County,GA
1,30103,30103,Bartow County,GA
1,30106,30106,Cobb County,GA
5,30114,30114,Cherokee County,GA
1,30115,30115,Cherokee County,GA
3,30117,30117,Carroll County,GA
2,30120,30120,Bartow County,GA
1,30125,30125,Polk County,GA
1,30134,30134,Douglas County,GA
1,30135,30135,Douglas County,GA
1,30135-1511,30135,Douglas County,GA
1,30141,30141,Paulding County,GA
1,30143,30143,Pickens County,GA
2,30144,30144,Cobb County,GA
1,30152,30152,Cobb County,GA
2,30153,30153,Polk County,GA
2,30161,30161,Floyd County,GA
2,30165,30165,Floyd County,GA
2,30168,30168,Cobb County,GA
3,30188,30188,Cherokee County,GA
1,30189,30189,Cherokee County,GA
1,30213,30213,Fulton County,GA
3,30214,30214,Fayette County,GA
3,30223,30223,Spalding County,GA
1,30223-1754,30223,Spalding County,GA
3,30233,30233,Butts County,GA
2,30236,30236,Clayton County,GA
2,30240,30240,Troup County,GA
1,30248,30248,Henry County,GA
1,30252,30252,Henry County,GA
2,30253,30253,Henry County,GA
1,30260,30260,Clayton County,GA
1,30265,30265,Coweta County,GA
2,30268,30268,Fulton County,GA
1,30269,30269,Fayette County,GA
1,30272,30272,#N/A,#N/A
1,30274,30274,Clayton County,GA
1,30276,30276,Coweta County,GA
4,30281,30281,Henry County,GA
1,30281-6380,30281,Henry County,GA
1,30294,30294,DeKalb County,GA
1,30295,30295,Pike County,GA
2,30303,30303,Fulton County,GA
1,30305,30305,Fulton County,GA
1,30308,30308,Fulton County,GA
1,30309,30309,Fulton County,GA
1,30311,30311,Fulton County,GA
1,30316,30316,DeKalb County,GA
1,30318,30318,Fulton County,GA
1,30320,30320,#N/A,#N/A
3,30328,30328,Fulton County,GA
3,30329,30329,DeKalb County,GA
3,30331,30331,Fulton County,GA
3,30336,30336,Fulton County,GA
1,30337,30337,Fulton County,GA
3,30338,30338,DeKalb County,GA
3,30339,30339,Cobb County,GA
2,30341,30341,DeKalb County,GA
1,30344,30344,Fulton County,GA
1,30345,30345,DeKalb County,GA
1,30349,30349,Fulton County,GA
4,30350,30350,Fulton County,GA
1,30360,30360,DeKalb County,GA
2,3038,3038,Rockingham County,NH
6,30401,30401,Emanuel County,GA
3,3042,3042,Rockingham County,NH
1,30453,30453,Tattnall County,GA
4,30458,30458,Bulloch County,GA
2,30474,30474,Toombs County,GA
3,30501,30501,Hall County,GA
1,30512,30512,Union County,GA
3,30513,30513,Fannin County,GA
1,30517,30517,Jackson County,GA
3,30518,30518,Gwinnett County,GA
1,30518-1714,30518,Gwinnett County,GA
1,30519,30519,Gwinnett County,GA
1,30525,30525,Rabun County,GA
1,30529,30529,Jackson County,GA
3,30534,30534,Dawson County,GA
1,30539,30539,#N/A,#N/A
1,3054,3054,Hillsborough County,NH
2,30540,30540,Gilmer County,GA
4,30542,30542,Hall County,GA
1,30549,30549,Jackson County,GA
1,30566,30566,Hall County,GA
4,3060,3060,Hillsborough County,NH
1,30601,30601,Clarke County,GA
2,30605,30605,Clarke County,GA
2,30606,30606,Clarke County,GA
2,3063,3063,Hillsborough County,NH
1,30655,30655,Walton County,GA
2,30662,30662,Franklin County,GA
3,30680,30680,Barrow County,GA
1,30680-2081,30680,Barrow County,GA
1,30701,30701,Gordon County,GA
1,30707,30707,Walker County,GA
2,30720,30720,Whitfield County,GA
1,30721,30721,Whitfield County,GA
1,30736,30736,Catoosa County,GA
1,30741,30741,Walker County,GA
1,30742,30742,Catoosa County,GA
1,30747,30747,Chattooga County,GA
1,30752,30752,Dade County,GA
1,3079,3079,Rockingham County,NH
1,30809,30809,Columbia County,GA
1,30813,30813,Columbia County,GA
5,30830,30830,Burke County,GA
1,30901,30901,Richmond County,GA
1,30904,30904,Richmond County,GA
1,30906,30906,Richmond County,GA
2,30907,30907,Columbia County,GA
2,30909,30909,Richmond County,GA
1,31005,31005,Houston County,GA
1,31008,31008,Peach County,GA
1,3102,3102,Hillsborough County,NH
1,31021,31021,Laurens County,GA
1,31028,31028,Houston County,GA
2,31029,31029,Monroe County,GA
2,3103,3103,Hillsborough County,NH
2,31030,31030,Peach County,GA
1,31032,31032,Jones County,GA
1,3106,3106,Merrimack County,NH
1,31069,31069,Houston County,GA
2,31093,31093,Houston County,GA
1,31098,31098,Houston County,GA
1,31201,31201,Bibb County,GA
1,31204,31204,Bibb County,GA
1,31206,31206,Bibb County,GA
4,31210,31210,Bibb County,GA
1,31211,31211,Bibb County,GA
1,31216,31216,Bibb County,GA
2,31313,31313,Liberty County,GA
1,31314,31314,Liberty County,GA
1,31322,31322,Chatham County,GA
1,31324,31324,Bryan County,GA
3,31326,31326,Effingham County,GA
2,31404,31404,Chatham County,GA
1,31405,31405,Chatham County,GA
2,31406,31406,Chatham County,GA
2,31410,31410,Chatham County,GA
1,31419,31419,Chatham County,GA
1,31501,31501,Ware County,GA
1,31501-1005,31501,Ware County,GA
5,31520,31520,Glynn County,GA
1,31522,31522,Glynn County,GA
1,31525,31525,Glynn County,GA
2,31533,31533,Coffee County,GA
1,31537,31537,Charlton County,GA
1,31548,31548,Camden County,GA
3,31601,31601,Lowndes County,GA
3,31602,31602,Lowndes County,GA
1,31605,31605,Lowndes County,GA
1,31636,31636,Lowndes County,GA
2,31643,31643,Brooks County,GA
1,31701,31701,Dougherty County,GA
1,31704,31704,#N/A,#N/A
4,31707,31707,Dougherty County,GA
1,31730,31730,Mitchell County,GA
1,31763,31763,Lee County,GA
3,31792,31792,Thomas County,GA
3,31793,31793,Tift County,GA
6,31794,31794,Tift County,GA
1,31901,31901,Muscogee County,GA
2,31904,31904,Muscogee County,GA
1,31905,31905,Chattahoochee County,GA
1,31906,31906,Muscogee County,GA
2,31907,31907,Muscogee County,GA
5,31909,31909,Muscogee County,GA
3,32055,32055,Columbia County,FL
1,32073,32073,Clay County,FL
4,32084,32084,St. Johns County,FL
1,32091,32091,Bradford County,FL
1,32092,32092,St. Johns County,FL
1,32114,32114,Volusia County,FL
1,32117,32117,Volusia County,FL
1,32118,32118,Volusia County,FL
1,32124,32124,Volusia County,FL
2,32127,32127,Volusia County,FL
1,32136,32136,Flagler County,FL
3,32168,32168,Volusia County,FL
2,32174,32174,Volusia County,FL
1,32177,32177,Putnam County,FL
1,32207,32207,Duval County,FL
2,32216,32216,Duval County,FL
1,32217,32217,Duval County,FL
1,32218,32218,Duval County,FL
1,32219,32219,Duval County,FL
1,32222,32222,Duval County,FL
1,32223,32223,Duval County,FL
2,32225,32225,Duval County,FL
1,32234,32234,Duval County,FL
1,32244,32244,Duval County,FL
2,32246,32246,Duval County,FL
2,32256,32256,Duval County,FL
1,32257,32257,Duval County,FL
1,32259,32259,St. Johns County,FL
2,32277,32277,Duval County,FL
3,32301,32301,Leon County,FL
1,32303,32303,Leon County,FL
4,32304,32304,Leon County,FL
1,32311,32311,Leon County,FL
1,32340,32340,Madison County,FL
1,3235,3235,Merrimack County,NH
1,32351,32351,Gadsden County,FL
2,32401,32401,Bay County,FL
1,32404,32404,Bay County,FL
2,32405,32405,Bay County,FL
2,32407,32407,Bay County,FL
3,32408,32408,Bay County,FL
2,32413,32413,Bay County,FL
2,3246,3246,Belknap County,NH
6,32504,32504,Escambia County,FL
2,32505,32505,Escambia County,FL
1,32506,32506,Escambia County,FL
2,32507,32507,Escambia County,FL
1,32526,32526,Escambia County,FL
1,3253,3253,Belknap County,NH
3,32533,32533,Escambia County,FL
4,32536,32536,Okaloosa County,FL
1,32542,32542,Okaloosa County,FL
1,32548,32548,Okaloosa County,FL
1,32569,32569,Okaloosa County,FL
3,32571,32571,Santa Rosa County,FL
1,32578,32578,Okaloosa County,FL
1,32608,32608,Alachua County,FL
1,32628,32628,Dixie County,FL
1,32643,32643,Alachua County,FL
2,32669,32669,Alachua County,FL
1,32694,32694,Alachua County,FL
1,32703,32703,Orange County,FL
1,32714,32714,Seminole County,FL
1,32726,32726,Lake County,FL
1,32746,32746,Seminole County,FL
1,32750,32750,Seminole County,FL
1,3276,3276,Merrimack County,NH
1,32765,32765,Seminole County,FL
1,32771,32771,Seminole County,FL
1,32780,32780,Brevard County,FL
1,32789,32789,Orange County,FL
3,32792,32792,Orange County,FL
1,32805,32805,Orange County,FL
2,32806,32806,Orange County,FL
1,32807,32807,Orange County,FL
4,32808,32808,Orange County,FL
3,32809,32809,Orange County,FL
1,32810,32810,Orange County,FL
1,32811,32811,Orange County,FL
1,32812,32812,Orange County,FL
3,32817,32817,Orange County,FL
2,32819,32819,Orange County,FL
1,32821,32821,Orange County,FL
1,32822,32822,Orange County,FL
1,32826,32826,Orange County,FL
2,32828,32828,Orange County,FL
1,32832,32832,Orange County,FL
1,32835,32835,Orange County,FL
2,32836,32836,Orange County,FL
1,32837,32837,Orange County,FL
1,32837-6636,32837,Orange County,FL
2,32904,32904,Brevard County,FL
1,32907,32907,Brevard County,FL
1,32909,32909,Brevard County,FL
1,32922,32922,Brevard County,FL
2,32935,32935,Brevard County,FL
1,32952,32952,Brevard County,FL
1,32955,32955,Brevard County,FL
2,32958,32958,Indian River County,FL
1,33009,33009,Broward County,FL
2,3301,3301,Merrimack County,NH
5,33010,33010,Miami-Dade County,FL
2,33013,33013,Miami-Dade County,FL
2,33014,33014,Miami-Dade County,FL
6,33015,33015,Miami-Dade County,FL
5,33016,33016,Miami-Dade County,FL
1,33020,33020,Broward County,FL
1,33021,33021,Broward County,FL
1,33023,33023,Broward County,FL
2,33024,33024,Broward County,FL
2,33027,33027,Broward County,FL
1,3303,3303,Merrimack County,NH
1,33032,33032,Miami-Dade County,FL
5,33033,33033,Miami-Dade County,FL
3,33034,33034,Miami-Dade County,FL
1,33036,33036,Monroe County,FL
2,33037,33037,Monroe County,FL
2,33040,33040,Monroe County,FL
4,33050,33050,Monroe County,FL
3,33055,33055,Miami-Dade County,FL
1,33060,33060,Broward County,FL
1,33062,33062,Broward County,FL
1,33063,33063,Broward County,FL
3,33065,33065,Broward County,FL
2,33068,33068,Broward County,FL
1,33069,33069,Broward County,FL
1,33070,33070,Monroe County,FL
1,33076,33076,Broward County,FL
1,33122,33122,Miami-Dade County,FL
1,33125,33125,Miami-Dade County,FL
1,33126,33126,Miami-Dade County,FL
1,33127,33127,Miami-Dade County,FL
2,33130,33130,Miami-Dade County,FL
3,33131,33131,Miami-Dade County,FL
1,33134,33134,Miami-Dade County,FL
2,33137,33137,Miami-Dade County,FL
1,33138,33138,Miami-Dade County,FL
2,33139,33139,Miami-Dade County,FL
1,33142,33142,Miami-Dade County,FL
2,33144,33144,Miami-Dade County,FL
2,33145,33145,Miami-Dade County,FL
3,33155,33155,Miami-Dade County,FL
1,33156,33156,Miami-Dade County,FL
4,33157,33157,Miami-Dade County,FL
3,33160,33160,Miami-Dade County,FL
1,33161,33161,Miami-Dade County,FL
3,33162,33162,Miami-Dade County,FL
4,33165,33165,Miami-Dade County,FL
4,33166,33166,Miami-Dade County,FL
2,33168,33168,Miami-Dade County,FL
1,33169,33169,Miami-Dade County,FL
2,33174,33174,Miami-Dade County,FL
1,33175,33175,Miami-Dade County,FL
1,33177,33177,Miami-Dade County,FL
1,33178,33178,Miami-Dade County,FL
1,33180,33180,Miami-Dade County,FL
4,33181,33181,Miami-Dade County,FL
4,33184,33184,Miami-Dade County,FL
1,33186,33186,Miami-Dade County,FL
1,33189,33189,Miami-Dade County,FL
2,33304,33304,Broward County,FL
1,33309,33309,Broward County,FL
5,33311,33311,Broward County,FL
5,33312,33312,Broward County,FL
2,33313,33313,Broward County,FL
1,33314,33314,Broward County,FL
3,33316,33316,Broward County,FL
2,33319,33319,Broward County,FL
1,33323,33323,Broward County,FL
1,33324,33324,Broward County,FL
1,33326,33326,Broward County,FL
1,33328,33328,Broward County,FL
2,33330,33330,Broward County,FL
1,33331,33331,Broward County,FL
2,33351,33351,Broward County,FL
2,33388,33388,#N/A,#N/A
1,33401,33401,Palm Beach County,FL
1,33403,33403,Palm Beach County,FL
1,33404,33404,Palm Beach County,FL
1,33406,33406,Palm Beach County,FL
5,33411,33411,Palm Beach County,FL
2,33413,33413,Palm Beach County,FL
2,33414,33414,Palm Beach County,FL
3,33415,33415,Palm Beach County,FL
1,33418,33418,Palm Beach County,FL
3,33426,33426,Palm Beach County,FL
1,33435,33435,Palm Beach County,FL
1,33442,33442,Broward County,FL
1,33449,33449,Palm Beach County,FL
1,33460,33460,Palm Beach County,FL
1,33462,33462,Palm Beach County,FL
1,33463,33463,Palm Beach County,FL
1,33467,33467,Palm Beach County,FL
1,33478,33478,Palm Beach County,FL
1,33484,33484,Palm Beach County,FL
1,33486,33486,Palm Beach County,FL
1,33511,33511,Hillsborough County,FL
1,33534,33534,Hillsborough County,FL
1,33548,33548,Hillsborough County,FL
1,33566,33566,Hillsborough County,FL
1,33584,33584,Hillsborough County,FL
2,33594,33594,Hillsborough County,FL
2,33596,33596,Hillsborough County,FL
1,33602,33602,Hillsborough County,FL
1,33605,33605,Hillsborough County,FL
1,33606,33606,Hillsborough County,FL
2,33607,33607,Hillsborough County,FL
2,33609,33609,Hillsborough County,FL
1,33611,33611,Hillsborough County,FL
4,33612,33612,Hillsborough County,FL
2,33614,33614,Hillsborough County,FL
2,33615,33615,Hillsborough County,FL
3,33619,33619,Hillsborough County,FL
1,33629,33629,Hillsborough County,FL
1,33647,33647,Hillsborough County,FL
2,33701,33701,Pinellas County,FL
1,33702,33702,Pinellas County,FL
1,33703,33703,Pinellas County,FL
1,33706,33706,Pinellas County,FL
2,33707,33707,Pinellas County,FL
1,33711,33711,Pinellas County,FL
1,33713,33713,Pinellas County,FL
1,33759,33759,Pinellas County,FL
1,33762,33762,Pinellas County,FL
1,33764,33764,Pinellas County,FL
2,33765,33765,Pinellas County,FL
2,33777,33777,Pinellas County,FL
2,33781,33781,Pinellas County,FL
1,33801,33801,Polk County,FL
1,33801-2601,33801,Polk County,FL
1,33803,33803,Polk County,FL
1,33809,33809,Polk County,FL
1,33813,33813,Polk County,FL
1,33823,33823,Polk County,FL
1,33825,33825,Highlands County,FL
1,33844,33844,Polk County,FL
1,33853,33853,Polk County,FL
1,33859,33859,Polk County,FL
1,33880,33880,Polk County,FL
1,33896,33896,Polk County,FL
1,33901,33901,Lee County,FL
1,33903,33903,Lee County,FL
1,33909,33909,Lee County,FL
2,33912,33912,Lee County,FL
1,33917,33917,Lee County,FL
1,33928,33928,Lee County,FL
1,33936,33936,Lee County,FL
1,33948,33948,Charlotte County,FL
3,33950,33950,Charlotte County,FL
1,33971,33971,Lee County,FL
1,34104,34104,Collier County,FL
1,34109,34109,Collier County,FL
1,34110,34110,Collier County,FL
1,34134,34134,Lee County,FL
1,34208,34208,Manatee County,FL
1,34209,34209,Manatee County,FL
1,34210,34210,Manatee County,FL
1,34212,34212,Manatee County,FL
1,34221,34221,Manatee County,FL
1,34223,34223,Sarasota County,FL
2,34233,34233,Sarasota County,FL
1,34234,34234,Sarasota County,FL
1,34285,34285,Sarasota County,FL
1,34287,34287,Sarasota County,FL
1,34288,34288,Sarasota County,FL
1,34292,34292,Sarasota County,FL
2,3431,3431,Cheshire County,NH
1,34453,34453,Citrus County,FL
1,34473,34473,Marion County,FL
1,3461,3461,Cheshire County,NH
1,34652,34652,Pasco County,FL
1,34653,34653,Pasco County,FL
1,34655,34655,Pasco County,FL
1,34668,34668,Pasco County,FL
1,34669,34669,Pasco County,FL
1,34677,34677,Pinellas County,FL
2,34684,34684,Pinellas County,FL
2,34689,34689,Pinellas County,FL
2,34711,34711,Lake County,FL
1,34714,34714,Lake County,FL
2,34736,34736,Lake County,FL
3,34743,34743,Osceola County,FL
1,34744,34744,Osceola County,FL
5,34746,34746,Osceola County,FL
2,34761,34761,Orange County,FL
1,34769,34769,Osceola County,FL
1,34786,34786,Orange County,FL
1,34787,34787,Orange County,FL
2,34788,34788,Lake County,FL
4,34953,34953,St. Lucie County,FL
1,34974,34974,Okeechobee County,FL
4,34986,34986,St. Lucie County,FL
1,34987,34987,St. Lucie County,FL
1,34994,34994,Martin County,FL
2,35004,35004,St. Clair County,AL
1,35010,35010,Tallapoosa County,AL
1,35022,35022,Jefferson County,AL
5,35023,35023,Jefferson County,AL
2,35040,35040,Shelby County,AL
1,35043,35043,Shelby County,AL
2,35045,35045,Chilton County,AL
1,35055,35055,Cullman County,AL
1,35058,35058,Cullman County,AL
1,35062,35062,Jefferson County,AL
3,35071,35071,Jefferson County,AL
1,35071-4617,35071,Jefferson County,AL
1,35080,35080,Shelby County,AL
2,35094,35094,Jefferson County,AL
1,35111,35111,Tuscaloosa County,AL
4,35121,35121,Blount County,AL
5,35124,35124,Shelby County,AL
5,35125,35125,St. Clair County,AL
1,35126,35126,Jefferson County,AL
1,35146,35146,St. Clair County,AL
1,35180,35180,Jefferson County,AL
1,35204,35204,Jefferson County,AL
2,35208,35208,Jefferson County,AL
1,35210,35210,Jefferson County,AL
1,35211,35211,Jefferson County,AL
1,35214,35214,Jefferson County,AL
1,35215,35215,Jefferson County,AL
1,35217,35217,Jefferson County,AL
2,35235,35235,Jefferson County,AL
1,35244,35244,Jefferson County,AL
2,35404,35404,Tuscaloosa County,AL
2,35405,35405,Tuscaloosa County,AL
7,35476,35476,Tuscaloosa County,AL
1,35501,35501,Walker County,AL
2,35565,35565,Winston County,AL
1,35582,35582,Franklin County,AL
1,35594,35594,Marion County,AL
2,35601,35601,Morgan County,AL
2,35603,35603,Morgan County,AL
3,35611,35611,Limestone County,AL
3,35630,35630,Lauderdale County,AL
1,35640,35640,Morgan County,AL
1,35653,35653,Franklin County,AL
1,35661,35661,Colbert County,AL
1,35750-8653,35750,Madison County,AL
1,35759,35759,Madison County,AL
6,35763,35763,Madison County,AL
1,35801,35801,Madison County,AL
3,35810,35810,Madison County,AL
1,35811,35811,Madison County,AL
1,35816,35816,Madison County,AL
2,35901,35901,Etowah County,AL
1,35903,35903,Etowah County,AL
1,35954,35954,Etowah County,AL
1,35960,35960,Cherokee County,AL
1,35986,35986,DeKalb County,AL
1,36027,36027,Barbour County,AL
1,36043,36043,Montgomery County,AL
2,36083,36083,Macon County,AL
1,36107,36107,Montgomery County,AL
3,36109,36109,Montgomery County,AL
2,36110,36110,Montgomery County,AL
1,36112,36112,Montgomery County,AL
1,36116,36116,Montgomery County,AL
2,36117,36117,Montgomery County,AL
2,36201,36201,Calhoun County,AL
4,36203,36203,Calhoun County,AL
1,36265,36265,Calhoun County,AL
8,36301,36301,Houston County,AL
2,36303,36303,Houston County,AL
1,36340,36340,Geneva County,AL
3,36420,36420,Covington County,AL
4,36426,36426,Escambia County,AL
1,36467,36467,Covington County,AL
4,36502,36502,Escambia County,AL
4,36507,36507,Baldwin County,AL
1,36532,36532,Baldwin County,AL
11,36535,36535,Baldwin County,AL
1,36542,36542,Baldwin County,AL
3,36545,36545,Clarke County,AL
1,36551,36551,Baldwin County,AL
1,36560,36560,Mobile County,AL
2,36561,36561,Baldwin County,AL
2,36571,36571,Mobile County,AL
1,36575,36575,Mobile County,AL
1,36602,36602,Mobile County,AL
2,36606,36606,Mobile County,AL
1,36607,36607,Mobile County,AL
2,36608,36608,Mobile County,AL
2,36609,36609,Mobile County,AL
2,36618,36618,Mobile County,AL
1,36619,36619,Mobile County,AL
1,36695,36695,Mobile County,AL
1,36732,36732,Marengo County,AL
2,36784,36784,Clarke County,AL
3,36801,36801,Lee County,AL
1,36830,36830,Lee County,AL
1,36832,36832,Lee County,AL
4,36854,36854,Chambers County,AL
4,36867,36867,Russell County,AL
2,37013,37013,Davidson County,TN
3,37015,37015,Cheatham County,TN
3,37027,37027,Williamson County,TN
2,37030,37030,Smith County,TN
1,37033,37033,Hickman County,TN
1,37040,37040,Montgomery County,TN
2,37042,37042,Montgomery County,TN
2,37043,37043,Montgomery County,TN
1,37055,37055,Dickson County,TN
1,37058,37058,Stewart County,TN
5,37064,37064,Williamson County,TN
2,37066,37066,Sumner County,TN
2,37072,37072,Davidson County,TN
1,37074,37074,Trousdale County,TN
2,37076,37076,Davidson County,TN
1,37082,37082,Cheatham County,TN
2,37083,37083,Macon County,TN
3,37086,37086,Rutherford County,TN
1,37087-3301,37087,Wilson County,TN
1,37091,37091,Marshall County,TN
1,37096,37096,Perry County,TN
2,37110,37110,Warren County,TN
2,37115,37115,Davidson County,TN
2,37122,37122,Wilson County,TN
1,37128,37128,Rutherford County,TN
4,37129,37129,Rutherford County,TN
4,37130,37130,Rutherford County,TN
3,37167,37167,Rutherford County,TN
1,37172,37172,Robertson County,TN
1,37174,37174,Williamson County,TN
1,37188,37188,Robertson County,TN
3,37203,37203,Davidson County,TN
1,37204,37204,Davidson County,TN
1,37206,37206,Davidson County,TN
1,37209,37209,Davidson County,TN
1,37210,37210,Davidson County,TN
1,37211,37211,Davidson County,TN
2,37214,37214,Davidson County,TN
2,37215,37215,Davidson County,TN
1,37217,37217,Davidson County,TN
2,37221,37221,Davidson County,TN
1,37228,37228,Davidson County,TN
2,37303,37303,McMinn County,TN
1,37311,37311,Bradley County,TN
2,37323,37323,Bradley County,TN
2,37324,37324,Franklin County,TN
1,37327,37327,Sequatchie County,TN
3,37343,37343,Hamilton County,TN
1,37347,37347,Marion County,TN
2,37355,37355,Coffee County,TN
1,37356-2117,37356,Grundy County,TN
1,37363,37363,Hamilton County,TN
1,37377,37377,Hamilton County,TN
1,37379,37379,Hamilton County,TN
1,37380,37380,Marion County,TN
1,37381,37381,Rhea County,TN
1,37385,37385,Monroe County,TN
1,37388,37388,Coffee County,TN
3,37405,37405,Hamilton County,TN
1,37406,37406,Hamilton County,TN
1,37408,37408,Hamilton County,TN
1,37411,37411,Hamilton County,TN
2,37412,37412,Hamilton County,TN
2,37415,37415,Hamilton County,TN
2,37421,37421,Hamilton County,TN
1,37421-3221,37421,Hamilton County,TN
1,37601,37601,Washington County,TN
3,37604,37604,Washington County,TN
2,37659,37659,Washington County,TN
2,37660,37660,Sullivan County,TN
2,37686,37686,Sullivan County,TN
1,37701,37701,Blount County,TN
4,37716,37716,Anderson County,TN
2,37745,37745,Greene County,TN
3,37748,37748,Roane County,TN
1,37760,37760,Jefferson County,TN
1,37764,37764,Sevier County,TN
1,37769,37769,Anderson County,TN
1,37771,37771,Loudon County,TN
1,37774,37774,Loudon County,TN
1,37777,37777,Blount County,TN
1,37801,37801,Blount County,TN
1,37804,37804,Blount County,TN
1,37814,37814,Hamblen County,TN
3,37821,37821,Cocke County,TN
3,37830,37830,Anderson County,TN
1,37841,37841,Scott County,TN
1,37849,37849,Knox County,TN
1,37857,37857,Hawkins County,TN
1,37862,37862,Sevier County,TN
1,37874,37874,Monroe County,TN
2,37876,37876,Sevier County,TN
1,37879,37879,Claiborne County,TN
2,37890,37890,Jefferson County,TN
2,37912,37912,Knox County,TN
1,37914,37914,Knox County,TN
1,37917,37917,Knox County,TN
1,37918,37918,Knox County,TN
2,37919,37919,Knox County,TN
1,37921,37921,Knox County,TN
3,37922,37922,Knox County,TN
4,37923,37923,Knox County,TN
1,37931,37931,Knox County,TN
1,37932,37932,Knox County,TN
4,37934,37934,Knox County,TN
1,38002,38002,Shelby County,TN
1,38004,38004,Tipton County,TN
2,3801,3801,Rockingham County,NH
1,38017,38017,Shelby County,TN
1,38018,38018,Shelby County,TN
1,38019,38019,Tipton County,TN
1,38053,38053,Shelby County,TN
2,38059,38059,Dyer County,TN
1,38060,38060,Fayette County,TN
1,38063,38063,Lauderdale County,TN
1,38068,38068,Fayette County,TN
1,38103,38103,Shelby County,TN
4,38104,38104,Shelby County,TN
1,38106,38106,Shelby County,TN
1,38109,38109,Shelby County,TN
2,38111,38111,Shelby County,TN
4,38115,38115,Shelby County,TN
4,38116,38116,Shelby County,TN
1,38117,38117,Shelby County,TN
4,38118,38118,Shelby County,TN
1,38119,38119,Shelby County,TN
1,38122,38122,Shelby County,TN
2,38125,38125,Shelby County,TN
1,38134,38134,Shelby County,TN
1,38135,38135,Shelby County,TN
2,38138,38138,Shelby County,TN
2,38141,38141,Shelby County,TN
1,3820,3820,Strafford County,NH
1,38237,38237,Weakley County,TN
3,38242,38242,Henry County,TN
4,38305,38305,Madison County,TN
2,38310,38310,McNairy County,TN
1,38340,38340,Chester County,TN
1,38372,38372,Hardin County,TN
1,38379,38379,McNairy County,TN
2,38401,38401,Maury County,TN
1,38478,38478,Giles County,TN
1,38485,38485,Wayne County,TN
2,38501,38501,Putnam County,TN
1,38506,38506,Putnam County,TN
5,38555,38555,Cumberland County,TN
1,38606,38606,Panola County,MS
4,38614,38614,Coahoma County,MS
1,3862,3862,Rockingham County,NH
1,38632,38632,DeSoto County,MS
2,38635,38635,Marshall County,MS
1,38637,38637,DeSoto County,MS
1,38654,38654,DeSoto County,MS
3,38655,38655,Lafayette County,MS
2,38663,38663,Tippah County,MS
1,38664,38664,Tunica County,MS
1,38668,38668,Tate County,MS
1,3867,3867,Strafford County,NH
3,38671,38671,DeSoto County,MS
2,38672,38672,DeSoto County,MS
6,38701,38701,Washington County,MS
3,38703,38703,Washington County,MS
8,38732,38732,Bolivar County,MS
2,3874,3874,Rockingham County,NH
5,38751,38751,Sunflower County,MS
1,38756,38756,Washington County,MS
10,38801,38801,Lee County,MS
1,38801-3147,38801,Lee County,MS
2,38804,38804,Lee County,MS
4,38821,38821,Monroe County,MS
4,38829,38829,Prentiss County,MS
1,38834,38834,Alcorn County,MS
1,38834-4121,38834,Alcorn County,MS
1,38851,38851,Chickasaw County,MS
1,38860,38860,Chickasaw County,MS
7,38863,38863,Pontotoc County,MS
1,3890,3890,Carroll County,NH
1,38901,38901,Grenada County,MS
1,38916,38916,Calhoun County,MS
2,38930,38930,Leflore County,MS
1,38967,38967,Montgomery County,MS
2,39083,39083,Copiah County,MS
1,39090,39090,Attala County,MS
1,39180,39180,Warren County,MS
1,39202,39202,Hinds County,MS
2,39204,39204,Hinds County,MS
2,39206,39206,Hinds County,MS
1,39208,39208,Rankin County,MS
2,39209,39209,Hinds County,MS
1,39213,39213,Hinds County,MS
1,39213-7646,39213,Hinds County,MS
1,39232,39232,Rankin County,MS
1,39341,39341,Noxubee County,MS
1,39402-1352,39402,Lamar County,MS
1,39437-2413,39437,Jones County,MS
2,39440,39440,Jones County,MS
1,39452-6632,39452,George County,MS
2,39465,39465,Forrest County,MS
1,39466,39466,Pearl River County,MS
1,39470,39470,Pearl River County,MS
5,39503,39503,Harrison County,MS
1,39531,39531,Harrison County,MS
1,39553,39553,Jackson County,MS
1,39564,39564,Jackson County,MS
2,39581,39581,Jackson County,MS
1,39702,39702,Lowndes County,MS
1,39759,39759,Oktibbeha County,MS
1,39819,39819,Decatur County,GA
1,39823,39823,Early County,GA
3,40014,40014,Oldham County,KY
2,40031,40031,Oldham County,KY
2,40033,40033,Marion County,KY
1,4005,4005,York County,ME
1,40065,40065,Shelby County,KY
1,40067,40067,Shelby County,KY
2,40108,40108,Meade County,KY
1,4011,4011,Cumberland County,ME
1,40143,40143,Breckinridge County,KY
2,40165,40165,Bullitt County,KY
1,40202,40202,Jefferson County,KY
3,40207,40207,Jefferson County,KY
2,40208,40208,Jefferson County,KY
4,40213,40213,Jefferson County,KY
1,40214,40214,Jefferson County,KY
1,40216,40216,Jefferson County,KY
3,40219,40219,Jefferson County,KY
1,40220,40220,Jefferson County,KY
5,40222,40222,Jefferson County,KY
2,40223,40223,Jefferson County,KY
1,40229,40229,Jefferson County,KY
2,40241,40241,Jefferson County,KY
2,40258,40258,Jefferson County,KY
2,40291,40291,Jefferson County,KY
2,40324,40324,Scott County,KY
4,40330,40330,Mercer County,KY
7,40351,40351,Rowan County,KY
1,40353,40353,Montgomery County,KY
1,40356,40356,Jessamine County,KY
2,40361,40361,Bourbon County,KY
1,4038,4038,Cumberland County,ME
2,40380,40380,Powell County,KY
3,40383,40383,Woodford County,KY
1,4040,4040,Cumberland County,ME
1,40403,40403,Madison County,KY
2,40422,40422,Boyle County,KY
1,4043,4043,York County,ME
1,40460,40460,Rockcastle County,KY
1,40475,40475,Madison County,KY
1,40502,40502,Fayette County,KY
3,40503,40503,Fayette County,KY
2,40505,40505,Fayette County,KY
1,40507,40507,Fayette County,KY
1,40508,40508,Fayette County,KY
4,40509,40509,Fayette County,KY
2,40511,40511,Fayette County,KY
1,40513,40513,Fayette County,KY
3,40601,40601,Franklin County,KY
2,4062,4062,Cumberland County,ME
1,40701,40701,Whitley County,KY
2,4072,4072,York County,ME
2,4074,4074,Cumberland County,ME
1,40741-1070,40741,Laurel County,KY
7,40769,40769,Whitley County,KY
1,40831,40831,Harlan County,KY
1,40906,40906,Knox County,KY
1,4092,4092,Cumberland County,ME
2,40962,40962,Clay County,KY
1,40977,40977,Bell County,KY
4,41001,41001,Campbell County,KY
7,41005,41005,Boone County,KY
3,41008,41008,Carroll County,KY
1,41008-8031,41008,Carroll County,KY
2,4101,4101,Cumberland County,ME
3,41011,41011,Kenton County,KY
5,41015,41015,Kenton County,KY
5,41017,41017,Kenton County,KY
4,41018,41018,Kenton County,KY
3,41031,41031,Harrison County,KY
1,41035,41035,Grant County,KY
19,41042,41042,Boone County,KY
9,41048,41048,Boone County,KY
4,41051,41051,Kenton County,KY
6,41056,41056,Mason County,KY
1,4106,4106,Cumberland County,ME
8,41071,41071,Campbell County,KY
3,41073,41073,Campbell County,KY
7,41076,41076,Campbell County,KY
5,41094,41094,Boone County,KY
6,41101,41101,Boyd County,KY
1,41102,41102,Boyd County,KY
5,41143,41143,Carter County,KY
2,41144,41144,Greenup County,KY
2,41230,41230,Lawrence County,KY
5,41240,41240,Johnson County,KY
1,41240-1805,41240,Johnson County,KY
1,41301,41301,Wolfe County,KY
2,41339,41339,Breathitt County,KY
2,41465,41465,Magoffin County,KY
1,41472,41472,Morgan County,KY
6,41501,41501,Pike County,KY
6,41653,41653,Floyd County,KY
5,41701,41701,Perry County,KY
2,41858,41858,Letcher County,KY
3,42001,42001,McCracken County,KY
4,42025,42025,Marshall County,KY
1,42025-7123,42025,Marshall County,KY
1,42038,42038,Lyon County,KY
1,42041,42041,Fulton County,KY
1,42064,42064,Crittenden County,KY
2,42066,42066,Graves County,KY
4,42071,42071,Calloway County,KY
2,4210,4210,Androscoggin County,ME
9,42101,42101,Warren County,KY
1,42104,42104,Warren County,KY
1,42127,42127,Barren County,KY
1,42134,42134,Simpson County,KY
9,42141,42141,Barren County,KY
1,42141-1129,42141,Barren County,KY
1,42141-1543,42141,Barren County,KY
2,42164,42164,Allen County,KY
1,42167,42167,Monroe County,KY
1,42206,42206,Logan County,KY
2,42223,42223,Christian County,KY
2,42240,42240,Christian County,KY
1,42262,42262,Christian County,KY
6,42301,42301,Daviess County,KY
1,42303,42303,Daviess County,KY
3,42320,42320,Ohio County,KY
1,42330,42330,Muhlenberg County,KY
1,42345,42345,Muhlenberg County,KY
1,42431,42431,Hopkins County,KY
2,42437,42437,Union County,KY
1,42445,42445,Caldwell County,KY
7,42501,42501,Pulaski County,KY
1,4252,4252,Androscoggin County,ME
1,42539,42539,Casey County,KY
2,42602,42602,Clinton County,KY
1,42642,42642,Russell County,KY
1,42653,42653,McCreary County,KY
2,42701,42701,Hardin County,KY
1,42718,42718,Taylor County,KY
4,42728,42728,Adair County,KY
1,42754,42754,Grayson County,KY
2,4281,4281,Oxford County,ME
3,43015,43015,Delaware County,OH
1,43025,43025,Licking County,OH
3,43026,43026,Franklin County,OH
1,43031,43031,Licking County,OH
2,43035,43035,Delaware County,OH
1,43040,43040,Union County,OH
2,43050,43050,Knox County,OH
1,43054,43054,Franklin County,OH
2,43055,43055,Licking County,OH
2,43056,43056,Licking County,OH
1,43064,43064,Madison County,OH
1,43065,43065,Delaware County,OH
1,43068,43068,Franklin County,OH
3,43074,43074,Delaware County,OH
2,43123,43123,Franklin County,OH
1,43140,43140,Madison County,OH
1,43147,43147,Fairfield County,OH
6,43160,43160,Fayette County,OH
1,43202,43202,Franklin County,OH
4,43204,43204,Franklin County,OH
1,43207,43207,Franklin County,OH
1,43209,43209,Franklin County,OH
1,43212,43212,Franklin County,OH
1,43213,43213,Franklin County,OH
1,43214,43214,Franklin County,OH
1,43219,43219,Franklin County,OH
1,43223,43223,Franklin County,OH
3,43229,43229,Franklin County,OH
1,43230-1374,43230,Franklin County,OH
1,43232,43232,Franklin County,OH
2,43235,43235,Franklin County,OH
1,43240,43240,Delaware County,OH
6,4330,4330,Kennebec County,ME
1,43302,43302,Marion County,OH
2,43311,43311,Logan County,OH
1,43316,43316,Wyandot County,OH
1,43326,43326,Hardin County,OH
3,43420,43420,Sandusky County,OH
1,4345,4345,Kennebec County,ME
1,43452,43452,Ottawa County,OH
1,43456,43456,Ottawa County,OH
1,43506,43506,Williams County,OH
1,43528,43528,Lucas County,OH
1,43537,43537,Lucas County,OH
1,43545,43545,Henry County,OH
1,43551,43551,Wood County,OH
1,43560,43560,Lucas County,OH
1,43567,43567,Fulton County,OH
3,43605,43605,Lucas County,OH
1,43606,43606,Lucas County,OH
2,43609,43609,Lucas County,OH
1,43614,43614,Lucas County,OH
2,43615,43615,Lucas County,OH
1,43616,43616,Lucas County,OH
1,43617,43617,Lucas County,OH
11,43701,43701,Muskingum County,OH
1,43701-1409,43701,Muskingum County,OH
1,43724-9680,43724,Noble County,OH
1,43725,43725,Guernsey County,OH
1,43812,43812,Coshocton County,OH
1,43840,43840,Tuscarawas County,OH
2,43906,43906,Belmont County,OH
1,43907,43907,Harrison County,OH
1,43935,43935,Belmont County,OH
1,43953,43953,Jefferson County,OH
4,44001,44001,Lorain County,OH
5,44004,44004,Ashtabula County,OH
9,4401,4401,Penobscot County,ME
2,44011,44011,Lorain County,OH
2,44017,44017,Cuyahoga County,OH
1,44023,44023,Geauga County,OH
5,44035,44035,Lorain County,OH
1,44041,44041,Ashtabula County,OH
1,44047,44047,Ashtabula County,OH
1,44050,44050,Lorain County,OH
1,44052,44052,Lorain County,OH
1,44055,44055,Lorain County,OH
1,44057,44057,Lake County,OH
4,44060,44060,Lake County,OH
1,44070,44070,Cuyahoga County,OH
1,44077,44077,Lake County,OH
2,44089,44089,Erie County,OH
1,44092,44092,Lake County,OH
3,44094,44094,Lake County,OH
1,44095,44095,Lake County,OH
1,44103,44103,Cuyahoga County,OH
1,44106,44106,Cuyahoga County,OH
1,44107,44107,Cuyahoga County,OH
1,44109,44109,Cuyahoga County,OH
1,44111,44111,Cuyahoga County,OH
3,44112,44112,Cuyahoga County,OH
1,4412,4412,Penobscot County,ME
1,44120,44120,Cuyahoga County,OH
1,44121,44121,Cuyahoga County,OH
3,44125,44125,Cuyahoga County,OH
1,44126,44126,Cuyahoga County,OH
3,44128,44128,Cuyahoga County,OH
6,44130,44130,Cuyahoga County,OH
1,44133,44133,Cuyahoga County,OH
1,44134,44134,Cuyahoga County,OH
1,44136,44136,Cuyahoga County,OH
1,44141,44141,Cuyahoga County,OH
1,44144,44144,Cuyahoga County,OH
3,44146,44146,Cuyahoga County,OH
1,44212,44212,Medina County,OH
1,44223,44223,Summit County,OH
1,44224,44224,Summit County,OH
2,44240,44240,Portage County,OH
1,44241,44241,Portage County,OH
1,44255,44255,Portage County,OH
1,44266,44266,Portage County,OH
2,44312,44312,Summit County,OH
2,44313,44313,Summit County,OH
1,44333,44333,Summit County,OH
4,44410,44410,Trumbull County,OH
1,44432,44432,Columbiana County,OH
1,44444,44444,Trumbull County,OH
3,44446,44446,Trumbull County,OH
1,44460,44460,Columbiana County,OH
1,44483,44483,Trumbull County,OH
2,44484,44484,Trumbull County,OH
1,44505,44505,Mahoning County,OH
2,44512,44512,Mahoning County,OH
1,44514,44514,Mahoning County,OH
1,44614,44614,Stark County,OH
2,44615,44615,Carroll County,OH
3,44622,44622,Tuscarawas County,OH
1,44644,44644,Carroll County,OH
1,44646,44646,Stark County,OH
1,44647,44647,Stark County,OH
1,44654,44654,Holmes County,OH
3,44657,44657,Stark County,OH
1,44663,44663,Tuscarawas County,OH
2,44667,44667,Wayne County,OH
1,44683,44683,Tuscarawas County,OH
3,44691,44691,Wayne County,OH
1,44706,44706,Stark County,OH
1,44708,44708,Stark County,OH
1,44709,44709,Stark County,OH
3,44718,44718,Stark County,OH
5,44720,44720,Stark County,OH
1,44721,44721,Stark County,OH
3,44805,44805,Ashland County,OH
1,44811,44811,Sandusky County,OH
1,44820,44820,Crawford County,OH
1,44830,44830,Seneca County,OH
2,44833,44833,Crawford County,OH
1,44839,44839,Erie County,OH
1,44842,44842,Ashland County,OH
1,44857,44857,Huron County,OH
3,44870,44870,Erie County,OH
2,44875,44875,Richland County,OH
1,44883,44883,Seneca County,OH
5,44890,44890,Huron County,OH
4,44903,44903,Richland County,OH
4,44906,44906,Richland County,OH
2,45005,45005,Warren County,OH
14,45011,45011,Butler County,OH
8,45013,45013,Butler County,OH
9,45014,45014,Butler County,OH
1,45015,45015,Butler County,OH
4,45030,45030,Hamilton County,OH
4,45039,45039,Warren County,OH
2,45040,45040,Warren County,OH
1,45040-2359,45040,Warren County,OH
1,45041,45041,Hamilton County,OH
2,45042,45042,Butler County,OH
2,45044,45044,Butler County,OH
4,45050,45050,Butler County,OH
5,45056,45056,Butler County,OH
2,45066,45066,Warren County,OH
1,45068,45068,Warren County,OH
16,45069,45069,Butler County,OH
4,45102,45102,Clermont County,OH
1,45103,45103,Clermont County,OH
3,45121,45121,Brown County,OH
1,45122,45122,Clermont County,OH
3,45133,45133,Highland County,OH
3,45140,45140,Clermont County,OH
3,45150,45150,Clermont County,OH
4,45154,45154,Brown County,OH
1,45177,45177,Clinton County,OH
2,45202,45202,Hamilton County,OH
1,45205,45205,Hamilton County,OH
1,45206,45206,Hamilton County,OH
2,45208,45208,Hamilton County,OH
1,45209,45209,Hamilton County,OH
7,45211,45211,Hamilton County,OH
1,45212,45212,Hamilton County,OH
3,45213,45213,Hamilton County,OH
3,45215,45215,Hamilton County,OH
2,45216,45216,Hamilton County,OH
1,45217,45217,Hamilton County,OH
3,45219,45219,Hamilton County,OH
1,45220-1216,45220,Hamilton County,OH
3,45223,45223,Hamilton County,OH
3,45224,45224,Hamilton County,OH
1,45225,45225,Hamilton County,OH
2,45227,45227,Hamilton County,OH
1,45230,45230,Hamilton County,OH
7,45231,45231,Hamilton County,OH
1,45232,45232,Hamilton County,OH
7,45236,45236,Hamilton County,OH
1,45237,45237,Hamilton County,OH
7,45238,45238,Hamilton County,OH
5,45239,45239,Hamilton County,OH
5,45240,45240,Hamilton County,OH
6,45241,45241,Hamilton County,OH
1,45242,45242,Hamilton County,OH
1,45243,45243,Hamilton County,OH
11,45245,45245,Clermont County,OH
7,45246,45246,Hamilton County,OH
5,45247,45247,Hamilton County,OH
7,45249,45249,Hamilton County,OH
10,45251,45251,Hamilton County,OH
1,45322,45322,Montgomery County,OH
2,45324,45324,Greene County,OH
2,45331,45331,Darke County,OH
1,45365,45365,Shelby County,OH
1,45373,45373,Miami County,OH
1,45377,45377,Montgomery County,OH
1,45384,45384,Greene County,OH
1,45385,45385,Greene County,OH
1,45404,45404,Montgomery County,OH
1,45406,45406,Montgomery County,OH
2,45409,45409,Montgomery County,OH
2,45414,45414,Montgomery County,OH
2,45417,45417,Montgomery County,OH
5,45424,45424,Montgomery County,OH
2,45431,45431,Montgomery County,OH
1,45432,45432,Greene County,OH
1,45439,45439,Montgomery County,OH
1,45440,45440,Montgomery County,OH
2,45449,45449,Montgomery County,OH
3,45459,45459,Montgomery County,OH
1,45504,45504,Clark County,OH
2,45505,45505,Clark County,OH
1,45601,45601,Ross County,OH
1,45631,45631,Gallia County,OH
1,45638,45638,Lawrence County,OH
1,45640,45640,Jackson County,OH
1,45662,45662,Scioto County,OH
1,45693,45693,Adams County,OH
5,45701,45701,Athens County,OH
3,45769,45769,Meigs County,OH
2,45801,45801,Allen County,OH
1,45804,45804,Allen County,OH
1,45806,45806,Allen County,OH
2,45840,45840,Hancock County,OH
1,45872,45872,Wood County,OH
2,45895,45895,Auglaize County,OH
2,46001,46001,Madison County,IN
3,46011,46011,Madison County,IN
1,46012,46012,Madison County,IN
2,46013,46013,Madison County,IN
1,46015,46015,#N/A,#N/A
1,46016,46016,Madison County,IN
1,46032,46032,Hamilton County,IN
1,46034,46034,Hamilton County,IN
2,4605,4605,Hancock County,ME
1,46052,46052,Boone County,IN
1,46055,46055,Hancock County,IN
1,46060,46060,Hamilton County,IN
1,46077,46077,Boone County,IN
1,46112,46112,Hendricks County,IN
1,46113,46113,Marion County,IN
2,46124,46124,Johnson County,IN
3,46131,46131,Johnson County,IN
4,46135,46135,Putnam County,IN
3,46140,46140,Hancock County,IN
1,46142,46142,Johnson County,IN
2,46143,46143,Johnson County,IN
1,46148,46148,Henry County,IN
5,46151,46151,Morgan County,IN
1,46158,46158,Morgan County,IN
1,46163,46163,Hancock County,IN
1,46166,46166,Morgan County,IN
4,46168,46168,Hendricks County,IN
2,46176,46176,Shelby County,IN
1,46181,46181,Johnson County,IN
2,46201,46201,Marion County,IN
1,46202,46202,Marion County,IN
1,46217,46217,Marion County,IN
1,46218,46218,Marion County,IN
1,46219,46219,Marion County,IN
1,46220,46220,Marion County,IN
2,46222,46222,Marion County,IN
1,46225,46225,Marion County,IN
1,46226,46226,Marion County,IN
1,46227,46227,Marion County,IN
2,46229,46229,Marion County,IN
1,46234,46234,Marion County,IN
1,46236,46236,Marion County,IN
2,46237,46237,Marion County,IN
2,46240,46240,Marion County,IN
2,46241,46241,Marion County,IN
2,46254,46254,Marion County,IN
2,46268,46268,Marion County,IN
1,46278,46278,Marion County,IN
1,46303,46303,Lake County,IN
7,46304,46304,Porter County,IN
6,46307,46307,Lake County,IN
1,46310,46310,Jasper County,IN
1,46312,46312,Lake County,IN
1,46320,46320,Lake County,IN
1,46321,46321,Lake County,IN
1,46322,46322,Lake County,IN
1,46342,46342,Lake County,IN
1,46350,46350,LaPorte County,IN
1,46356,46356,Lake County,IN
9,46360,46360,LaPorte County,IN
4,46368,46368,Porter County,IN
2,46375,46375,Lake County,IN
1,46385,46385,Porter County,IN
1,46394,46394,Lake County,IN
1,46403,46403,Lake County,IN
2,46410,46410,Lake County,IN
2,46514,46514,Elkhart County,IN
6,46517,46517,Elkhart County,IN
4,46534,46534,Starke County,IN
1,4654,4654,Washington County,ME
1,46540,46540,Elkhart County,IN
1,46544,46544,St. Joseph County,IN
3,46545,46545,St. Joseph County,IN
2,46563,46563,Marshall County,IN
2,46567,46567,Kosciusko County,IN
4,46601,46601,St. Joseph County,IN
1,46614,46614,St. Joseph County,IN
3,46628,46628,St. Joseph County,IN
1,46635,46635,St. Joseph County,IN
1,46637,46637,St. Joseph County,IN
7,46703,46703,Steuben County,IN
6,46706,46706,DeKalb County,IN
6,46714,46714,Wells County,IN
7,46725,46725,Whitley County,IN
5,46733,46733,Adams County,IN
1,46737,46737,Steuben County,IN
5,46750,46750,Huntington County,IN
5,46755,46755,Noble County,IN
1,46767,46767,Noble County,IN
1,46804,46804,Allen County,IN
2,46805,46805,Allen County,IN
1,46808,46808,Allen County,IN
2,46825,46825,Allen County,IN
1,46835,46835,Allen County,IN
2,46901,46901,Howard County,IN
2,46902,46902,Howard County,IN
1,46952,46952,Grant County,IN
1,46962,46962,Wabash County,IN
1,46962-1943,46962,Wabash County,IN
1,46970,46970,Miami County,IN
1,47001,47001,Dearborn County,IN
4,47006,47006,Ripley County,IN
2,47025,47025,Dearborn County,IN
1,47112,47112,Harrison County,IN
1,47119,47119,Floyd County,IN
1,47122,47122,Floyd County,IN
2,47129,47129,Clark County,IN
5,47130,47130,Clark County,IN
2,47167,47167,Washington County,IN
1,47170,47170,Scott County,IN
4,47201,47201,Bartholomew County,IN
1,47203,47203,Bartholomew County,IN
6,47240,47240,Decatur County,IN
1,47243,47243,Jefferson County,IN
6,47250,47250,Jefferson County,IN
3,47265,47265,Jennings County,IN
1,4730,4730,Aroostook County,ME
2,47302,47302,Delaware County,IN
7,47303,47303,Delaware County,IN
4,47304,47304,Delaware County,IN
1,47304-4449,47304,Delaware County,IN
2,47306,47306,Delaware County,IN
1,47327,47327,Wayne County,IN
2,47331,47331,Fayette County,IN
1,47334,47334,Delaware County,IN
3,47348,47348,Blackford County,IN
3,47362,47362,Henry County,IN
2,47371,47371,Jay County,IN
8,47374,47374,Wayne County,IN
3,47394,47394,Randolph County,IN
2,47404,47404,Monroe County,IN
6,47421,47421,Lawrence County,IN
3,47441,47441,Greene County,IN
1,47446,47446,Lawrence County,IN
3,47454,47454,Orange County,IN
1,47460,47460,Owen County,IN
1,47469,47469,Orange County,IN
3,47501,47501,Daviess County,IN
1,47542,47542,Dubois County,IN
8,47546,47546,Dubois County,IN
2,47553,47553,Martin County,IN
4,47586,47586,Perry County,IN
1,47591,47591,Knox County,IN
2,47601,47601,Warrick County,IN
1,47601-3004,47601,Warrick County,IN
2,47630,47630,Warrick County,IN
4,47710,47710,Vanderburgh County,IN
4,47711,47711,Vanderburgh County,IN
3,47712,47712,Vanderburgh County,IN
3,47714,47714,Vanderburgh County,IN
2,47715,47715,Vanderburgh County,IN
1,47720,47720,Vanderburgh County,IN
3,47725,47725,Vanderburgh County,IN
2,47802,47802,Vigo County,IN
3,47805,47805,Vigo County,IN
3,47834,47834,Clay County,IN
3,47842,47842,Vermillion County,IN
1,47904,47904,Tippecanoe County,IN
3,47905,47905,Tippecanoe County,IN
12,47906,47906,Tippecanoe County,IN
1,47909,47909,Tippecanoe County,IN
1,47960,47960,White County,IN
2,47978,47978,Jasper County,IN
2,48001,48001,St. Clair County,MI
1,48003-8500,48003,Lapeer County,MI
1,48025,48025,Oakland County,MI
1,48030,48030,Oakland County,MI
1,48033,48033,Oakland County,MI
1,48035,48035,Macomb County,MI
1,48036,48036,Macomb County,MI
2,48044,48044,Macomb County,MI
1,48045,48045,Macomb County,MI
1,48047,48047,Macomb County,MI
1,48051,48051,Macomb County,MI
2,48059,48059,St. Clair County,MI
2,48060,48060,St. Clair County,MI
1,48062,48062,Macomb County,MI
2,48066,48066,Macomb County,MI
3,48071,48071,Oakland County,MI
1,48073,48073,Oakland County,MI
1,48076,48076,Oakland County,MI
2,48079,48079,St. Clair County,MI
1,48081,48081,Macomb County,MI
3,48083,48083,Oakland County,MI
1,48084,48084,Oakland County,MI
2,48085,48085,Oakland County,MI
1,48093,48093,Macomb County,MI
2,48095,48095,Macomb County,MI
1,48103,48103,Washtenaw County,MI
1,48108,48108,Washtenaw County,MI
4,48111,48111,Wayne County,MI
1,48116,48116,Livingston County,MI
5,48118,48118,Washtenaw County,MI
1,48124,48124,Wayne County,MI
2,48126,48126,Wayne County,MI
3,48131,48131,Monroe County,MI
5,48134,48134,Wayne County,MI
3,48150,48150,Wayne County,MI
3,48152,48152,Wayne County,MI
2,48162,48162,Monroe County,MI
1,48167,48167,Oakland County,MI
1,48169,48169,Livingston County,MI
7,48174,48174,Wayne County,MI
1,48174-2510,48174,Wayne County,MI
5,48183,48183,Wayne County,MI
3,48184,48184,Wayne County,MI
1,48185,48185,Wayne County,MI
2,48192,48192,Wayne County,MI
1,48193,48193,Wayne County,MI
2,48204,48204,Wayne County,MI
1,48207,48207,Wayne County,MI
1,48210,48210,Wayne County,MI
1,48219-1223,48219,Wayne County,MI
1,48224,48224,Wayne County,MI
1,48226,48226,Wayne County,MI
1,48228,48228,Wayne County,MI
1,48229,48229,Wayne County,MI
3,48234,48234,Wayne County,MI
2,48236,48236,Wayne County,MI
3,48238,48238,Wayne County,MI
1,48309,48309,Oakland County,MI
1,48310,48310,Macomb County,MI
2,48313,48313,Macomb County,MI
3,48315,48315,Macomb County,MI
2,48326,48326,Oakland County,MI
1,48327,48327,Oakland County,MI
2,48328,48328,Oakland County,MI
1,48336,48336,Oakland County,MI
2,48341,48341,Oakland County,MI
1,48341-3122,48341,Oakland County,MI
1,48353,48353,Livingston County,MI
1,48360,48360,Oakland County,MI
1,48371,48371,Oakland County,MI
4,48390,48390,Oakland County,MI
2,48420,48420,Genesee County,MI
1,48423,48423,Genesee County,MI
3,48430,48430,Genesee County,MI
2,48446,48446,Lapeer County,MI
1,48451,48451,Genesee County,MI
1,48503,48503,Genesee County,MI
4,48504,48504,Genesee County,MI
2,48507,48507,Genesee County,MI
3,48509,48509,Genesee County,MI
1,48603,48603,Saginaw County,MI
2,48616,48616,Saginaw County,MI
1,48617,48617,Clare County,MI
1,48623,48623,Saginaw County,MI
1,48629,48629,Roscommon County,MI
2,48640,48640,Midland County,MI
1,48642,48642,Midland County,MI
1,48651,48651,Roscommon County,MI
1,48661,48661,Ogemaw County,MI
1,48706,48706,Bay County,MI
1,48750,48750,Iosco County,MI
1,48750-9559,48750,Iosco County,MI
1,48813,48813,Eaton County,MI
1,48823,48823,Ingham County,MI
1,48827,48827,Eaton County,MI
4,48843,48843,Livingston County,MI
1,48847,48847,Gratiot County,MI
1,48854,48854,Ingham County,MI
3,48858,48858,Isabella County,MI
1,48864,48864,Ingham County,MI
1,48906,48906,Ingham County,MI
1,48910,48910,Ingham County,MI
1,48911,48911,Ingham County,MI
1,48912,48912,Ingham County,MI
2,49002,49002,Kalamazoo County,MI
1,49022,49022,Berrien County,MI
1,49036,49036,Branch County,MI
1,49047,49047,Cass County,MI
2,49048,49048,Kalamazoo County,MI
1,49079,49079,Van Buren County,MI
3,49085,49085,Berrien County,MI
1,49090,49090,Van Buren County,MI
1,49091,49091,St. Joseph County,MI
1,49093,49093,St. Joseph County,MI
1,49099,49099,St. Joseph County,MI
1,49202,49202,Jackson County,MI
2,49203,49203,Jackson County,MI
1,49224,49224,Calhoun County,MI
1,49286,49286,Lenawee County,MI
4,49404,49404,Ottawa County,MI
1,49417,49417,Ottawa County,MI
4,49418,49418,Kent County,MI
1,49423,49423,Ottawa County,MI
1,49441,49441,Muskegon County,MI
1,49442,49442,Muskegon County,MI
2,49444,49444,Muskegon County,MI
1,49445,49445,Muskegon County,MI
2,49461,49461,Muskegon County,MI
2,49503,49503,Kent County,MI
2,49504,49504,Kent County,MI
1,49505,49505,Kent County,MI
2,49508,49508,Kent County,MI
2,49509,49509,Kent County,MI
1,49512,49512,Kent County,MI
1,49519,49519,Kent County,MI
2,49525,49525,Kent County,MI
1,49546,49546,Kent County,MI
1,49548,49548,Kent County,MI
2,49660,49660,Manistee County,MI
2,49684,49684,Grand Traverse County,MI
1,49685,49685,#N/A,#N/A
6,49686,49686,Grand Traverse County,MI
1,49686-3748,49686,Grand Traverse County,MI
2,4976,4976,Somerset County,ME
1,49770,49770,Emmet County,MI
3,49801,49801,Dickinson County,MI
2,49855,49855,Marquette County,MI
1,49931,49931,Houghton County,MI
3,50009,50009,Polk County,IA
1,5001,5001,Windsor County,VT
3,50010,50010,Story County,IA
1,50014,50014,Story County,IA
1,50022,50022,Cass County,IA
1,50036,50036,Boone County,IA
1,50111,50111,Polk County,IA
4,50125,50125,Warren County,IA
2,50131,50131,Polk County,IA
1,50138,50138,Marion County,IA
1,50158,50158,Marshall County,IA
5,50208,50208,Jasper County,IA
2,50211,50211,Warren County,IA
3,50213,50213,Clarke County,IA
1,50219,50219,Marion County,IA
1,50266,50266,Polk County,IA
1,50309,50309,Polk County,IA
2,50310,50310,Polk County,IA
1,50313,50313,Polk County,IA
1,50316,50316,Polk County,IA
3,50317,50317,Polk County,IA
3,50325,50325,Polk County,IA
6,50401,50401,Cerro Gordo County,IA
1,50428,50428,Cerro Gordo County,IA
1,50438,50438,Hancock County,IA
1,50459,50459,Worth County,IA
6,50501,50501,Webster County,IA
4,50588,50588,Buena Vista County,IA
7,50613,50613,Black Hawk County,IA
1,50642-8122,50642,Grundy County,IA
2,50644,50644,Buchanan County,IA
2,50677,50677,Bremer County,IA
1,50701,50701,Black Hawk County,IA
2,50702,50702,Black Hawk County,IA
1,50801,50801,Union County,IA
1,51009,51009,O'Brien County,IA
1,51031,51031,Plymouth County,IA
1,51102,51102,#N/A,#N/A
2,51105,51105,Woodbury County,IA
1,51106,51106,Woodbury County,IA
1,51108,51108,Woodbury County,IA
1,51250,51250,Sioux County,IA
3,51301,51301,Clay County,IA
1,51334,51334,Emmet County,IA
2,51360,51360,Dickinson County,IA
7,51401,51401,Carroll County,IA
1,51442,51442,Crawford County,IA
1,51501,51501,Pottawattamie County,IA
1,51503,51503,Pottawattamie County,IA
1,51534,51534,Mills County,IA
1,51566,51566,Montgomery County,IA
8,52001,52001,Dubuque County,IA
5,52002,52002,Dubuque County,IA
2,52003,52003,Dubuque County,IA
4,5201,5201,Bennington County,VT
2,52060,52060,Jackson County,IA
2,52101,52101,Winneshiek County,IA
1,52240,52240,Johnson County,IA
2,52241,52241,Johnson County,IA
3,52302,52302,Linn County,IA
2,52349,52349,Benton County,IA
1,52353,52353,Washington County,IA
2,52402,52402,Linn County,IA
1,52405,52405,Linn County,IA
1,52411,52411,Linn County,IA
6,52501,52501,Wapello County,IA
2,52556,52556,Jefferson County,IA
3,52601,52601,Des Moines County,IA
4,52627,52627,Lee County,IA
3,52632,52632,Lee County,IA
2,52641,52641,Henry County,IA
2,52722,52722,Scott County,IA
6,52732,52732,Clinton County,IA
1,52761,52761,Muscatine County,IA
2,52772,52772,Cedar County,IA
1,52806,52806,Scott County,IA
1,53004,53004,Ozaukee County,WI
5,5301,5301,Windham County,VT
1,53045,53045,Waukesha County,WI
1,53066,53066,Waukesha County,WI
1,53073,53073,Sheboygan County,WI
1,53081,53081,Sheboygan County,WI
3,53083,53083,Sheboygan County,WI
1,53089,53089,Waukesha County,WI
1,53090,53090,Washington County,WI
1,53094,53094,Jefferson County,WI
1,53126,53126,Racine County,WI
1,53129,53129,Milwaukee County,WI
2,53142,53142,Kenosha County,WI
1,53144,53144,Kenosha County,WI
2,53149,53149,Waukesha County,WI
1,53150,53150,Waukesha County,WI
2,53151,53151,Waukesha County,WI
2,53154,53154,Milwaukee County,WI
3,53177,53177,Racine County,WI
1,53184-9601,53184,Walworth County,WI
3,53186,53186,Waukesha County,WI
2,53207,53207,Milwaukee County,WI
1,53208,53208,Milwaukee County,WI
1,53209,53209,Milwaukee County,WI
1,53211,53211,Milwaukee County,WI
1,53212,53212,Milwaukee County,WI
3,53214,53214,Milwaukee County,WI
1,53216,53216,Milwaukee County,WI
3,53217,53217,Milwaukee County,WI
1,53221,53221,Milwaukee County,WI
1,53222,53222,Milwaukee County,WI
1,53223,53223,Milwaukee County,WI
1,53224,53224,Milwaukee County,WI
1,53226,53226,Milwaukee County,WI
2,53227,53227,Milwaukee County,WI
1,53404,53404,Racine County,WI
1,53406,53406,Racine County,WI
1,53527,53527,Dane County,WI
1,53532,53532,Dane County,WI
2,53534,53534,Rock County,WI
1,53538,53538,Jefferson County,WI
1,53545,53545,Rock County,WI
1,53548,53548,Rock County,WI
1,53558,53558,Dane County,WI
2,53562,53562,Dane County,WI
1,53566,53566,Green County,WI
1,53583,53583,Sauk County,WI
1,53590,53590,Dane County,WI
1,53597,53597,Dane County,WI
1,53704,53704,Dane County,WI
1,53711,53711,Dane County,WI
1,53713,53713,Dane County,WI
1,53715,53715,Dane County,WI
2,53716,53716,Dane County,WI
1,53813,53813,Grant County,WI
1,53901,53901,Columbia County,WI
1,53913,53913,Sauk County,WI
1,53925,53925,Columbia County,WI
1,53965,53965,Sauk County,WI
2,54002,54002,St. Croix County,WI
3,5401,5401,Chittenden County,VT
8,54016,54016,St. Croix County,WI
2,54017,54017,St. Croix County,WI
2,54022,54022,Pierce County,WI
3,5403,5403,Chittenden County,VT
1,54140,54140,Outagamie County,WI
1,54143,54143,Marinette County,WI
1,54166,54166,Shawano County,WI
1,54220,54220,Manitowoc County,WI
4,54235,54235,Door County,WI
1,54302,54302,Brown County,WI
2,54304,54304,Brown County,WI
2,54401,54401,Marathon County,WI
1,54409,54409,Langlade County,WI
1,54448,54448,Marathon County,WI
6,54449,54449,Wood County,WI
5,54451,54451,Taylor County,WI
1,54452,54452,Lincoln County,WI
1,54456,54456,Clark County,WI
3,5446,5446,Chittenden County,VT
4,54467,54467,Portage County,WI
2,54476,54476,Marathon County,WI
5,54481,54481,Portage County,WI
4,54494,54494,Wood County,WI
1,54499,54499,Shawano County,WI
4,54501,54501,Oneida County,WI
2,5452,5452,Chittenden County,VT
10,54601,54601,La Crosse County,WI
1,54603,54603,La Crosse County,WI
2,54615,54615,Jackson County,WI
1,5468,5468,Chittenden County,VT
1,54720,54720,Eau Claire County,WI
4,54729,54729,Chippewa County,WI
7,54751,54751,Dunn County,WI
3,5478,5478,Franklin County,VT
3,54806,54806,Ashland County,WI
1,54843,54843,Sawyer County,WI
1,54868,54868,Barron County,WI
3,54880,54880,Douglas County,WI
1,54904,54904,Winnebago County,WI
1,54911,54911,Outagamie County,WI
1,54914,54914,Outagamie County,WI
1,54923,54923,Green Lake County,WI
3,54935,54935,Fond du Lac County,WI
2,54952,54952,Winnebago County,WI
3,54956,54956,Winnebago County,WI
1,54963,54963,Winnebago County,WI
1,54981,54981,Waupaca County,WI
3,55008,55008,Isanti County,MN
1,55014,55014,Anoka County,MN
2,55016,55016,Washington County,MN
3,55021,55021,Rice County,MN
1,55024,55024,Dakota County,MN
4,55025,55025,Washington County,MN
1,55033,55033,Dakota County,MN
1,55045,55045,Chisago County,MN
1,55051,55051,Kanabec County,MN
2,55056,55056,Chisago County,MN
1,55056-5433,55056,Chisago County,MN
3,55060,55060,Steele County,MN
1,55063,55063,Pine County,MN
1,55068,55068,Dakota County,MN
3,55082,55082,Washington County,MN
1,55102,55102,Ramsey County,MN
1,55103,55103,Ramsey County,MN
3,55104,55104,Ramsey County,MN
1,55106,55106,Ramsey County,MN
5,55109,55109,Ramsey County,MN
3,55110,55110,Ramsey County,MN
1,55111,55111,Hennepin County,MN
1,55112,55112,Ramsey County,MN
5,55113,55113,Ramsey County,MN
2,55118,55118,Dakota County,MN
1,55119,55119,Ramsey County,MN
1,55121,55121,Dakota County,MN
2,55123,55123,Dakota County,MN
1,55125,55125,Washington County,MN
3,55126,55126,Ramsey County,MN
2,55128,55128,Washington County,MN
4,55303,55303,Anoka County,MN
2,55304,55304,Anoka County,MN
1,55308,55308,Sherburne County,MN
1,55311,55311,Hennepin County,MN
1,55330,55330,Sherburne County,MN
1,55337,55337,Dakota County,MN
1,55343,55343,Hennepin County,MN
1,55350,55350,McLeod County,MN
1,55352,55352,Scott County,MN
1,55362,55362,Wright County,MN
3,55369,55369,Hennepin County,MN
2,55371,55371,Mille Lacs County,MN
2,55374,55374,Hennepin County,MN
2,55379,55379,Scott County,MN
2,55406,55406,Hennepin County,MN
1,55408,55408,Hennepin County,MN
1,55411,55411,Hennepin County,MN
3,55421,55421,Anoka County,MN
1,55423,55423,Hennepin County,MN
1,55426,55426,Hennepin County,MN
5,55428,55428,Hennepin County,MN
1,55429,55429,Hennepin County,MN
1,55430,55430,Hennepin County,MN
2,55432,55432,Anoka County,MN
2,55434,55434,Anoka County,MN
3,55435,55435,Hennepin County,MN
1,55439,55439,Hennepin County,MN
1,55441,55441,Hennepin County,MN
2,55443,55443,Hennepin County,MN
1,55444,55444,Hennepin County,MN
1,55445,55445,Hennepin County,MN
1,55448,55448,Anoka County,MN
2,55449,55449,Anoka County,MN
1,55719,55719,St. Louis County,MN
5,55720,55720,Carlton County,MN
1,55723-8146,55723,St. Louis County,MN
1,55805,55805,St. Louis County,MN
3,55811,55811,St. Louis County,MN
3,55901,55901,Olmsted County,MN
1,55912,55912,Mower County,MN
2,55987,55987,Winona County,MN
1,56001,56001,Blue Earth County,MN
2,56003,56003,Nicollet County,MN
2,56007,56007,Freeborn County,MN
1,5602,5602,Washington County,VT
1,56073,56073,Brown County,MN
1,56301,56301,Stearns County,MN
1,56320,56320,Stearns County,MN
3,56345,56345,Morrison County,MN
4,5641,5641,Washington County,VT
1,56468,56468,Crow Wing County,MN
2,56601,56601,Beltrami County,MN
1,56601-2433,56601,Beltrami County,MN
1,5661,5661,Lamoille County,VT
1,57004,57004,Union County,SD
2,57005,57005,Minnehaha County,SD
2,57006,57006,Brookings County,SD
7,5701,5701,Rutland County,VT
3,57042,57042,Lake County,SD
4,57069,57069,Clay County,SD
3,57103,57103,Minnehaha County,SD
1,57105,57105,Minnehaha County,SD
1,57106,57106,Minnehaha County,SD
7,57201,57201,Codington County,SD
1,57262,57262,Roberts County,SD
9,57301,57301,Davison County,SD
2,57325,57325,Brule County,SD
4,57350,57350,Beadle County,SD
10,57401,57401,Brown County,SD
2,57501,57501,Hughes County,SD
3,57580,57580,Tripp County,SD
1,57601,57601,Walworth County,SD
23,57701,57701,Pennington County,SD
11,57702,57702,Pennington County,SD
3,57717,57717,Butte County,SD
1,57719,57719,Pennington County,SD
1,57730,57730,Custer County,SD
2,57747,57747,Fall River County,SD
1,57783,57783,Lawrence County,SD
7,57785,57785,Meade County,SD
1,58072,58072,Barnes County,ND
5,58075,58075,Richland County,ND
1,58102,58102,Cass County,ND
2,58103,58103,Cass County,ND
2,58104,58104,Cass County,ND
4,5819,5819,Caledonia County,VT
5,58201,58201,Grand Forks County,ND
1,58203,58203,Grand Forks County,ND
1,58237,58237,Walsh County,ND
2,58301,58301,Ramsey County,ND
7,58401,58401,Stutsman County,ND
1,58503,58503,Burleigh County,ND
1,58504,58504,Burleigh County,ND
2,58554,58554,Morton County,ND
2,58601,58601,Stark County,ND
8,58701,58701,Ward County,ND
1,58703,58703,Ward County,ND
8,58801,58801,Williams County,ND
1,59044,59044,Yellowstone County,MT
1,59047,59047,Park County,MT
1,59101,59101,Yellowstone County,MT
3,59102,59102,Yellowstone County,MT
2,59105,59105,Yellowstone County,MT
1,59230,59230,Valley County,MT
1,59301,59301,Custer County,MT
1,59401,59401,Cascade County,MT
1,59404,59404,Cascade County,MT
1,59405,59405,Cascade County,MT
1,59427,59427,Glacier County,MT
3,59601,59601,Lewis and Clark County,MT
1,59602,59602,Lewis and Clark County,MT
1,59722,59722,Powell County,MT
2,59801,59801,Missoula County,MT
3,59808,59808,Missoula County,MT
1,59840,59840,Ravalli County,MT
3,60002,60002,Lake County,IL
1,60004,60004,Cook County,IL
1,60007,60007,Cook County,IL
1,60008,60008,Cook County,IL
1,60010,60010,Lake County,IL
1,60012,60012,McHenry County,IL
1,60013,60013,McHenry County,IL
1,60014,60014,McHenry County,IL
2,60016,60016,Cook County,IL
1,60018,60018,Cook County,IL
2,60031,60031,Lake County,IL
1,60035,60035,Lake County,IL
1,60044-2219,60044,Lake County,IL
2,60046,60046,Lake County,IL
3,60047,60047,Lake County,IL
2,60048,60048,Lake County,IL
1,60050,60050,McHenry County,IL
1,60051,60051,McHenry County,IL
1,60060,60060,Lake County,IL
1,60062,60062,Cook County,IL
1,60068,60068,Cook County,IL
2,60073,60073,Lake County,IL
1,60076,60076,Cook County,IL
1,60077,60077,Cook County,IL
2,60085,60085,Lake County,IL
1,60087,60087,Lake County,IL
2,60089,60089,Lake County,IL
1,60091,60091,Cook County,IL
1,60099,60099,Lake County,IL
3,60101,60101,DuPage County,IL
2,60102,60102,McHenry County,IL
1,60103,60103,DuPage County,IL
1,60107,60107,Cook County,IL
2,60108,60108,DuPage County,IL
2,60110,60110,Kane County,IL
2,60115,60115,DeKalb County,IL
1,60123,60123,Kane County,IL
1,60131,60131,Cook County,IL
1,60133,60133,Cook County,IL
1,60137,60137,DuPage County,IL
1,60143,60143,DuPage County,IL
3,60148,60148,DuPage County,IL
1,60177,60177,Kane County,IL
1,60178,60178,DeKalb County,IL
2,60188,60188,DuPage County,IL
1,60201,60201,Cook County,IL
1,6029,6029,Tolland County,CT
2,60302,60302,Cook County,IL
1,6032,6032,Hartford County,CT
2,6040,6040,Hartford County,CT
2,60408,60408,Will County,IL
1,60411,60411,Cook County,IL
2,60415,60415,Cook County,IL
1,60416,60416,Grundy County,IL
1,60418,60418,#N/A,#N/A
1,60426,60426,Cook County,IL
1,60430,60430,Cook County,IL
1,60431,60431,Will County,IL
1,60432,60432,Will County,IL
3,60435,60435,Will County,IL
1,60436,60436,Will County,IL
2,60440,60440,Will County,IL
1,60443,60443,Cook County,IL
1,60445,60445,Cook County,IL
1,60446,60446,Will County,IL
2,60453,60453,Cook County,IL
1,60455,60455,Cook County,IL
2,60477,60477,Cook County,IL
2,60481,60481,Will County,IL
1,60502-7003,60502,DuPage County,IL
5,60506,60506,Kane County,IL
3,60515,60515,DuPage County,IL
1,60517,60517,DuPage County,IL
2,60521,60521,DuPage County,IL
1,60525,60525,Cook County,IL
1,60526,60526,Cook County,IL
1,6053,6053,Hartford County,CT
2,60538,60538,Kendall County,IL
1,60540,60540,DuPage County,IL
1,60546,60546,Cook County,IL
1,60548,60548,DeKalb County,IL
2,60559,60559,DuPage County,IL
1,60560,60560,Kendall County,IL
1,60563,60563,DuPage County,IL
2,60564,60564,Will County,IL
1,60601,60601,Cook County,IL
2,60603,60603,Cook County,IL
1,60606,60606,Cook County,IL
1,60607,60607,Cook County,IL
1,60608,60608,Cook County,IL
3,60609,60609,Cook County,IL
2,60610,60610,Cook County,IL
1,60614,60614,Cook County,IL
3,60615,60615,Cook County,IL
1,60616,60616,Cook County,IL
1,60617,60617,Cook County,IL
3,60618,60618,Cook County,IL
1,60619,60619,Cook County,IL
2,6062,6062,Hartford County,CT
1,60620,60620,Cook County,IL
1,60624,60624,Cook County,IL
1,60625,60625,Cook County,IL
1,60626,60626,Cook County,IL
4,60630,60630,Cook County,IL
1,60632,60632,Cook County,IL
3,60634,60634,Cook County,IL
1,60636,60636,Cook County,IL
4,60638,60638,Cook County,IL
4,60639,60639,Cook County,IL
2,60640,60640,Cook County,IL
1,60641,60641,Cook County,IL
1,60644,60644,Cook County,IL
1,60647,60647,Cook County,IL
1,60654,60654,Cook County,IL
1,60659,60659,Cook County,IL
4,6066,6066,Tolland County,CT
2,60661,60661,Cook County,IL
1,6067,6067,Hartford County,CT
1,60706,60706,Cook County,IL
1,6074,6074,Hartford County,CT
1,60803,60803,Cook County,IL
1,60827,60827,Cook County,IL
1,6085,6085,Hartford County,CT
1,6088,6088,Hartford County,CT
1,60901,60901,Kankakee County,IL
2,60914,60914,Kankakee County,IL
2,60915,60915,Kankakee County,IL
1,60942,60942,Vermilion County,IL
1,6096,6096,Hartford County,CT
1,60970,60970,Iroquois County,IL
1,61008,61008,Boone County,IL
1,61032,61032,Stephenson County,IL
2,6105,6105,Hartford County,CT
6,6106,6106,Hartford County,CT
3,61068,61068,Ogle County,IL
1,61068-9699,61068,Ogle County,IL
1,6107,6107,Hartford County,CT
1,6108,6108,Hartford County,CT
1,61080,61080,Winnebago County,IL
1,61085,61085,Jo Daviess County,IL
1,61101,61101,Winnebago County,IL
1,61108,61108,Winnebago County,IL
5,61109,61109,Winnebago County,IL
5,6111,6111,Hartford County,CT
2,61111,61111,Winnebago County,IL
1,61112,61112,Winnebago County,IL
1,61115,61115,Winnebago County,IL
1,6112,6112,Hartford County,CT
3,6114,6114,Hartford County,CT
3,6117,6117,Hartford County,CT
3,6118,6118,Hartford County,CT
2,61201,61201,Rock Island County,IL
1,61231,61231,Mercer County,IL
1,61244,61244,Rock Island County,IL
1,61264,61264,Rock Island County,IL
1,61265,61265,Rock Island County,IL
1,61342,61342,LaSalle County,IL
4,61350,61350,LaSalle County,IL
2,61364,61364,LaSalle County,IL
1,61401,61401,Knox County,IL
1,61455,61455,McDonough County,IL
2,61462,61462,Warren County,IL
4,61520,61520,Fulton County,IL
3,61523,61523,Peoria County,IL
4,61550,61550,Tazewell County,IL
7,61554,61554,Tazewell County,IL
1,61571,61571,Tazewell County,IL
2,61604,61604,Peoria County,IL
1,61611,61611,Tazewell County,IL
1,61614,61614,Peoria County,IL
3,61615,61615,Peoria County,IL
1,61701,61701,McLean County,IL
2,61704,61704,McLean County,IL
1,61727,61727,De Witt County,IL
1,61761,61761,McLean County,IL
4,61764,61764,Livingston County,IL
1,61801,61801,Champaign County,IL
1,61802,61802,Champaign County,IL
1,61822,61822,Champaign County,IL
7,61832,61832,Vermilion County,IL
1,61944,61944,Edgar County,IL
2,62002,62002,Madison County,IL
1,62010,62010,Madison County,IL
4,62025,62025,Madison County,IL
1,62035,62035,Madison County,IL
1,62040,62040,Madison County,IL
1,62040-3709,62040,Madison County,IL
1,62052,62052,Jersey County,IL
7,62056,62056,Montgomery County,IL
2,62206,62206,St. Clair County,IL
4,62208,62208,St. Clair County,IL
2,62220,62220,St. Clair County,IL
3,62221,62221,St. Clair County,IL
1,62222,62222,#N/A,#N/A
1,62226,62226,St. Clair County,IL
2,62231,62231,Clinton County,IL
1,62232,62232,St. Clair County,IL
5,62234,62234,Madison County,IL
1,62246,62246,Bond County,IL
1,6226,6226,Windham County,CT
1,62278,62278,Randolph County,IL
1,62286,62286,Randolph County,IL
3,62298,62298,Monroe County,IL
2,62301,62301,Adams County,IL
2,62363,62363,Pike County,IL
3,62441,62441,Clark County,IL
2,62454,62454,Crawford County,IL
6,62471,62471,Fayette County,IL
1,62522,62522,Macon County,IL
1,62526,62526,Macon County,IL
4,62568,62568,Christian County,IL
2,62626,62626,Macoupin County,IL
4,62650,62650,Morgan County,IL
1,62656,62656,Logan County,IL
2,62702,62702,Sangamon County,IL
1,62703,62703,Sangamon County,IL
1,62704,62704,Sangamon County,IL
1,62712,62712,Sangamon County,IL
3,62801,62801,Marion County,IL
1,62837,62837,Wayne County,IL
3,62863,62863,Wabash County,IL
6,62864,62864,Jefferson County,IL
1,62901,62901,Jackson County,IL
3,62906,62906,Union County,IL
1,62959,62959,Williamson County,IL
1,62960,62960,Massac County,IL
3,62966,62966,Jackson County,IL
2,63005,63005,St. Louis County,MO
5,63010,63010,Jefferson County,MO
2,63011,63011,St. Louis County,MO
2,63017,63017,St. Louis County,MO
1,63020,63020,Jefferson County,MO
2,63025,63025,St. Louis County,MO
1,63026,63026,St. Louis County,MO
1,63026-4169,63026,St. Louis County,MO
1,63028,63028,Jefferson County,MO
2,63033,63033,St. Louis County,MO
1,63042,63042,St. Louis County,MO
1,63044,63044,St. Louis County,MO
1,63052,63052,Jefferson County,MO
2,63069,63069,Franklin County,MO
3,63080,63080,Franklin County,MO
3,63090,63090,Franklin County,MO
1,63104,63104,St. Louis city,MO
1,63107,63107,St. Louis city,MO
1,63108,63108,St. Louis city,MO
1,63114,63114,St. Louis County,MO
1,63115,63115,St. Louis city,MO
1,63119,63119,St. Louis County,MO
1,63120,63120,St. Louis city,MO
1,63121-5023,63121,St. Louis County,MO
2,63122,63122,St. Louis County,MO
1,63122-6426,63122,St. Louis County,MO
2,63128,63128,St. Louis County,MO
2,63129,63129,St. Louis County,MO
2,63132,63132,St. Louis County,MO
1,63134,63134,St. Louis County,MO
1,63135,63135,St. Louis County,MO
4,63136,63136,St. Louis County,MO
1,63137,63137,St. Louis County,MO
6,63139,63139,St. Louis city,MO
1,63141,63141,St. Louis County,MO
1,63143,63143,St. Louis County,MO
1,63144,63144,St. Louis County,MO
1,63146,63146,St. Louis County,MO
4,6320,6320,New London County,CT
8,63301,63301,St. Charles County,MO
6,63303,63303,St. Charles County,MO
5,63304,63304,St. Charles County,MO
1,6335,6335,New London County,CT
10,63366,63366,St. Charles County,MO
2,63367,63367,St. Charles County,MO
7,63368,63368,St. Charles County,MO
10,63376,63376,St. Charles County,MO
5,63379,63379,Lincoln County,MO
3,63383,63383,Warren County,MO
6,63385,63385,St. Charles County,MO
5,6340,6340,New London County,CT
4,63401,63401,Marion County,MO
4,63501,63501,Adair County,MO
1,63552,63552,Macon County,MO
2,6360,6360,New London County,CT
5,63601,63601,St. Francois County,MO
2,63645,63645,Madison County,MO
1,63670,63670,Ste. Genevieve County,MO
1,63703,63703,Cape Girardeau County,MO
2,63755,63755,Cape Girardeau County,MO
4,63775,63775,Perry County,MO
1,63801,63801,Scott County,MO
3,6382,6382,New London County,CT
1,63841,63841,Stoddard County,MO
2,6385,6385,New London County,CT
2,63851,63851,Pemiscot County,MO
1,63857,63857,Dunklin County,MO
1,63901,63901,Butler County,MO
2,64014,64014,Jackson County,MO
1,64015,64015,Jackson County,MO
5,64024,64024,Clay County,MO
1,64030,64030,Jackson County,MO
1,64037,64037,Lafayette County,MO
1,64052,64052,Jackson County,MO
3,64055,64055,Jackson County,MO
1,64060,64060,Clay County,MO
1,64067,64067,Lafayette County,MO
4,64068,64068,Clay County,MO
2,64076,64076,Lafayette County,MO
1,64078,64078,Cass County,MO
1,64079,64079,Platte County,MO
2,64082,64082,Jackson County,MO
1,64083,64083,Cass County,MO
3,64086,64086,Jackson County,MO
1,64089,64089,Clay County,MO
1,64110,64110,Jackson County,MO
1,64113,64113,Jackson County,MO
2,64116,64116,Clay County,MO
1,64117,64117,Clay County,MO
1,64118,64118,Clay County,MO
1,64120,64120,Jackson County,MO
1,64124,64124,Jackson County,MO
1,64125,64125,Jackson County,MO
1,64127,64127,Jackson County,MO
1,64133,64133,Jackson County,MO
1,64150,64150,Platte County,MO
1,64151,64151,Platte County,MO
1,64152,64152,Platte County,MO
2,6416,6416,Middlesex County,CT
1,6418,6418,New Haven County,CT
2,64424,64424,Harrison County,MO
1,64429,64429,Clinton County,MO
1,64501-2005,64501,Buchanan County,MO
2,64503,64503,Buchanan County,MO
1,64506,64506,Buchanan County,MO
1,64507,64507,Buchanan County,MO
1,6451,6451,New Haven County,CT
1,6457,6457,Middlesex County,CT
4,6460,6460,New Haven County,CT
1,64601,64601,Livingston County,MO
1,64628,64628,Linn County,MO
1,64683,64683,Grundy County,MO
1,64683-2643,64683,Grundy County,MO
3,64701,64701,Cass County,MO
1,6473,6473,New Haven County,CT
1,64735,64735,Henry County,MO
1,6475,6475,Middlesex County,CT
9,64801,64801,Jasper County,MO
1,64801-5506,64801,Jasper County,MO
3,64804,64804,Jasper County,MO
1,64804-2633,64804,Jasper County,MO
2,6483,6483,New Haven County,CT
3,64836,64836,Jasper County,MO
2,64850,64850,Newton County,MO
1,64870,64870,Jasper County,MO
1,6492,6492,New Haven County,CT
3,65026,65026,Miller County,MO
1,65043,65043,Callaway County,MO
1,65049,65049,Camden County,MO
1,65065,65065,Camden County,MO
1,65066,65066,Gasconade County,MO
1,65084,65084,Morgan County,MO
4,65101,65101,Cole County,MO
13,65109,65109,Cole County,MO
1,6512,6512,New Haven County,CT
3,6513,6513,New Haven County,CT
1,6515,6515,New Haven County,CT
3,6516,6516,New Haven County,CT
1,65201,65201,Boone County,MO
4,65233,65233,Cooper County,MO
1,65240,65240,Boone County,MO
2,65251,65251,Callaway County,MO
5,65265,65265,Audrain County,MO
8,65301,65301,Pettis County,MO
2,65340,65340,Saline County,MO
1,65355,65355,Benton County,MO
3,65401,65401,Phelps County,MO
3,65559,65559,Phelps County,MO
4,65560,65560,Dent County,MO
6,65584,65584,Pulaski County,MO
1,65605,65605,Lawrence County,MO
6,65613,65613,Polk County,MO
5,65616,65616,Taney County,MO
1,65625,65625,Barry County,MO
2,65714,65714,Christian County,MO
1,65721,65721,Christian County,MO
1,65738,65738,Greene County,MO
1,65757,65757,Greene County,MO
1,65775,65775,Howell County,MO
1,65781,65781,Greene County,MO
1,65793,65793,Howell County,MO
1,65802,65802,Greene County,MO
3,65803,65803,Greene County,MO
5,65804,65804,Greene County,MO
2,65807,65807,Greene County,MO
1,66002,66002,Atchison County,KS
1,66043,66043,Leavenworth County,KS
1,66044,66044,Douglas County,KS
3,66046,66046,Douglas County,KS
1,66048,66048,Leavenworth County,KS
3,66049,66049,Douglas County,KS
2,6606,6606,Fairfield County,CT
2,66061,66061,Johnson County,KS
1,66101,66101,Wyandotte County,KS
1,66102,66102,Wyandotte County,KS
2,66103,66103,Wyandotte County,KS
1,66111,66111,Wyandotte County,KS
1,66202,66202,Johnson County,KS
2,66203,66203,Johnson County,KS
2,66204,66204,Johnson County,KS
1,66205,66205,Johnson County,KS
1,66210,66210,Johnson County,KS
1,66213,66213,Johnson County,KS
3,66215,66215,Johnson County,KS
3,66223,66223,Johnson County,KS
1,66223-7899,66223,Johnson County,KS
1,66226-3514,66226,Johnson County,KS
2,66434,66434,Brown County,KS
1,66436,66436,Jackson County,KS
1,66441,66441,Geary County,KS
1,66442,66442,Riley County,KS
3,66502,66502,Riley County,KS
1,66508,66508,Marshall County,KS
1,66542,66542,Shawnee County,KS
1,66547,66547,Pottawatomie County,KS
3,66604,66604,Shawnee County,KS
2,66605,66605,Shawnee County,KS
1,66609,66609,Shawnee County,KS
1,66612,66612,Shawnee County,KS
1,66713,66713,Cherokee County,KS
3,66720,66720,Neosho County,KS
2,66725,66725,Cherokee County,KS
2,66739,66739,Cherokee County,KS
2,66762,66762,Crawford County,KS
1,66901,66901,Cloud County,KS
1,67010,67010,Butler County,KS
3,6704,6704,New Haven County,CT
4,6705,6705,New Haven County,CT
1,67062,67062,Harvey County,KS
1,67063,67063,Marion County,KS
1,67104,67104,Barber County,KS
1,67110,67110,Sedgwick County,KS
1,67114,67114,Harvey County,KS
2,67124,67124,Pratt County,KS
1,67133,67133,Butler County,KS
1,67147,67147,Sedgwick County,KS
1,67156,67156,Cowley County,KS
1,67202,67202,Sedgwick County,KS
5,67206,67206,Sedgwick County,KS
1,67208,67208,Sedgwick County,KS
1,67211,67211,Sedgwick County,KS
1,67213,67213,Sedgwick County,KS
2,67216,67216,Sedgwick County,KS
1,67226,67226,Sedgwick County,KS
1,67301,67301,Montgomery County,KS
5,67401,67401,Saline County,KS
1,67410,67410,Dickinson County,KS
1,67432,67432,Clay County,KS
2,67460,67460,McPherson County,KS
3,67502,67502,Reno County,KS
1,67657,67657,Rooks County,KS
1,67701,67701,Thomas County,KS
1,67801,67801,Ford County,KS
2,67846,67846,Finney County,KS
1,68005,68005,Sarpy County,NE
2,68025,68025,Dodge County,NE
1,68028,68028,Sarpy County,NE
2,68046,68046,Sarpy County,NE
2,6810,6810,Fairfield County,CT
1,68102,68102,Douglas County,NE
2,68108,68108,Douglas County,NE
3,68114,68114,Douglas County,NE
1,68118,68118,Douglas County,NE
1,68122,68122,Douglas County,NE
3,68123,68123,Sarpy County,NE
1,68128,68128,Sarpy County,NE
1,68133,68133,Sarpy County,NE
2,68134,68134,Douglas County,NE
2,68137,68137,Douglas County,NE
1,68138,68138,Sarpy County,NE
1,68138-3886,68138,Sarpy County,NE
1,68154,68154,Douglas County,NE
2,68164,68164,Douglas County,NE
2,68305,68305,Nemaha County,NE
4,68310,68310,Gage County,NE
2,68333,68333,Saline County,NE
1,68352,68352,Jefferson County,NE
5,68410,68410,Otoe County,NE
1,68434,68434,Seward County,NE
1,68504,68504,Lancaster County,NE
1,68506,68506,Lancaster County,NE
3,68508,68508,Lancaster County,NE
2,6851,6851,Fairfield County,CT
3,68516,68516,Lancaster County,NE
3,68521,68521,Lancaster County,NE
1,68526,68526,Lancaster County,NE
4,68701,68701,Madison County,NE
1,68763,68763,Holt County,NE
2,68776,68776,Dakota County,NE
1,6878,6878,Fairfield County,CT
2,68787,68787,Wayne County,NE
1,68803,68803,Hall County,NE
1,68862,68862,Valley County,NE
8,68901,68901,Adams County,NE
4,68949,68949,Phelps County,NE
2,69001,69001,Red Willow County,NE
1,69033,69033,Chase County,NE
3,69101,69101,Lincoln County,NE
1,69138,69138,Dawson County,NE
1,69153,69153,Keith County,NE
2,69162,69162,Cheyenne County,NE
1,69337,69337,Dawes County,NE
3,69361,69361,Scotts Bluff County,NE
1,70003,70003,Jefferson Parish,LA
3,70005,70005,Jefferson Parish,LA
1,7001,7001,Middlesex County,NJ
2,7002,7002,Hudson County,NJ
1,7003,7003,Essex County,NJ
1,70037,70037,Plaquemines Parish,LA
1,70052,70052,St. James Parish,LA
1,70053,70053,Jefferson Parish,LA
2,70056,70056,Jefferson Parish,LA
3,70058,70058,Jefferson Parish,LA
1,7006,7006,Essex County,NJ
4,70062,70062,Jefferson Parish,LA
4,70065,70065,Jefferson Parish,LA
1,70068,70068,St. John the Baptist Parish,LA
3,70072,70072,Jefferson Parish,LA
4,70094,70094,Jefferson Parish,LA
1,70114,70114,Orleans Parish,LA
1,70123,70123,Jefferson Parish,LA
2,70128,70128,Orleans Parish,LA
1,70301,70301,Lafourche Parish,LA
1,7036,7036,Union County,NJ
8,70360,70360,Terrebonne Parish,LA
2,70364,70364,Terrebonne Parish,LA
3,70380,70380,St. Mary Parish,LA
1,70392,70392,St. Mary Parish,LA
1,70401,70401,Tangipahoa Parish,LA
1,7042,7042,Essex County,NJ
4,70427,70427,Washington Parish,LA
9,70433,70433,St. Tammany Parish,LA
4,70448,70448,St. Tammany Parish,LA
1,70454,70454,Tangipahoa Parish,LA
5,70458,70458,St. Tammany Parish,LA
3,70460,70460,St. Tammany Parish,LA
1,70461,70461,St. Tammany Parish,LA
2,70471,70471,St. Tammany Parish,LA
5,70503,70503,Lafayette Parish,LA
1,70506,70506,Lafayette Parish,LA
1,70508,70508,Lafayette Parish,LA
2,70510,70510,Vermilion Parish,LA
2,70517,70517,St. Martin Parish,LA
1,70520,70520,Lafayette Parish,LA
1,70570,70570,St. Landry Parish,LA
1,70577,70577,St. Landry Parish,LA
1,70582,70582,St. Martin Parish,LA
2,70583,70583,Lafayette Parish,LA
1,70601,70601,Calcasieu Parish,LA
2,70611,70611,Calcasieu Parish,LA
1,70615,70615,Calcasieu Parish,LA
2,7062,7062,Union County,NJ
1,7065,7065,Union County,NJ
1,70663,70663,Calcasieu Parish,LA
1,7068,7068,Essex County,NJ
1,7069,7069,Somerset County,NJ
1,70714,70714,East Baton Rouge Parish,LA
1,70719,70719,West Baton Rouge Parish,LA
9,70726,70726,Livingston Parish,LA
1,7076,7076,Union County,NJ
1,70760,70760,Pointe Coupee Parish,LA
1,70767,70767,West Baton Rouge Parish,LA
1,70791,70791,East Baton Rouge Parish,LA
1,7080,7080,Middlesex County,NJ
1,70802,70802,East Baton Rouge Parish,LA
2,70805,70805,East Baton Rouge Parish,LA
2,70806,70806,East Baton Rouge Parish,LA
2,70808,70808,East Baton Rouge Parish,LA
1,70809-4532,70809,East Baton Rouge Parish,LA
2,70810,70810,East Baton Rouge Parish,LA
3,70815,70815,East Baton Rouge Parish,LA
5,70816,70816,East Baton Rouge Parish,LA
1,70817,70817,East Baton Rouge Parish,LA
1,7094,7094,Hudson County,NJ
2,7095,7095,Middlesex County,NJ
1,71006,71006,Bossier Parish,LA
1,71019,71019,Red River Parish,LA
3,71037,71037,Bossier Parish,LA
1,71040,71040,Claiborne Parish,LA
1,7105,7105,Essex County,NJ
6,71055,71055,Webster Parish,LA
1,71082,71082,Caddo Parish,LA
1,7109,7109,Essex County,NJ
11,71105,71105,Caddo Parish,LA
3,71106,71106,Caddo Parish,LA
1,71107,71107,Caddo Parish,LA
3,71111,71111,Bossier Parish,LA
1,71118,71118,Caddo Parish,LA
1,71119,71119,Caddo Parish,LA
2,71129,71129,Caddo Parish,LA
3,71201,71201,Ouachita Parish,LA
1,71203,71203,Ouachita Parish,LA
5,71220,71220,Morehouse Parish,LA
2,71232,71232,Richland Parish,LA
1,71241,71241,Union Parish,LA
2,71251,71251,Jackson Parish,LA
11,71270,71270,Lincoln Parish,LA
7,71291,71291,Ouachita Parish,LA
2,71295,71295,Franklin Parish,LA
1,71301,71301,Rapides Parish,LA
10,71303,71303,Rapides Parish,LA
1,71322,71322,Avoyelles Parish,LA
2,71350,71350,Avoyelles Parish,LA
1,71351,71351,Avoyelles Parish,LA
1,71360,71360,Rapides Parish,LA
1,71373,71373,Concordia Parish,LA
7,71446,71446,Vernon Parish,LA
3,71449,71449,Sabine Parish,LA
6,71457,71457,Natchitoches Parish,LA
2,71463,71463,Allen Parish,LA
1,71483,71483,Winn Parish,LA
1,71601,71601,Jefferson County,AR
1,71602,71602,Jefferson County,AR
1,71635,71635,Ashley County,AR
3,71639,71639,Desha County,AR
4,71655,71655,Drew County,AR
1,71671,71671,Bradley County,AR
1,71730,71730,Union County,AR
1,71742,71742,Dallas County,AR
3,71801,71801,Hempstead County,AR
2,71854,71854,Miller County,AR
5,71923,71923,Clark County,AR
1,71923-5925,71923,Clark County,AR
1,71953,71953,Polk County,AR
1,72010,72010,White County,AR
2,72015,72015,Saline County,AR
1,72021,72021,Monroe County,AR
2,72023,72023,Lonoke County,AR
1,7203,7203,Union County,NJ
6,72032,72032,Faulkner County,AR
1,72034,72034,Faulkner County,AR
1,7205,7205,Union County,NJ
3,72058,72058,Faulkner County,AR
4,72076,72076,Pulaski County,AR
3,72086,72086,Lonoke County,AR
2,72104,72104,Hot Spring County,AR
1,72106,72106,Faulkner County,AR
1,72110,72110,Conway County,AR
4,72112,72112,Jackson County,AR
7,72113,72113,Pulaski County,AR
3,72114,72114,Pulaski County,AR
5,72116,72116,Pulaski County,AR
1,72116-8033,72116,Pulaski County,AR
3,72117,72117,Pulaski County,AR
1,72143,72143,White County,AR
3,72150,72150,Grant County,AR
2,72160,72160,Arkansas County,AR
2,72201,72201,Pulaski County,AR
2,72204,72204,Pulaski County,AR
1,72205,72205,Pulaski County,AR
1,72209,72209,Pulaski County,AR
2,72211,72211,Pulaski County,AR
1,72315,72315,Mississippi County,AR
1,72335,72335,St. Francis County,AR
4,72401,72401,Craighead County,AR
1,72401-5828,72401,Craighead County,AR
1,72404,72404,Craighead County,AR
1,72450,72450,Greene County,AR
1,72455,72455,Randolph County,AR
1,72476,72476,Lawrence County,AR
3,72501,72501,Independence County,AR
1,72560,72560,Stone County,AR
3,72601,72601,Boone County,AR
2,72650,72650,Searcy County,AR
1,72701,72701,Washington County,AR
4,72703,72703,Washington County,AR
1,72712,72712,Benton County,AR
1,72714,72714,Benton County,AR
2,72740,72740,Madison County,AR
1,72751,72751,Benton County,AR
5,72756,72756,Benton County,AR
1,72758,72758,Benton County,AR
1,72762,72762,Washington County,AR
11,72764,72764,Washington County,AR
2,72801,72801,Pope County,AR
2,72823,72823,Pope County,AR
2,72830,72830,Johnson County,AR
1,72834,72834,Yell County,AR
1,72901,72901,Sebastian County,AR
1,72903,72903,Sebastian County,AR
1,72916,72916,Sebastian County,AR
1,72921,72921,Crawford County,AR
1,72936,72936,Sebastian County,AR
1,72944,72944,Sebastian County,AR
1,72949,72949,Franklin County,AR
3,73005,73005,Caddo County,OK
1,73008,73008,Oklahoma County,OK
4,73013,73013,Oklahoma County,OK
1,73018,73018,Grady County,OK
1,73020,73020,Oklahoma County,OK
1,73034,73034,Oklahoma County,OK
1,73044,73044,Logan County,OK
1,7305,7305,Hudson County,NJ
1,73064,73064,Canadian County,OK
2,73069,73069,Cleveland County,OK
3,73071,73071,Cleveland County,OK
2,73072,73072,Cleveland County,OK
1,73075,73075,Garvin County,OK
1,73077,73077,Noble County,OK
2,73080,73080,McClain County,OK
2,73099,73099,Canadian County,OK
1,7310,7310,Hudson County,NJ
1,73103,73103,Oklahoma County,OK
1,73104,73104,Oklahoma County,OK
1,73105,73105,Oklahoma County,OK
2,73107,73107,Oklahoma County,OK
1,73109,73109,Oklahoma County,OK
1,73110,73110,Oklahoma County,OK
1,73111,73111,Oklahoma County,OK
1,73112,73112,Oklahoma County,OK
1,73114,73114,Oklahoma County,OK
6,73115,73115,Oklahoma County,OK
1,73118,73118,Oklahoma County,OK
1,73120,73120,Oklahoma County,OK
1,73127,73127,Oklahoma County,OK
1,73128,73128,Canadian County,OK
4,73129,73129,Oklahoma County,OK
1,73130,73130,Oklahoma County,OK
7,73132,73132,Oklahoma County,OK
1,73134-8021,73134,Oklahoma County,OK
1,73139,73139,Oklahoma County,OK
1,73149,73149,Oklahoma County,OK
3,73159,73159,Oklahoma County,OK
2,73160,73160,Cleveland County,OK
1,73162,73162,Oklahoma County,OK
4,73401,73401,Carter County,OK
1,73448,73448,Love County,OK
2,73505,73505,Comanche County,OK
1,73644,73644,Beckham County,OK
4,73703,73703,Garfield County,OK
1,73750,73750,Kingfisher County,OK
1,73942,73942,Texas County,OK
1,74003,74003,Osage County,OK
6,74006,74006,Washington County,OK
3,74010,74010,Creek County,OK
5,74012,74012,Tulsa County,OK
1,74014,74014,Wagoner County,OK
1,74015,74015,Rogers County,OK
6,74017,74017,Rogers County,OK
2,74023,74023,Payne County,OK
3,74033,74033,Tulsa County,OK
2,74037,74037,Tulsa County,OK
1,74044,74044,Creek County,OK
2,7405,7405,Morris County,NJ
3,74055,74055,Tulsa County,OK
2,74063,74063,Tulsa County,OK
1,74063-6571,74063,Tulsa County,OK
3,74066,74066,Creek County,OK
1,74074,74074,Payne County,OK
1,74105,74105,Tulsa County,OK
1,74106,74106,Tulsa County,OK
3,74107,74107,Tulsa County,OK
1,74110,74110,Tulsa County,OK
1,74112,74112,Tulsa County,OK
3,74115,74115,Tulsa County,OK
1,74129,74129,Tulsa County,OK
1,74132,74132,Tulsa County,OK
4,74133,74133,Tulsa County,OK
1,74135,74135,Tulsa County,OK
2,74136,74136,Tulsa County,OK
1,74145,74145,Tulsa County,OK
1,74146,74146,Tulsa County,OK
1,7416,7416,Sussex County,NJ
1,74171,74171,#N/A,#N/A
2,7419,7419,Sussex County,NJ
1,7420,7420,Passaic County,NJ
1,74301,74301,Craig County,OK
1,74344,74344,Delaware County,OK
1,74354,74354,Ottawa County,OK
2,74361,74361,Mayes County,OK
7,74401,74401,Muskogee County,OK
3,74426,74426,McIntosh County,OK
5,74447,74447,Okmulgee County,OK
1,7446,7446,Bergen County,NJ
2,74462,74462,Haskell County,OK
6,74464,74464,Cherokee County,OK
1,74467,74467,Wagoner County,OK
5,74501,74501,Pittsburg County,OK
2,74525,74525,Atoka County,OK
1,7456,7456,Passaic County,NJ
1,74578,74578,Latimer County,OK
2,74701,74701,Bryan County,OK
3,74728,74728,McCurtain County,OK
1,74743,74743,Choctaw County,OK
3,74801,74801,Pottawatomie County,OK
4,74804,74804,Pottawatomie County,OK
6,74820,74820,Pontotoc County,OK
2,74848,74848,Hughes County,OK
1,74851,74851,Pottawatomie County,OK
3,74868,74868,Seminole County,OK
1,74873,74873,Pottawatomie County,OK
1,74953,74953,Le Flore County,OK
1,75006,75006,Dallas County,TX
1,75009,75009,Collin County,TX
2,75013,75013,Collin County,TX
1,75016,75016,#N/A,#N/A
1,75020,75020,Grayson County,TX
1,75033,75033,#N/A,#N/A
4,75034,75034,Denton County,TX
2,75038,75038,Dallas County,TX
1,75040,75040,Dallas County,TX
1,75041,75041,Dallas County,TX
1,75042,75042,Dallas County,TX
1,75043,75043,Dallas County,TX
2,75048,75048,Dallas County,TX
1,75050,75050,Dallas County,TX
2,75051,75051,Dallas County,TX
1,75052,75052,Dallas County,TX
1,75056,75056,Denton County,TX
1,75057,75057,Denton County,TX
2,75061,75061,Dallas County,TX
1,75063,75063,Dallas County,TX
1,75067,75067,Denton County,TX
6,75070,75070,Collin County,TX
1,75074,75074,Collin County,TX
1,75077,75077,Denton County,TX
1,75080,75080,Dallas County,TX
1,75081,75081,Dallas County,TX
1,75082,75082,Collin County,TX
3,75087,75087,Rockwall County,TX
1,75093,75093,Collin County,TX
2,75109,75109,Navarro County,TX
1,75119,75119,Ellis County,TX
2,75126,75126,Kaufman County,TX
3,75141,75141,Dallas County,TX
1,75147,75147,Kaufman County,TX
2,75149,75149,Dallas County,TX
4,75150,75150,Dallas County,TX
1,75154,75154,Ellis County,TX
1,75165,75165,Ellis County,TX
2,75180,75180,Dallas County,TX
2,75189,75189,Rockwall County,TX
1,75201,75201,Dallas County,TX
1,75211,75211,Dallas County,TX
1,75212,75212,Dallas County,TX
2,75216,75216,Dallas County,TX
1,75217,75217,Dallas County,TX
2,75218,75218,Dallas County,TX
1,75220,75220,Dallas County,TX
1,75224,75224,Dallas County,TX
2,75228,75228,Dallas County,TX
2,75229,75229,Dallas County,TX
1,75230,75230,Dallas County,TX
3,75231,75231,Dallas County,TX
1,75235,75235,Dallas County,TX
1,75237,75237,Dallas County,TX
3,75240,75240,Dallas County,TX
2,75241,75241,Dallas County,TX
2,75243,75243,Dallas County,TX
1,75244,75244,Dallas County,TX
1,75247,75247,Dallas County,TX
1,75261,75261,#N/A,#N/A
1,75401,75401,Hunt County,TX
1,75402-7208,75402,Hunt County,TX
1,75460,75460,Lamar County,TX
1,75482,75482,Hopkins County,TX
1,75501,75501,Bowie County,TX
3,75551,75551,Cass County,TX
2,75570,75570,Bowie County,TX
1,75601,75601,Gregg County,TX
1,75602,75602,Gregg County,TX
1,75633,75633,Panola County,TX
4,75644,75644,Upshur County,TX
1,75657,75657,Marion County,TX
1,75662,75662,Gregg County,TX
2,75670,75670,Harrison County,TX
1,75701,75701,Smith County,TX
1,75703,75703,Smith County,TX
1,75706,75706,Smith County,TX
1,75751,75751,Henderson County,TX
1,75758,75758,Henderson County,TX
1,75766,75766,Cherokee County,TX
2,75773,75773,Wood County,TX
1,75785,75785,Cherokee County,TX
2,75801,75801,Anderson County,TX
2,75831,75831,Leon County,TX
2,75835,75835,Houston County,TX
2,75840,75840,Freestone County,TX
1,75862,75862,Trinity County,TX
2,75901,75901,Angelina County,TX
4,75935,75935,Shelby County,TX
3,75951,75951,Jasper County,TX
1,75964,75964,Nacogdoches County,TX
1,75965,75965,Nacogdoches County,TX
1,75975,75975,Shelby County,TX
2,75979,75979,Tyler County,TX
1,76001,76001,Tarrant County,TX
1,76006,76006,Tarrant County,TX
1,7601,7601,Bergen County,NJ
2,76011,76011,Tarrant County,TX
2,76013,76013,Tarrant County,TX
1,76015,76015,Tarrant County,TX
3,76017,76017,Tarrant County,TX
2,76020,76020,Tarrant County,TX
1,76022,76022,Tarrant County,TX
1,76028,76028,Johnson County,TX
1,76039,76039,Tarrant County,TX
2,7604,7604,Bergen County,NJ
1,76040,76040,Tarrant County,TX
2,76051,76051,Tarrant County,TX
1,76054,76054,Tarrant County,TX
1,76063,76063,Tarrant County,TX
2,76065,76065,Ellis County,TX
5,76067,76067,Palo Pinto County,TX
1,76082,76082,Parker County,TX
4,76087,76087,Parker County,TX
1,76092,76092,Tarrant County,TX
1,76106,76106,Tarrant County,TX
1,76108-4407,76108,Tarrant County,TX
1,76111,76111,Tarrant County,TX
2,76112,76112,Tarrant County,TX
4,76114,76114,Tarrant County,TX
1,76116,76116,Tarrant County,TX
1,76119,76119,Tarrant County,TX
1,76123,76123,Tarrant County,TX
3,76126,76126,Tarrant County,TX
1,76131,76131,Tarrant County,TX
2,76132,76132,Tarrant County,TX
1,76133,76133,Tarrant County,TX
1,76135,76135,Tarrant County,TX
2,76148,76148,Tarrant County,TX
1,76155,76155,Tarrant County,TX
1,76177,76177,Tarrant County,TX
1,76201,76201,Denton County,TX
1,76207,76207,Denton County,TX
1,7621,7621,Bergen County,NJ
1,76210,76210,Denton County,TX
2,76230,76230,Montague County,TX
1,76234,76234,Wise County,TX
1,76240,76240,Cooke County,TX
2,76262,76262,Denton County,TX
1,76266,76266,Denton County,TX
2,7630,7630,Bergen County,NJ
2,76301,76301,Wichita County,TX
1,76302,76302,Wichita County,TX
2,76308,76308,Wichita County,TX
1,76354,76354,Wichita County,TX
1,76501,76501,Bell County,TX
1,7652,7652,Bergen County,NJ
1,76528,76528,Coryell County,TX
5,76542,76542,Bell County,TX
1,76544,76544,Bell County,TX
1,76550,76550,Lampasas County,TX
2,76567,76567,Milam County,TX
1,76571,76571,Bell County,TX
1,76574,76574,Williamson County,TX
1,7662,7662,Bergen County,NJ
1,76642,76642,Limestone County,TX
4,76645,76645,Hill County,TX
1,76661,76661,Falls County,TX
2,76667,76667,Limestone County,TX
1,76704,76704,McLennan County,TX
3,76705,76705,McLennan County,TX
2,76708,76708,McLennan County,TX
1,76710,76710,McLennan County,TX
1,76712,76712,McLennan County,TX
1,76801,76801,Brown County,TX
1,76821,76821,Runnels County,TX
1,76825,76825,McCulloch County,TX
2,76901,76901,Tom Green County,TX
2,76903,76903,Tom Green County,TX
2,76904,76904,Tom Green County,TX
2,77002,77002,Harris County,TX
1,77005,77005,Harris County,TX
1,77006,77006,Harris County,TX
1,77007,77007,Harris County,TX
1,77008,77008,Harris County,TX
1,77009,77009,Harris County,TX
1,77011,77011,Harris County,TX
3,77020,77020,Harris County,TX
1,77022,77022,Harris County,TX
1,77023,77023,Harris County,TX
1,77024,77024,Harris County,TX
2,77034,77034,Harris County,TX
3,77036,77036,Harris County,TX
5,77040,77040,Harris County,TX
1,77041,77041,Harris County,TX
2,77042,77042,Harris County,TX
1,77044,77044,Harris County,TX
1,77045,77045,Harris County,TX
1,77049,77049,Harris County,TX
1,77053,77053,Fort Bend County,TX
1,77055,77055,Harris County,TX
3,77056,77056,Harris County,TX
1,77057,77057,Harris County,TX
1,77062,77062,Harris County,TX
1,77064,77064,Harris County,TX
1,77065,77065,Harris County,TX
1,77067,77067,Harris County,TX
1,77069,77069,Harris County,TX
1,77071,77071,Harris County,TX
3,77072,77072,Harris County,TX
1,77075,77075,Harris County,TX
2,77077,77077,Harris County,TX
2,77079,77079,Harris County,TX
1,77081,77081,Harris County,TX
1,77084,77084,Harris County,TX
1,77085,77085,Harris County,TX
2,77087,77087,Harris County,TX
2,77089,77089,Harris County,TX
1,77090,77090,Harris County,TX
1,77092,77092,Harris County,TX
1,77095,77095,Harris County,TX
1,77096,77096,Harris County,TX
1,77099,77099,Harris County,TX
4,7712,7712,Monmouth County,NJ
1,7719,7719,Monmouth County,NJ
1,7724,7724,Monmouth County,NJ
1,7728,7728,Monmouth County,NJ
1,77301,77301,Montgomery County,TX
3,7731,7731,Monmouth County,NJ
2,77327,77327,Liberty County,TX
2,77338,77338,Harris County,TX
2,77340,77340,Walker County,TX
3,77346,77346,Harris County,TX
1,77354,77354,Montgomery County,TX
2,77356,77356,Montgomery County,TX
1,77362,77362,Montgomery County,TX
4,77375,77375,Harris County,TX
1,77377,77377,Harris County,TX
1,77378,77378,Montgomery County,TX
6,77379,77379,Harris County,TX
1,7738,7738,Monmouth County,NJ
1,77380,77380,Montgomery County,TX
1,77388,77388,Harris County,TX
1,7740,7740,Monmouth County,NJ
5,77414,77414,Matagorda County,TX
2,77429,77429,Harris County,TX
1,77433,77433,Harris County,TX
1,77437,77437,Wharton County,TX
1,77447,77447,Harris County,TX
2,77449,77449,Harris County,TX
1,77469,77469,Fort Bend County,TX
1,77471,77471,Fort Bend County,TX
1,77474,77474,Austin County,TX
1,77477,77477,Fort Bend County,TX
2,77478,77478,Fort Bend County,TX
1,77479,77479,Fort Bend County,TX
1,7748,7748,Monmouth County,NJ
1,77484-8009,77484,Waller County,TX
1,77494,77494,Fort Bend County,TX
3,77498,77498,Fort Bend County,TX
2,77502,77502,Harris County,TX
1,77515,77515,Brazoria County,TX
3,77520,77520,Harris County,TX
1,77523,77523,Chambers County,TX
3,7753,7753,Monmouth County,NJ
2,77535,77535,Liberty County,TX
1,77536,77536,Harris County,TX
2,77539,77539,Galveston County,TX
1,77541,77541,Brazoria County,TX
1,77546,77546,Galveston County,TX
1,77547,77547,Harris County,TX
1,77566,77566,Brazoria County,TX
2,77568,77568,Galveston County,TX
3,77571,77571,Harris County,TX
3,77573,77573,Galveston County,TX
4,77575,77575,Liberty County,TX
2,77581,77581,Brazoria County,TX
1,77598,77598,Harris County,TX
1,7760,7760,Monmouth County,NJ
1,77611,77611,Orange County,TX
1,77619,77619,Jefferson County,TX
2,77640,77640,Jefferson County,TX
1,77657,77657,Hardin County,TX
1,77662,77662,Orange County,TX
1,77665-9097,77665,Chambers County,TX
1,77802,77802,Brazos County,TX
1,77836,77836,Burleson County,TX
1,77840,77840,Brazos County,TX
1,77864,77864,Madison County,TX
4,77901,77901,Victoria County,TX
1,77904,77904,Victoria County,TX
1,77954,77954,DeWitt County,TX
1,77979,77979,Calhoun County,TX
1,78006,78006,Kendall County,TX
1,78023,78023,Bexar County,TX
2,78028,78028,Kerr County,TX
1,78041,78041,Webb County,TX
1,78043,78043,Webb County,TX
1,78045,78045,Webb County,TX
1,78064,78064,Atascosa County,TX
1,78121,78121,Wilson County,TX
2,78130,78130,Comal County,TX
3,78132,78132,Comal County,TX
1,78133,78133,Comal County,TX
1,78150,78150,Bexar County,TX
1,78155,78155,Guadalupe County,TX
1,78203,78203,Bexar County,TX
1,78204,78204,Bexar County,TX
1,78209,78209,Bexar County,TX
3,78211,78211,Bexar County,TX
1,78212,78212,Bexar County,TX
2,78216,78216,Bexar County,TX
1,78217,78217,Bexar County,TX
1,78218,78218,Bexar County,TX
1,78220-4743,78220,Bexar County,TX
2,78221,78221,Bexar County,TX
1,78224,78224,Bexar County,TX
1,78227,78227,Bexar County,TX
1,78238,78238,Bexar County,TX
1,78239,78239,Bexar County,TX
1,78240,78240,Bexar County,TX
1,78245,78245,Bexar County,TX
1,78249,78249,Bexar County,TX
3,78251,78251,Bexar County,TX
1,78253,78253,Bexar County,TX
1,78258,78258,Bexar County,TX
1,78288,78288,#N/A,#N/A
2,78332,78332,Jim Wells County,TX
1,78336,78336,San Patricio County,TX
1,78355,78355,Brooks County,TX
1,78362,78362,San Patricio County,TX
1,78362-4200,78362,San Patricio County,TX
5,78363,78363,Kleberg County,TX
1,78373,78373,Nueces County,TX
1,78374,78374,San Patricio County,TX
2,78382,78382,Aransas County,TX
2,78410,78410,Nueces County,TX
1,78414,78414,Nueces County,TX
1,78415,78415,Nueces County,TX
1,78418,78418,Nueces County,TX
2,78501,78501,Hidalgo County,TX
2,78504,78504,Hidalgo County,TX
3,78516,78516,Hidalgo County,TX
1,7852,7852,Morris County,NJ
2,78520,78520,Cameron County,TX
1,78521,78521,Cameron County,TX
3,78526,78526,Cameron County,TX
3,78539,78539,Hidalgo County,TX
1,78541,78541,Hidalgo County,TX
10,78550,78550,Cameron County,TX
1,78552,78552,Cameron County,TX
1,78557,78557,Hidalgo County,TX
1,78570,78570,Hidalgo County,TX
4,78572,78572,Hidalgo County,TX
2,78578,78578,Cameron County,TX
2,78580,78580,Willacy County,TX
4,78582,78582,Starr County,TX
3,78584,78584,Starr County,TX
1,78584-8073,78584,Starr County,TX
1,78586,78586,Cameron County,TX
1,78596,78596,Hidalgo County,TX
2,78597,78597,Cameron County,TX
1,78602,78602,Bastrop County,TX
6,78610,78610,Hays County,TX
1,78611,78611,Burnet County,TX
1,78613,78613,Williamson County,TX
1,78620,78620,Hays County,TX
1,78621,78621,Bastrop County,TX
1,78639,78639,Llano County,TX
2,78640,78640,Hays County,TX
1,78643,78643,Llano County,TX
1,78660,78660,Travis County,TX
1,78664,78664,Williamson County,TX
3,78666,78666,Hays County,TX
2,78681,78681,Williamson County,TX
3,78701,78701,Travis County,TX
1,78702,78702,Travis County,TX
2,78705,78705,Travis County,TX
1,7871,7871,Sussex County,NJ
2,78726,78726,Travis County,TX
2,78729,78729,Williamson County,TX
1,78737,78737,Hays County,TX
1,78738,78738,Travis County,TX
2,78741,78741,Travis County,TX
1,78744,78744,Travis County,TX
2,78745,78745,Travis County,TX
1,78746,78746,Travis County,TX
5,78748,78748,Travis County,TX
1,78749,78749,Travis County,TX
2,78750,78750,Travis County,TX
1,78752,78752,Travis County,TX
1,78753,78753,Travis County,TX
1,78757,78757,Travis County,TX
1,78758,78758,Travis County,TX
2,78801,78801,Uvalde County,TX
1,78840,78840,Val Verde County,TX
1,78934,78934,Colorado County,TX
1,78945,78945,Fayette County,TX
1,79022,79022,Dallam County,TX
1,79102,79102,Potter County,TX
2,79106,79106,Potter County,TX
1,79109,79109,Randall County,TX
1,79118,79118,Randall County,TX
1,79121,79121,Randall County,TX
2,79201,79201,Childress County,TX
1,7927,7927,Morris County,NJ
2,79316,79316,Terry County,TX
1,79382,79382,Lubbock County,TX
1,79401,79401,Lubbock County,TX
1,79414,79414,Lubbock County,TX
1,79415,79415,Lubbock County,TX
1,79423,79423,Lubbock County,TX
2,79424,79424,Lubbock County,TX
2,79549,79549,Scurry County,TX
1,79601,79601,Taylor County,TX
1,79606,79606,Taylor County,TX
1,79701,79701,Midland County,TX
1,79707,79707,Midland County,TX
1,79720,79720,Howard County,TX
2,79735,79735,Pecos County,TX
1,79762,79762,Ector County,TX
1,79763,79763,Ector County,TX
1,79830,79830,Brewster County,TX
1,79901,79901,El Paso County,TX
1,79902,79902,El Paso County,TX
1,79903,79903,El Paso County,TX
1,79905,79905,El Paso County,TX
1,79912,79912,El Paso County,TX
1,79915,79915,El Paso County,TX
1,79925,79925,El Paso County,TX
1,79930,79930,El Paso County,TX
1,79932,79932,El Paso County,TX
1,79935,79935,El Paso County,TX
1,79936,79936,El Paso County,TX
2,80002,80002,Jefferson County,CO
5,80003,80003,Jefferson County,CO
5,80011,80011,Arapahoe County,CO
2,80012,80012,Arapahoe County,CO
2,80013,80013,Arapahoe County,CO
3,80014,80014,Arapahoe County,CO
3,80015,80015,Arapahoe County,CO
2,80016,80016,Arapahoe County,CO
3,8002,8002,Camden County,NJ
1,80026,80026,Boulder County,CO
1,80031,80031,Adams County,CO
1,80033,80033,Jefferson County,CO
1,8005,8005,Ocean County,NJ
1,8008,8008,Ocean County,NJ
1,80104,80104,Douglas County,CO
2,80108,80108,Douglas County,CO
1,80109,80109,Douglas County,CO
2,80110,80110,Arapahoe County,CO
4,80112,80112,Arapahoe County,CO
2,80122,80122,Arapahoe County,CO
4,80123,80123,Jefferson County,CO
2,80127,80127,Jefferson County,CO
1,80128,80128,Jefferson County,CO
1,80129,80129,Douglas County,CO
1,80130,80130,Douglas County,CO
1,80134,80134,Douglas County,CO
1,8016,8016,Burlington County,NJ
1,80202,80202,Denver County,CO
3,80204,80204,Denver County,CO
2,80210,80210,Denver County,CO
1,80211,80211,Denver County,CO
4,80214,80214,Jefferson County,CO
4,80215,80215,Jefferson County,CO
1,80216,80216,Denver County,CO
1,80219,80219,Denver County,CO
3,80220,80220,Denver County,CO
3,80221,80221,Adams County,CO
2,80222,80222,Denver County,CO
1,80223,80223,Denver County,CO
1,80224,80224,Denver County,CO
3,80226,80226,Jefferson County,CO
1,80227,80227,Jefferson County,CO
3,80229,80229,Adams County,CO
1,80230,80230,Denver County,CO
1,80231,80231,Denver County,CO
6,80233,80233,Adams County,CO
3,80234,80234,Adams County,CO
3,80239,80239,Denver County,CO
1,80246,80246,Denver County,CO
2,80260,80260,Adams County,CO
1,8027,8027,Gloucester County,NJ
1,8028,8028,Gloucester County,NJ
2,80401,80401,Jefferson County,CO
1,8043,8043,Camden County,NJ
1,8045,8045,Camden County,NJ
4,8046,8046,Burlington County,NJ
4,80501,80501,Boulder County,CO
1,80504,80504,Boulder County,CO
1,80514,80514,Weld County,CO
2,80521,80521,Larimer County,CO
1,80524,80524,Larimer County,CO
3,80525,80525,Larimer County,CO
2,8053,8053,Burlington County,NJ
1,80537,80537,Larimer County,CO
1,80549,80549,Larimer County,CO
1,8055,8055,Burlington County,NJ
1,80550,80550,Weld County,CO
3,8060,8060,Burlington County,NJ
1,80601,80601,Adams County,CO
1,80615,80615,Weld County,CO
1,80620,80620,Weld County,CO
2,80634,80634,Weld County,CO
1,8068,8068,Burlington County,NJ
1,8069,8069,Salem County,NJ
2,8070,8070,Salem County,NJ
1,80751,80751,Logan County,CO
1,80817,80817,El Paso County,CO
1,80828,80828,Lincoln County,CO
2,80863,80863,Teller County,CO
2,80903,80903,El Paso County,CO
4,80905,80905,El Paso County,CO
1,80906,80906,El Paso County,CO
1,80907,80907,El Paso County,CO
1,80909,80909,El Paso County,CO
1,80910,80910,El Paso County,CO
1,80911,80911,El Paso County,CO
1,80913,80913,El Paso County,CO
2,80920,80920,El Paso County,CO
1,80922,80922,El Paso County,CO
2,8096,8096,Gloucester County,NJ
1,81004,81004,Pueblo County,CO
1,81005,81005,Pueblo County,CO
1,81052,81052,Prowers County,CO
1,81082,81082,Las Animas County,CO
1,8110,8110,Camden County,NJ
1,81101,81101,Alamosa County,CO
1,81144,81144,Rio Grande County,CO
1,81147,81147,Archuleta County,CO
1,81201,81201,Chaffee County,CO
1,81212,81212,Fremont County,CO
2,81230,81230,Gunnison County,CO
1,81501,81501,Mesa County,CO
1,81503,81503,Mesa County,CO
1,81506,81506,Mesa County,CO
1,81601,81601,Garfield County,CO
1,81625,81625,Moffat County,CO
1,81631,81631,Eagle County,CO
1,81635,81635,Garfield County,CO
2,81650,81650,Garfield County,CO
1,81657,81657,Eagle County,CO
1,82001,82001,Laramie County,WY
1,82007,82007,Laramie County,WY
3,82009,82009,Laramie County,WY
1,8204,8204,Cape May County,NJ
8,82070,82070,Albany County,WY
1,82072,82072,Albany County,WY
1,8215,8215,Atlantic County,NJ
2,82201,82201,Platte County,WY
1,8226,8226,Cape May County,NJ
4,82301,82301,Carbon County,WY
1,8234,8234,Atlantic County,NJ
2,82414,82414,Park County,WY
1,8242,8242,Cape May County,NJ
3,82435,82435,Park County,WY
1,8244,8244,Atlantic County,NJ
1,8260,8260,Cape May County,NJ
1,82601,82601,Natrona County,WY
1,82604,82604,Natrona County,WY
2,82609,82609,Natrona County,WY
1,82716,82716,Campbell County,WY
3,82801,82801,Sheridan County,WY
2,82901,82901,Sweetwater County,WY
2,82930,82930,Uinta County,WY
4,83001,83001,Teton County,WY
1,8302,8302,Cumberland County,NJ
11,83201,83201,Bannock County,ID
1,83201-4959,83201,Bannock County,ID
4,83202,83202,Bannock County,ID
1,83204,83204,Bannock County,ID
5,83221,83221,Bingham County,ID
1,83252,83252,Oneida County,ID
9,83301,83301,Twin Falls County,ID
3,8332,8332,Cumberland County,NJ
1,83336,83336,Minidoka County,ID
2,83401,83401,Bonneville County,ID
1,83402,83402,Bonneville County,ID
1,83402-3356,83402,Bonneville County,ID
3,83404,83404,Bonneville County,ID
9,83440,83440,Madison County,ID
1,83442,83442,Jefferson County,ID
1,83501,83501,Nez Perce County,ID
1,8360,8360,Cumberland County,NJ
7,83605,83605,Canyon County,ID
1,83617,83617,Gem County,ID
7,83642,83642,Ada County,ID
7,83647,83647,Elmore County,ID
2,83651,83651,Canyon County,ID
1,83661,83661,Payette County,ID
2,83686,83686,Canyon County,ID
2,83687,83687,Canyon County,ID
2,83704,83704,Ada County,ID
4,83705,83705,Ada County,ID
1,83706,83706,Ada County,ID
2,83709,83709,Ada County,ID
2,83714,83714,Ada County,ID
2,83814,83814,Kootenai County,ID
3,83815,83815,Kootenai County,ID
1,83835,83835,Kootenai County,ID
1,83843,83843,Latah County,ID
1,83854,83854,Kootenai County,ID
1,84005,84005,Utah County,UT
1,84009,84009,#N/A,#N/A
5,8401,8401,Atlantic County,NJ
6,84010,84010,Davis County,UT
1,84014,84014,Davis County,UT
6,84015,84015,Davis County,UT
4,84020,84020,Salt Lake County,UT
1,84025,84025,Davis County,UT
2,84032,84032,Wasatch County,UT
1,84037,84037,Davis County,UT
3,84041,84041,Davis County,UT
1,84044,84044,Salt Lake County,UT
1,84045,84045,Utah County,UT
2,84047,84047,Salt Lake County,UT
1,84047-7363,84047,Salt Lake County,UT
1,84054,84054,Davis County,UT
1,84056,84056,Davis County,UT
2,84057,84057,Utah County,UT
1,84062,84062,Utah County,UT
2,84066,84066,Duchesne County,UT
7,84070,84070,Salt Lake County,UT
1,84074,84074,Tooele County,UT
1,84075,84075,Davis County,UT
1,84078,84078,Uintah County,UT
2,84081,84081,Salt Lake County,UT
2,84084,84084,Salt Lake County,UT
1,84087,84087,Davis County,UT
1,84088,84088,Salt Lake County,UT
1,84093,84093,Salt Lake County,UT
1,84094,84094,Salt Lake County,UT
1,84096,84096,Salt Lake County,UT
1,84097,84097,Utah County,UT
1,84098,84098,Summit County,UT
1,84101,84101,Salt Lake County,UT
1,84104,84104,Salt Lake County,UT
1,84108,84108,Salt Lake County,UT
1,84111,84111,Salt Lake County,UT
1,84115,84115,Salt Lake County,UT
2,84116,84116,Salt Lake County,UT
1,84117,84117,Salt Lake County,UT
2,84118,84118,Salt Lake County,UT
3,84119,84119,Salt Lake County,UT
2,84120,84120,Salt Lake County,UT
4,84123,84123,Salt Lake County,UT
1,84124,84124,Salt Lake County,UT
1,84129,84129,#N/A,#N/A
7,84302,84302,Box Elder County,UT
4,84321,84321,Cache County,UT
1,84335,84335,Cache County,UT
2,84337,84337,Box Elder County,UT
2,84341,84341,Cache County,UT
3,84401,84401,Weber County,UT
9,84403,84403,Weber County,UT
7,84404,84404,Weber County,UT
7,84405,84405,Weber County,UT
2,84501,84501,Carbon County,UT
1,84532,84532,Grand County,UT
1,84602,84602,#N/A,#N/A
1,84604,84604,Utah County,UT
1,84606,84606,Utah County,UT
1,84627,84627,Sanpete County,UT
2,84651,84651,Utah County,UT
1,84653,84653,Utah County,UT
3,84660,84660,Utah County,UT
1,84663,84663,Utah County,UT
1,84664,84664,Utah County,UT
4,84720,84720,Iron County,UT
1,84721,84721,Iron County,UT
1,84737,84737,Washington County,UT
2,84741,84741,Kane County,UT
8,84770,84770,Washington County,UT
2,84780,84780,Washington County,UT
4,84790,84790,Washington County,UT
1,85006,85006,Maricopa County,AZ
2,85013,85013,Maricopa County,AZ
1,85015,85015,Maricopa County,AZ
1,85016,85016,Maricopa County,AZ
2,85017,85017,Maricopa County,AZ
5,85018,85018,Maricopa County,AZ
1,85020,85020,Maricopa County,AZ
1,85021,85021,Maricopa County,AZ
1,85023,85023,Maricopa County,AZ
1,85027,85027,Maricopa County,AZ
2,85029,85029,Maricopa County,AZ
1,85032,85032,Maricopa County,AZ
1,85033,85033,Maricopa County,AZ
1,85034,85034,Maricopa County,AZ
1,85035,85035,Maricopa County,AZ
2,85037,85037,Maricopa County,AZ
2,85040,85040,Maricopa County,AZ
1,85041,85041,Maricopa County,AZ
1,85042,85042,Maricopa County,AZ
1,85043,85043,Maricopa County,AZ
3,85044,85044,Maricopa County,AZ
2,85048,85048,Maricopa County,AZ
1,8505,8505,Burlington County,NJ
1,85050,85050,Maricopa County,AZ
2,85051,85051,Maricopa County,AZ
1,85053,85053,Maricopa County,AZ
1,85073,85073,#N/A,#N/A
2,85085,85085,Maricopa County,AZ
1,85086,85086,Maricopa County,AZ
1,85122,85122,Pinal County,AZ
1,85128,85128,Pinal County,AZ
2,85131,85131,Pinal County,AZ
1,8514,8514,Monmouth County,NJ
4,85142,85142,Maricopa County,AZ
1,85143,85143,Pinal County,AZ
3,85201,85201,Maricopa County,AZ
2,85202,85202,Maricopa County,AZ
2,85204,85204,Maricopa County,AZ
2,85205,85205,Maricopa County,AZ
3,85206,85206,Maricopa County,AZ
1,85209,85209,Maricopa County,AZ
1,85212,85212,Maricopa County,AZ
3,85215,85215,Maricopa County,AZ
2,85224,85224,Maricopa County,AZ
2,85225,85225,Maricopa County,AZ
1,85226,85226,Maricopa County,AZ
1,85234,85234,Maricopa County,AZ
1,85239,85239,#N/A,#N/A
1,85242,85242,#N/A,#N/A
2,85248,85248,Maricopa County,AZ
1,85250,85250,Maricopa County,AZ
4,85251,85251,Maricopa County,AZ
1,85255,85255,Maricopa County,AZ
1,85257,85257,Maricopa County,AZ
2,85260,85260,Maricopa County,AZ
1,8527,8527,Ocean County,NJ
1,85281,85281,Maricopa County,AZ
5,85282,85282,Maricopa County,AZ
2,85283,85283,Maricopa County,AZ
3,85284,85284,Maricopa County,AZ
4,85286,85286,Maricopa County,AZ
3,85295,85295,Maricopa County,AZ
1,85296,85296,Maricopa County,AZ
1,85297,85297,Maricopa County,AZ
2,85298,85298,Maricopa County,AZ
3,85301,85301,Maricopa County,AZ
1,85302,85302,Maricopa County,AZ
1,85303,85303,Maricopa County,AZ
1,85304,85304,Maricopa County,AZ
2,85305,85305,Maricopa County,AZ
2,85307,85307,Maricopa County,AZ
1,85308,85308,Maricopa County,AZ
5,85326,85326,Maricopa County,AZ
1,85331,85331,Maricopa County,AZ
1,85335,85335,Maricopa County,AZ
1,85340,85340,Maricopa County,AZ
2,85344,85344,La Paz County,AZ
3,85351,85351,Maricopa County,AZ
4,85364,85364,Yuma County,AZ
5,85365,85365,Yuma County,AZ
3,85374,85374,Maricopa County,AZ
1,85379,85379,Maricopa County,AZ
1,85381,85381,Maricopa County,AZ
2,85382,85382,Maricopa County,AZ
1,85383,85383,Maricopa County,AZ
2,85390,85390,Maricopa County,AZ
2,85392,85392,Maricopa County,AZ
2,85395,85395,Maricopa County,AZ
1,8540,8540,Mercer County,NJ
1,85546,85546,Graham County,AZ
3,85602,85602,Cochise County,AZ
3,85607,85607,Cochise County,AZ
1,8562,8562,Burlington County,NJ
1,85621,85621,Santa Cruz County,AZ
1,85629,85629,Pima County,AZ
1,85635,85635,Cochise County,AZ
1,85643,85643,Cochise County,AZ
1,85653,85653,Pima County,AZ
1,85704,85704,Pima County,AZ
1,85705,85705,Pima County,AZ
1,85706,85706,Pima County,AZ
2,85710,85710,Pima County,AZ
2,85714,85714,Pima County,AZ
2,85715,85715,Pima County,AZ
3,85719,85719,Pima County,AZ
1,85730,85730,Pima County,AZ
1,85739,85739,Pinal County,AZ
1,86001,86001,Coconino County,AZ
1,86004,86004,Coconino County,AZ
2,86025,86025,Navajo County,AZ
1,86038,86038,Coconino County,AZ
3,86040,86040,Coconino County,AZ
2,86045,86045,Coconino County,AZ
1,86046,86046,Coconino County,AZ
3,86047,86047,Navajo County,AZ
1,86303,86303,Yavapai County,AZ
1,86314,86314,Yavapai County,AZ
1,86322,86322,Yavapai County,AZ
2,8638,8638,Mercer County,NJ
1,8640,8640,Burlington County,NJ
6,86401,86401,Mohave County,AZ
1,86409,86409,Mohave County,AZ
2,86442,86442,Mohave County,AZ
1,8691,8691,Mercer County,NJ
3,87002,87002,Valencia County,NM
1,87015,87015,Santa Fe County,NM
3,87020,87020,Cibola County,NM
5,87031,87031,Valencia County,NM
1,87035,87035,Torrance County,NM
1,87068,87068,Valencia County,NM
2,87105,87105,Bernalillo County,NM
2,87106,87106,Bernalillo County,NM
3,87107,87107,Bernalillo County,NM
3,87108,87108,Bernalillo County,NM
5,87109,87109,Bernalillo County,NM
2,87110,87110,Bernalillo County,NM
1,87111,87111,Bernalillo County,NM
2,87112,87112,Bernalillo County,NM
1,87113,87113,Bernalillo County,NM
4,87114,87114,Bernalillo County,NM
3,87120,87120,Bernalillo County,NM
2,87121,87121,Bernalillo County,NM
2,87122,87122,Bernalillo County,NM
3,87123,87123,Bernalillo County,NM
2,87124,87124,Sandoval County,NM
2,87144,87144,Sandoval County,NM
2,8724,8724,Ocean County,NJ
10,87301,87301,McKinley County,NM
1,8733,8733,Ocean County,NJ
4,8736,8736,Monmouth County,NJ
3,87401,87401,San Juan County,NM
1,87402,87402,San Juan County,NM
3,87413,87413,San Juan County,NM
5,8742,8742,Ocean County,NJ
3,87505,87505,Santa Fe County,NM
1,87506,87506,Santa Fe County,NM
1,87507,87507,Santa Fe County,NM
1,8751,8751,Ocean County,NJ
10,8753,8753,Ocean County,NJ
6,87532,87532,Santa Fe County,NM
1,87544,87544,Los Alamos County,NM
2,8755,8755,Ocean County,NJ
3,87571,87571,Taos County,NM
7,87701,87701,San Miguel County,NM
1,87740,87740,Colfax County,NM
5,87801,87801,Socorro County,NM
2,87901,87901,Sierra County,NM
4,88001,88001,Doa Ana County,NM
1,88011,88011,Doa Ana County,NM
3,88030,88030,Luna County,NM
1,8804,8804,Hunterdon County,NJ
7,88061,88061,Grant County,NM
1,88101,88101,Curry County,NM
1,8817,8817,Middlesex County,NJ
9,88201,88201,Chaves County,NM
1,88203,88203,Chaves County,NM
1,88210,88210,Eddy County,NM
1,8822,8822,Hunterdon County,NJ
7,88220,88220,Eddy County,NM
3,88240,88240,Lea County,NM
1,88260,88260,Lea County,NM
1,8831,8831,Middlesex County,NJ
2,88310,88310,Otero County,NM
1,88330,88330,Otero County,NM
4,88345,88345,Lincoln County,NM
1,8837,8837,Middlesex County,NJ
3,88401,88401,Quay County,NM
1,88415,88415,Union County,NM
1,8844,8844,Somerset County,NJ
1,8854,8854,Middlesex County,NJ
1,8857,8857,Middlesex County,NJ
1,8865,8865,Warren County,NJ
1,8873,8873,Somerset County,NJ
2,8901,8901,Middlesex County,NJ
2,89014,89014,Clark County,NV
4,89015,89015,Clark County,NV
4,8902,8902,Middlesex County,NJ
1,89027,89027,Clark County,NV
3,89030,89030,Clark County,NV
1,89031,89031,Clark County,NV
1,89032,89032,Clark County,NV
6,89048,89048,Nye County,NV
3,89052,89052,Clark County,NV
3,89074,89074,Clark County,NV
2,89102,89102,Clark County,NV
6,89103,89103,Clark County,NV
2,89104,89104,Clark County,NV
1,89107,89107,Clark County,NV
2,89108,89108,Clark County,NV
5,89109,89109,Clark County,NV
1,89113,89113,Clark County,NV
3,89117,89117,Clark County,NV
2,89118,89118,Clark County,NV
10,89119,89119,Clark County,NV
2,89120,89120,Clark County,NV
1,89121,89121,Clark County,NV
1,89123,89123,Clark County,NV
7,89128,89128,Clark County,NV
1,89129,89129,Clark County,NV
1,89130,89130,Clark County,NV
1,89139,89139,Clark County,NV
1,89141,89141,Clark County,NV
3,89145,89145,Clark County,NV
5,89146,89146,Clark County,NV
2,89147,89147,Clark County,NV
4,89149,89149,Clark County,NV
1,89154,89154,#N/A,#N/A
1,89169,89169,Clark County,NV
6,89406,89406,Churchill County,NV
1,89410,89410,Douglas County,NV
1,89423,89423,Douglas County,NV
2,89431,89431,Washoe County,NV
1,89434,89434,Washoe County,NV
4,89445,89445,Humboldt County,NV
6,89502,89502,Washoe County,NV
1,89502-1514,89502,Washoe County,NV
1,89506,89506,Washoe County,NV
1,89509,89509,Washoe County,NV
2,89511,89511,Washoe County,NV
3,89512,89512,Washoe County,NV
2,89523,89523,Washoe County,NV
5,89701,89701,Carson City,NV
10,89801,89801,Elko County,NV
1,90002,90002,Los Angeles County,CA
3,90006,90006,Los Angeles County,CA
2,90007,90007,Los Angeles County,CA
1,90008,90008,Los Angeles County,CA
1,90011,90011,Los Angeles County,CA
1,90012,90012,Los Angeles County,CA
1,90014,90014,Los Angeles County,CA
1,90017,90017,Los Angeles County,CA
2,90027,90027,Los Angeles County,CA
1,90028,90028,Los Angeles County,CA
1,90029,90029,Los Angeles County,CA
1,90031,90031,Los Angeles County,CA
1,90035,90035,Los Angeles County,CA
2,90037,90037,Los Angeles County,CA
2,90042,90042,Los Angeles County,CA
1,90045,90045,Los Angeles County,CA
1,90047,90047,Los Angeles County,CA
1,90049,90049,Los Angeles County,CA
1,90056,90056,Los Angeles County,CA
2,90057,90057,Los Angeles County,CA
2,90059,90059,Los Angeles County,CA
1,90062,90062,Los Angeles County,CA
1,90063,90063,Los Angeles County,CA
1,90065,90065,Los Angeles County,CA
1,90066,90066,Los Angeles County,CA
2,90201,90201,Los Angeles County,CA
3,90220,90220,Los Angeles County,CA
1,90230,90230,Los Angeles County,CA
1,90232,90232,Los Angeles County,CA
1,90241,90241,Los Angeles County,CA
1,90247,90247,Los Angeles County,CA
2,90248,90248,Los Angeles County,CA
3,90249,90249,Los Angeles County,CA
1,90250,90250,Los Angeles County,CA
2,90255,90255,Los Angeles County,CA
3,90275,90275,Los Angeles County,CA
2,90302,90302,Los Angeles County,CA
3,90303,90303,Los Angeles County,CA
2,90304,90304,Los Angeles County,CA
1,90401,90401,Los Angeles County,CA
2,90501,90501,Los Angeles County,CA
1,90502,90502,Los Angeles County,CA
2,90504,90504,Los Angeles County,CA
2,90505,90505,Los Angeles County,CA
1,90602,90602,Los Angeles County,CA
2,90603,90603,Los Angeles County,CA
2,90605,90605,Los Angeles County,CA
2,90606,90606,Los Angeles County,CA
1,90620,90620,Orange County,CA
2,90630,90630,Orange County,CA
5,90631,90631,Orange County,CA
1,90638,90638,Los Angeles County,CA
1,90640,90640,Los Angeles County,CA
1,90650,90650,Los Angeles County,CA
2,90670,90670,Los Angeles County,CA
1,90701,90701,Los Angeles County,CA
1,90703,90703,Los Angeles County,CA
5,90712,90712,Los Angeles County,CA
1,90713,90713,Los Angeles County,CA
1,90731,90731,Los Angeles County,CA
1,90732,90732,Los Angeles County,CA
1,90744,90744,Los Angeles County,CA
1,90745,90745,Los Angeles County,CA
1,90746,90746,Los Angeles County,CA
2,90804,90804,Los Angeles County,CA
5,90805,90805,Los Angeles County,CA
1,90806,90806,Los Angeles County,CA
2,90808,90808,Los Angeles County,CA
1,90810,90810,Los Angeles County,CA
1,90815,90815,Los Angeles County,CA
1,91001,91001,Los Angeles County,CA
1,91006,91006,Los Angeles County,CA
1,91020,91020,Los Angeles County,CA
2,91104,91104,Los Angeles County,CA
1,91105,91105,Los Angeles County,CA
1,91201,91201,Los Angeles County,CA
1,91204,91204,Los Angeles County,CA
1,91205,91205,Los Angeles County,CA
3,91301,91301,Los Angeles County,CA
1,91302,91302,Los Angeles County,CA
2,91304,91304,Los Angeles County,CA
1,91320,91320,Ventura County,CA
2,91321,91321,Los Angeles County,CA
1,91324,91324,Los Angeles County,CA
1,91325,91325,Los Angeles County,CA
2,91331,91331,Los Angeles County,CA
3,91342,91342,Los Angeles County,CA
1,91343,91343,Los Angeles County,CA
2,91350,91350,Los Angeles County,CA
1,91351,91351,Los Angeles County,CA
3,91355,91355,Los Angeles County,CA
1,91360,91360,Ventura County,CA
1,91362,91362,Ventura County,CA
1,91367,91367,Los Angeles County,CA
1,91381,91381,Los Angeles County,CA
2,91405,91405,Los Angeles County,CA
1,91406,91406,Los Angeles County,CA
2,91502,91502,Los Angeles County,CA
1,91504,91504,Los Angeles County,CA
1,91602,91602,Los Angeles County,CA
1,91606,91606,Los Angeles County,CA
1,91608,91608,Los Angeles County,CA
1,91702,91702,Los Angeles County,CA
2,91706,91706,Los Angeles County,CA
4,91710,91710,San Bernardino County,CA
3,91730,91730,San Bernardino County,CA
1,91731,91731,Los Angeles County,CA
2,91733,91733,Los Angeles County,CA
1,91737,91737,San Bernardino County,CA
2,91741,91741,Los Angeles County,CA
1,91744,91744,Los Angeles County,CA
1,91746,91746,Los Angeles County,CA
1,91748,91748,Los Angeles County,CA
2,91750,91750,Los Angeles County,CA
1,91752,91752,Riverside County,CA
2,91761,91761,San Bernardino County,CA
1,91762,91762,San Bernardino County,CA
2,91766,91766,Los Angeles County,CA
3,91767,91767,Los Angeles County,CA
1,91776,91776,Los Angeles County,CA
1,91786,91786,San Bernardino County,CA
2,91789,91789,Los Angeles County,CA
1,91791,91791,Los Angeles County,CA
2,91792,91792,Los Angeles County,CA
1,91801,91801,Los Angeles County,CA
1,91910,91910,San Diego County,CA
1,91911,91911,San Diego County,CA
1,91915,91915,San Diego County,CA
1,91932,91932,San Diego County,CA
3,91942,91942,San Diego County,CA
1,91945,91945,San Diego County,CA
2,91950,91950,San Diego County,CA
1,92011,92011,San Diego County,CA
1,92014,92014,San Diego County,CA
4,92020,92020,San Diego County,CA
2,92021,92021,San Diego County,CA
1,92026,92026,San Diego County,CA
1,92028,92028,San Diego County,CA
1,92036,92036,San Diego County,CA
1,92054,92054,San Diego County,CA
1,92055,92055,San Diego County,CA
2,92056,92056,San Diego County,CA
1,92071,92071,San Diego County,CA
1,92078,92078,San Diego County,CA
1,92081,92081,San Diego County,CA
3,92083,92083,San Diego County,CA
2,92102,92102,San Diego County,CA
1,92104,92104,San Diego County,CA
1,92105,92105,San Diego County,CA
1,92108,92108,San Diego County,CA
1,92109,92109,San Diego County,CA
1,92110,92110,San Diego County,CA
1,92111,92111,San Diego County,CA
1,92113,92113,San Diego County,CA
1,92117,92117,San Diego County,CA
1,92118,92118,San Diego County,CA
2,92120,92120,San Diego County,CA
1,92121,92121,San Diego County,CA
2,92123,92123,San Diego County,CA
1,92126,92126,San Diego County,CA
1,92128,92128,San Diego County,CA
1,92131,92131,San Diego County,CA
1,92136,92136,#N/A,#N/A
1,92154,92154,San Diego County,CA
1,92173,92173,San Diego County,CA
3,92203,92203,Riverside County,CA
1,92211,92211,Riverside County,CA
2,92220,92220,Riverside County,CA
2,92223,92223,Riverside County,CA
3,92234,92234,Riverside County,CA
2,92236,92236,Riverside County,CA
1,92243,92243,Imperial County,CA
1,92253,92253,Riverside County,CA
6,92262,92262,Riverside County,CA
1,92307,92307,San Bernardino County,CA
2,92309,92309,San Bernardino County,CA
1,92311,92311,San Bernardino County,CA
2,92325,92325,San Bernardino County,CA
1,92336,92336,San Bernardino County,CA
1,92345,92345,San Bernardino County,CA
2,92346,92346,San Bernardino County,CA
1,92363,92363,San Bernardino County,CA
6,92373,92373,San Bernardino County,CA
2,92376,92376,San Bernardino County,CA
1,92395,92395,San Bernardino County,CA
1,92399,92399,San Bernardino County,CA
2,92404,92404,San Bernardino County,CA
3,92407,92407,San Bernardino County,CA
1,92408,92408,San Bernardino County,CA
1,92501,92501,Riverside County,CA
1,92503,92503,Riverside County,CA
1,92504,92504,Riverside County,CA
1,92507,92507,Riverside County,CA
1,92508,92508,Riverside County,CA
1,92530-2754,92530,Riverside County,CA
1,92545,92545,Riverside County,CA
1,92551,92551,Riverside County,CA
2,92553,92553,Riverside County,CA
1,92553-7512,92553,Riverside County,CA
1,92557,92557,Riverside County,CA
1,92562,92562,Riverside County,CA
1,92571,92571,Riverside County,CA
1,92590,92590,Riverside County,CA
1,92606,92606,Orange County,CA
1,92610,92610,Orange County,CA
1,92612,92612,Orange County,CA
1,92618,92618,Orange County,CA
3,92626,92626,Orange County,CA
1,92627,92627,Orange County,CA
2,92630,92630,Orange County,CA
1,92647,92647,Orange County,CA
2,92648,92648,Orange County,CA
4,92660,92660,Orange County,CA
2,92663,92663,Orange County,CA
1,92673,92673,Orange County,CA
1,92675,92675,Orange County,CA
1,92677,92677,Orange County,CA
3,92683,92683,Orange County,CA
1,92688,92688,Orange County,CA
1,92691,92691,Orange County,CA
3,92704,92704,Orange County,CA
6,92705,92705,Orange County,CA
2,92780,92780,Orange County,CA
5,92801,92801,Orange County,CA
1,92802,92802,Orange County,CA
3,92804,92804,Orange County,CA
2,92805,92805,Orange County,CA
1,92806,92806,Orange County,CA
1,92807,92807,Orange County,CA
1,92831,92831,Orange County,CA
2,92833,92833,Orange County,CA
1,92841,92841,Orange County,CA
1,92860,92860,Riverside County,CA
1,92866,92866,Orange County,CA
1,92868,92868,Orange County,CA
2,92869,92869,Orange County,CA
2,92870,92870,Orange County,CA
1,92879,92879,Riverside County,CA
1,92881,92881,Riverside County,CA
3,92886,92886,Orange County,CA
1,93001,93001,Ventura County,CA
1,93003,93003,Ventura County,CA
1,93030,93030,Ventura County,CA
1,93033,93033,Ventura County,CA
1,93060-3327,93060,Ventura County,CA
1,93109,93109,Santa Barbara County,CA
1,93117,93117,Santa Barbara County,CA
1,93203,93203,Kern County,CA
2,93239,93239,Kings County,CA
1,93243,93243,Kern County,CA
1,93245,93245,Kings County,CA
2,93247,93247,Tulare County,CA
1,93257,93257,Tulare County,CA
1,93263-2741,93263,Kern County,CA
1,93280,93280,Kern County,CA
1,93292,93292,Tulare County,CA
1,93307,93307,Kern County,CA
1,93308,93308,Kern County,CA
3,93309,93309,Kern County,CA
1,93314,93314,Kern County,CA
2,93405,93405,San Luis Obispo County,CA
1,93420,93420,San Luis Obispo County,CA
1,93422,93422,San Luis Obispo County,CA
1,93427,93427,Santa Barbara County,CA
2,93436,93436,Santa Barbara County,CA
1,93437,93437,Santa Barbara County,CA
8,93446,93446,San Luis Obispo County,CA
9,93454,93454,Santa Barbara County,CA
1,93514,93514,Inyo County,CA
5,93534,93534,Los Angeles County,CA
3,93535,93535,Los Angeles County,CA
4,93536,93536,Los Angeles County,CA
1,93546,93546,Mono County,CA
2,93550,93550,Los Angeles County,CA
5,93551,93551,Los Angeles County,CA
1,93552,93552,Los Angeles County,CA
6,93555,93555,Kern County,CA
1,93560,93560,Kern County,CA
1,93560-7745,93560,Kern County,CA
1,93611,93611,Fresno County,CA
2,93612,93612,Fresno County,CA
1,93618,93618,Tulare County,CA
1,93630,93630,Fresno County,CA
2,93635,93635,Merced County,CA
1,93637,93637,Madera County,CA
3,93657,93657,Fresno County,CA
1,93662,93662,Fresno County,CA
1,93703,93703,Fresno County,CA
2,93720,93720,Fresno County,CA
1,93726,93726,Fresno County,CA
1,93901,93901,Monterey County,CA
1,93907,93907,Monterey County,CA
2,93955,93955,Monterey County,CA
1,93960,93960,Monterey County,CA
1,93960-2975,93960,Monterey County,CA
1,94025,94025,San Mateo County,CA
1,94043,94043,Santa Clara County,CA
1,94044,94044,San Mateo County,CA
1,94061,94061,San Mateo County,CA
1,94080,94080,San Mateo County,CA
1,94085,94085,Santa Clara County,CA
1,94087,94087,Santa Clara County,CA
1,94102,94102,San Francisco County,CA
1,94117,94117,San Francisco County,CA
1,94124,94124,San Francisco County,CA
2,94304,94304,Santa Clara County,CA
1,94403,94403,San Mateo County,CA
2,94501,94501,Alameda County,CA
1,94513,94513,Contra Costa County,CA
1,94520,94520,Contra Costa County,CA
1,94526,94526,Contra Costa County,CA
2,94533,94533,Solano County,CA
2,94534,94534,Solano County,CA
2,94536,94536,Alameda County,CA
2,94538,94538,Alameda County,CA
3,94541,94541,Alameda County,CA
1,94544,94544,Alameda County,CA
2,94545,94545,Alameda County,CA
1,94549,94549,Contra Costa County,CA
1,94550,94550,Alameda County,CA
2,94551,94551,Alameda County,CA
2,94553,94553,Contra Costa County,CA
1,94556,94556,Contra Costa County,CA
1,94558,94558,Napa County,CA
2,94560,94560,Alameda County,CA
1,94565,94565,Contra Costa County,CA
1,94565-7115,94565,Contra Costa County,CA
1,94566,94566,Alameda County,CA
3,94577,94577,Alameda County,CA
1,94578,94578,Alameda County,CA
1,94583,94583,Contra Costa County,CA
2,94588,94588,Alameda County,CA
1,94601,94601,Alameda County,CA
1,94605,94605,Alameda County,CA
1,94611,94611,Alameda County,CA
1,94618,94618,Alameda County,CA
3,94621,94621,Alameda County,CA
1,94702,94702,Alameda County,CA
1,94703,94703,Alameda County,CA
1,94704,94704,Alameda County,CA
1,94801,94801,Contra Costa County,CA
2,94806,94806,Contra Costa County,CA
1,94925,94925,Marin County,CA
3,95008,95008,Santa Clara County,CA
1,95014,95014,Santa Clara County,CA
1,95020,95020,Santa Clara County,CA
2,95035,95035,Santa Clara County,CA
1,95050,95050,Santa Clara County,CA
2,95051,95051,Santa Clara County,CA
1,95060,95060,Santa Cruz County,CA
2,95076,95076,Santa Cruz County,CA
1,95110,95110,Santa Clara County,CA
3,95112,95112,Santa Clara County,CA
1,95113,95113,Santa Clara County,CA
1,95117,95117,Santa Clara County,CA
1,95118,95118,Santa Clara County,CA
2,95121,95121,Santa Clara County,CA
1,95123,95123,Santa Clara County,CA
1,95125,95125,Santa Clara County,CA
1,95126,95126,Santa Clara County,CA
1,95129,95129,Santa Clara County,CA
1,95136,95136,Santa Clara County,CA
1,95203,95203,San Joaquin County,CA
1,95206,95206,San Joaquin County,CA
2,95207,95207,San Joaquin County,CA
1,95209,95209,San Joaquin County,CA
1,95210,95210,San Joaquin County,CA
1,95212,95212,San Joaquin County,CA
1,95237,95237,San Joaquin County,CA
1,95242,95242,San Joaquin County,CA
1,95301,95301,Merced County,CA
1,95334,95334,Merced County,CA
1,95336,95336,San Joaquin County,CA
1,95336-5007,95336,San Joaquin County,CA
1,95337,95337,San Joaquin County,CA
2,95348,95348,Merced County,CA
1,95350,95350,Stanislaus County,CA
2,95351,95351,Stanislaus County,CA
2,95354,95354,Stanislaus County,CA
2,95355,95355,Stanislaus County,CA
2,95356,95356,Stanislaus County,CA
1,95357-0511,95357,Stanislaus County,CA
6,95363,95363,Stanislaus County,CA
1,95367,95367,Stanislaus County,CA
1,95370,95370,Tuolumne County,CA
1,95376,95376,San Joaquin County,CA
3,95380,95380,Stanislaus County,CA
2,95382,95382,Stanislaus County,CA
1,95403,95403,Sonoma County,CA
1,95405,95405,Sonoma County,CA
1,95458,95458,Lake County,CA
1,95472,95472,Sonoma County,CA
1,95476,95476,Sonoma County,CA
5,95603,95603,Placer County,CA
1,95610,95610,Sacramento County,CA
1,95630,95630,Sacramento County,CA
1,95648,95648,Placer County,CA
1,95650,95650,Placer County,CA
1,95661,95661,Placer County,CA
7,95667,95667,El Dorado County,CA
1,95670,95670,Sacramento County,CA
2,95678,95678,Placer County,CA
1,95678-1937,95678,Placer County,CA
1,95682,95682,El Dorado County,CA
2,95687,95687,Solano County,CA
1,95691,95691,Yolo County,CA
1,95713,95713,Placer County,CA
1,95747,95747,Placer County,CA
3,95776,95776,Yolo County,CA
1,95815,95815,Sacramento County,CA
2,95821,95821,Sacramento County,CA
1,95824,95824,Sacramento County,CA
1,95825,95825,Sacramento County,CA
1,95826,95826,Sacramento County,CA
1,95831,95831,Sacramento County,CA
1,95834,95834,Sacramento County,CA
2,95842,95842,Sacramento County,CA
1,95843,95843,Sacramento County,CA
5,95901,95901,Yuba County,CA
1,95928,95928,Butte County,CA
1,95945,95945,Nevada County,CA
1,95948,95948,Butte County,CA
3,95965,95965,Butte County,CA
1,95969,95969,Butte County,CA
1,95993,95993,Sutter County,CA
1,96002,96002,Shasta County,CA
2,96021,96021,Tehama County,CA
1,96130-4730,96130,Lassen County,CA
1,96707,96707,Honolulu County,HI
2,96720,96720,Hawaii County,HI
2,96732,96732,Maui County,HI
2,96734,96734,Honolulu County,HI
1,96740,96740,Hawaii County,HI
1,96744,96744,Honolulu County,HI
1,96746,96746,Kauai County,HI
1,96753,96753,Maui County,HI
2,96761,96761,Maui County,HI
1,96762,96762,Honolulu County,HI
2,96766,96766,Kauai County,HI
1,96782,96782,Honolulu County,HI
2,96789,96789,Honolulu County,HI
2,96797,96797,Honolulu County,HI
4,96814,96814,Honolulu County,HI
1,96815,96815,Honolulu County,HI
4,96816,96816,Honolulu County,HI
2,96817,96817,Honolulu County,HI
1,96818,96818,Honolulu County,HI
4,96819,96819,Honolulu County,HI
3,96826,96826,Honolulu County,HI
2,97003,97003,#N/A,#N/A
3,97005,97005,Washington County,OR
1,97013,97013,Clackamas County,OR
3,97030,97030,Multnomah County,OR
1,97031,97031,Hood River County,OR
1,97034,97034,Clackamas County,OR
1,97045,97045,Clackamas County,OR
1,97055,97055,Clackamas County,OR
1,97056,97056,Columbia County,OR
1,97058,97058,Wasco County,OR
2,97060,97060,Multnomah County,OR
1,97062,97062,Washington County,OR
3,97068,97068,Clackamas County,OR
1,97070,97070,Clackamas County,OR
1,97071,97071,Marion County,OR
3,97086,97086,Clackamas County,OR
1,97113,97113,Washington County,OR
2,97124,97124,Washington County,OR
4,97128,97128,Yamhill County,OR
1,97133,97133,Washington County,OR
2,97138,97138,Clatsop County,OR
1,97140,97140,Washington County,OR
1,97141,97141,Tillamook County,OR
2,97202,97202,Multnomah County,OR
1,97202-2166,97202,Multnomah County,OR
1,97203,97203,Multnomah County,OR
1,97205,97205,Multnomah County,OR
1,97209,97209,Multnomah County,OR
1,97211,97211,Multnomah County,OR
2,97214,97214,Multnomah County,OR
1,97216,97216,Multnomah County,OR
1,97218,97218,Multnomah County,OR
1,97219,97219,Multnomah County,OR
1,97219-4050,97219,Multnomah County,OR
1,97220,97220,Multnomah County,OR
2,97222,97222,Clackamas County,OR
5,97223,97223,Washington County,OR
1,97224,97224,Washington County,OR
1,97232,97232,Multnomah County,OR
1,97232-2014,97232,Multnomah County,OR
1,97233,97233,Multnomah County,OR
1,97236,97236,Multnomah County,OR
1,97266,97266,Multnomah County,OR
2,97267,97267,Clackamas County,OR
2,97301,97301,Marion County,OR
4,97303,97303,Marion County,OR
1,97305,97305,Marion County,OR
1,97306,97306,Marion County,OR
1,97317,97317,Marion County,OR
1,97321,97321,Linn County,OR
1,97333,97333,Benton County,OR
1,97355,97355,Linn County,OR
1,97361,97361,Polk County,OR
1,97381,97381,Marion County,OR
1,97386,97386,Linn County,OR
1,97391,97391,Lincoln County,OR
2,97401,97401,Lane County,OR
1,97402,97402,Lane County,OR
3,97420,97420,Coos County,OR
1,97424,97424,Lane County,OR
3,97477,97477,Lane County,OR
1,97478,97478,Lane County,OR
1,97479,97479,Douglas County,OR
1,97501,97501,Jackson County,OR
4,97502,97502,Jackson County,OR
2,97504,97504,Jackson County,OR
1,97526,97526,Josephine County,OR
4,97601,97601,Klamath County,OR
1,97603,97603,Klamath County,OR
1,97702,97702,Deschutes County,OR
1,97741,97741,Jefferson County,OR
1,97754,97754,Crook County,OR
1,97756,97756,Deschutes County,OR
1,97814,97814,Baker County,OR
1,97850,97850,Union County,OR
1,98001,98001,King County,WA
2,98002,98002,King County,WA
2,98003,98003,King County,WA
1,98006,98006,King County,WA
2,98027,98027,King County,WA
1,98030,98030,King County,WA
4,98032,98032,King County,WA
1,98032-1030,98032,King County,WA
2,98034,98034,King County,WA
2,98036,98036,Snohomish County,WA
1,98040,98040,King County,WA
1,98045,98045,King County,WA
1,98052,98052,King County,WA
1,98057,98057,King County,WA
1,98059,98059,King County,WA
1,98087,98087,Snohomish County,WA
1,98105,98105,King County,WA
1,98107,98107,King County,WA
1,98108,98108,King County,WA
1,98115,98115,King County,WA
1,98116,98116,King County,WA
2,98125,98125,King County,WA
1,98126,98126,King County,WA
3,98133,98133,King County,WA
1,98144,98144,King County,WA
1,98146,98146,King County,WA
1,98148,98148,King County,WA
1,98166,98166,King County,WA
1,98178,98178,King County,WA
2,98201,98201,Snohomish County,WA
2,98204,98204,Snohomish County,WA
1,98208,98208,Snohomish County,WA
2,98221,98221,Skagit County,WA
1,98223,98223,Snohomish County,WA
2,98226,98226,Whatcom County,WA
6,98233,98233,Skagit County,WA
1,98258,98258,Snohomish County,WA
2,98270,98270,Snohomish County,WA
4,98271,98271,Snohomish County,WA
2,98272,98272,Snohomish County,WA
1,98275,98275,Snohomish County,WA
1,98277,98277,Island County,WA
2,98290,98290,Snohomish County,WA
1,98296,98296,Snohomish County,WA
1,98310,98310,Kitsap County,WA
2,98327,98327,Pierce County,WA
1,98335,98335,Pierce County,WA
1,98339-9411,98339,Jefferson County,WA
1,98354,98354,Pierce County,WA
1,98360,98360,Pierce County,WA
2,98362,98362,Clallam County,WA
1,98368,98368,Jefferson County,WA
1,98371,98371,Pierce County,WA
1,98373,98373,Pierce County,WA
2,98382,98382,Clallam County,WA
2,98383,98383,Kitsap County,WA
1,98387,98387,Pierce County,WA
1,98390,98390,Pierce County,WA
2,98391,98391,Pierce County,WA
1,98404,98404,Pierce County,WA
1,98408,98408,Pierce County,WA
1,98409,98409,Pierce County,WA
2,98444,98444,Pierce County,WA
2,98466,98466,Pierce County,WA
1,98499,98499,Pierce County,WA
2,98501,98501,Thurston County,WA
1,98502,98502,Thurston County,WA
1,98503,98503,Thurston County,WA
3,98516,98516,Thurston County,WA
6,98520,98520,Grays Harbor County,WA
4,98531,98531,Lewis County,WA
1,98532,98532,Lewis County,WA
1,98550,98550,Grays Harbor County,WA
1,98579,98579,Thurston County,WA
2,98597,98597,Thurston County,WA
2,98604,98604,Clark County,WA
2,98632,98632,Cowlitz County,WA
3,98662,98662,Clark County,WA
2,98665,98665,Clark County,WA
1,98674,98674,Cowlitz County,WA
3,98683,98683,Clark County,WA
2,98684,98684,Clark County,WA
7,98801,98801,Chelan County,WA
3,98802,98802,Douglas County,WA
7,98837,98837,Grant County,WA
1,98841,98841,Okanogan County,WA
4,98901,98901,Yakima County,WA
4,98902,98902,Yakima County,WA
3,98903,98903,Yakima County,WA
1,98922,98922,Kittitas County,WA
1,99004,99004,Spokane County,WA
1,99019,99019,Spokane County,WA
2,99037,99037,Spokane County,WA
1,99205,99205,Spokane County,WA
2,99206,99206,Spokane County,WA
2,99208,99208,Spokane County,WA
2,99212,99212,Spokane County,WA
1,99216,99216,Spokane County,WA
1,99218,99218,Spokane County,WA
1,99224,99224,Spokane County,WA
2,99301,99301,Franklin County,WA
15,99336,99336,Benton County,WA
12,99352,99352,Benton County,WA
1,99403,99403,Asotin County,WA
1,99501,99501,Anchorage Municipality,AK
1,99502,99502,Anchorage Municipality,AK
1,99503,99503,Anchorage Municipality,AK
2,99504,99504,Anchorage Municipality,AK
1,99515,99515,Anchorage Municipality,AK
1,99577,99577,Anchorage Municipality,AK
1,99611,99611,Kenai Peninsula Borough,AK
1,99669,99669,Kenai Peninsula Borough,AK
3,99701,99701,Fairbanks North Star Borough,AK
1,99709,99709,Fairbanks North Star Borough,AK
1,99801,99801,Juneau City and Borough,AK
